{"type":"Feature","geometry":{"type":"MultiPolygon","coordinates":[[[[4.9747,50.15153],[4.97373,50.15267],[4.97294,50.15386],[4.97233,50.15509],[4.9719,50.15636],[4.97167,50.15764],[4.97163,50.15894],[4.97178,50.16023],[4.97212,50.1615],[4.97266,50.16275],[4.97337,50.16396],[4.97427,50.16512],[4.97533,50.16622],[4.97656,50.16725],[4.97793,50.1682],[4.97944,50.16906],[4.98107,50.16983],[4.9828,50.17049],[4.98463,50.17104],[4.98653,50.17147],[4.98848,50.17179],[4.99048,50.17198],[4.99249,50.17205],[4.99323,50.17206],[4.99393,50.17206],[4.99407,50.17206],[4.99628,50.17206],[4.99635,50.17206],[4.99869,50.17207],[4.99871,50.17207],[5.00099,50.17208],[5.00113,50.17208],[5.00334,50.17208],[5.00341,50.17208],[5.00567,50.17209],[5.00569,50.17209],[5.00583,50.17209],[5.00805,50.17209],[5.00812,50.17209],[5.01045,50.1721],[5.01047,50.1721],[5.01275,50.17211],[5.01289,50.17211],[5.01511,50.17211],[5.01518,50.17211],[5.01744,50.17212],[5.01746,50.17212],[5.0176,50.17212],[5.01981,50.17212],[5.01988,50.17212],[5.02221,50.17213],[5.02223,50.17213],[5.02452,50.17214],[5.02466,50.17214],[5.02687,50.17214],[5.02694,50.17214],[5.0292,50.17215],[5.02922,50.17215],[5.02936,50.17215],[5.03157,50.17215],[5.03164,50.17215],[5.03391,50.17216],[5.03394,50.17216],[5.03407,50.17216],[5.03628,50.17216],[5.03635,50.17216],[5.03861,50.17217],[5.03863,50.17217],[5.03877,50.17217],[5.04099,50.17217],[5.04106,50.17217],[5.04332,50.17218],[5.04334,50.17218],[5.04348,50.17218],[5.04569,50.17218],[5.04576,50.17218],[5.04802,50.17219],[5.04804,50.17219],[5.04818,50.17219],[5.0504,50.17219],[5.05047,50.17219],[5.05273,50.1722],[5.05275,50.1722],[5.05289,50.1722],[5.0551,50.1722],[5.05517,50.1722],[5.05744,50.17221],[5.05747,50.17221],[5.0576,50.17221],[5.05981,50.17221],[5.05988,50.17221],[5.06214,50.17222],[5.06216,50.17222],[5.0623,50.17222],[5.06451,50.17222],[5.06458,50.17222],[5.06685,50.17223],[5.06688,50.17223],[5.06701,50.17223],[5.06922,50.17223],[5.06929,50.17223],[5.07155,50.17224],[5.07157,50.17224],[5.07171,50.17224],[5.07393,50.17224],[5.074,50.17224],[5.07626,50.17225],[5.07628,50.17225],[5.07642,50.17225],[5.07863,50.17225],[5.0787,50.17225],[5.08096,50.17226],[5.08098,50.17226],[5.08112,50.17226],[5.08341,50.17226],[5.08569,50.17226],[5.08576,50.17226],[5.08802,50.17227],[5.08804,50.17227],[5.08818,50.17227],[5.0904,50.17227],[5.09047,50.17227],[5.09282,50.17228],[5.09285,50.1723],[5.09362,50.17232],[5.09413,50.17236],[5.09622,50.17236],[5.09673,50.17233],[5.0975,50.17231],[5.09753,50.17229],[5.09851,50.17229],[5.09988,50.17229],[5.10216,50.17229],[5.10223,50.17229],[5.10449,50.1723],[5.10451,50.1723],[5.10465,50.1723],[5.10687,50.1723],[5.10694,50.1723],[5.1092,50.17231],[5.10922,50.17231],[5.10936,50.17231],[5.11164,50.17231],[5.11393,50.17231],[5.114,50.17231],[5.11626,50.17232],[5.11628,50.17232],[5.11642,50.17232],[5.1187,50.17232],[5.12098,50.17232],[5.12105,50.17232],[5.12332,50.17233],[5.12335,50.17233],[5.12348,50.17233],[5.12576,50.17233],[5.12804,50.17233],[5.12811,50.17233],[5.13038,50.17234],[5.13041,50.17234],[5.13054,50.17234],[5.13282,50.17234],[5.1351,50.17234],[5.13517,50.17234],[5.13744,50.17235],[5.13747,50.17235],[5.1376,50.17235],[5.13988,50.17235],[5.14216,50.17235],[5.14223,50.17235],[5.14449,50.17236],[5.14451,50.17236],[5.14465,50.17236],[5.14694,50.17236],[5.14922,50.17236],[5.14929,50.17236],[5.15164,50.17237],[5.15169,50.1724],[5.15214,50.17254],[5.15295,50.17282],[5.15483,50.17332],[5.15679,50.1737],[5.15879,50.17396],[5.16081,50.17409],[5.16285,50.1741],[5.16488,50.17398],[5.16573,50.1739],[5.16576,50.17388],[5.16589,50.17388],[5.16786,50.17363],[5.16992,50.17323],[5.1719,50.1727],[5.17275,50.17244],[5.17282,50.17239],[5.17388,50.17239],[5.1751,50.17239],[5.17517,50.17239],[5.17744,50.1724],[5.17747,50.1724],[5.1776,50.1724],[5.17988,50.1724],[5.18223,50.1724],[5.18459,50.1724],[5.18687,50.1724],[5.18694,50.1724],[5.1892,50.17241],[5.18922,50.17241],[5.18936,50.17241],[5.19165,50.17241],[5.194,50.17241],[5.19635,50.17241],[5.19863,50.17241],[5.1987,50.17241],[5.20097,50.17242],[5.201,50.17242],[5.20113,50.17242],[5.20341,50.17242],[5.20576,50.17242],[5.20812,50.17242],[5.20947,50.17242],[5.21047,50.17242],[5.21052,50.17245],[5.21119,50.17266],[5.21159,50.17279],[5.2135,50.1733],[5.21548,50.17369],[5.2174,50.17393],[5.21753,50.17393],[5.21756,50.17395],[5.21838,50.17408],[5.22039,50.17434],[5.22243,50.17446],[5.22448,50.17446],[5.22652,50.17434],[5.22853,50.17408],[5.22927,50.17396],[5.2293,50.17394],[5.23029,50.17394],[5.23165,50.17394],[5.234,50.17394],[5.23636,50.17394],[5.23871,50.17394],[5.24106,50.17394],[5.24342,50.17394],[5.24577,50.17394],[5.24805,50.17394],[5.24812,50.17394],[5.25039,50.17395],[5.25042,50.17395],[5.25055,50.17395],[5.25177,50.17395],[5.25283,50.17395],[5.25288,50.17398],[5.25352,50.17418],[5.25396,50.17432],[5.25585,50.17483],[5.25782,50.17521],[5.25975,50.17545],[5.25989,50.17545],[5.26169,50.17659],[5.26223,50.17693],[5.26225,50.17695],[5.26454,50.17841],[5.2646,50.17845],[5.26462,50.17847],[5.26694,50.17995],[5.26698,50.17997],[5.26932,50.18146],[5.26997,50.18187],[5.27168,50.18296],[5.27168,50.18329],[5.27168,50.18446],[5.27168,50.18577],[5.27176,50.18696],[5.27201,50.18815],[5.27242,50.18932],[5.273,50.19046],[5.27372,50.19157],[5.274,50.19194],[5.27405,50.19197],[5.27405,50.19201],[5.27484,50.19323],[5.27585,50.19442],[5.27633,50.19493],[5.27641,50.19498],[5.27641,50.19531],[5.27641,50.19645],[5.27641,50.19651],[5.27642,50.19784],[5.27656,50.19933],[5.27695,50.20079],[5.27758,50.20221],[5.27846,50.20359],[5.27874,50.20396],[5.27879,50.20399],[5.27879,50.20403],[5.27921,50.2046],[5.27922,50.2046],[5.27936,50.20481],[5.28049,50.20611],[5.28184,50.20732],[5.28339,50.20842],[5.2834,50.20843],[5.28349,50.20848],[5.28353,50.20852],[5.28407,50.20885],[5.28587,50.21],[5.28587,50.21004],[5.28626,50.21056],[5.28633,50.21067],[5.28732,50.21185],[5.28849,50.21296],[5.28983,50.21399],[5.29016,50.21423],[5.29059,50.2145],[5.29059,50.21453],[5.29094,50.2149],[5.29209,50.216],[5.2934,50.21702],[5.29486,50.21795],[5.29645,50.21878],[5.29817,50.21951],[5.29999,50.22013],[5.30189,50.22064],[5.30386,50.22102],[5.30588,50.22128],[5.30793,50.2214],[5.30999,50.2214],[5.31204,50.22127],[5.31406,50.22101],[5.31603,50.22063],[5.31648,50.22053],[5.31652,50.2205],[5.31667,50.2205],[5.31861,50.22025],[5.32057,50.21987],[5.32247,50.21937],[5.32287,50.21923],[5.32353,50.21903],[5.32358,50.219],[5.32409,50.219],[5.32437,50.21899],[5.32642,50.21886],[5.32845,50.2186],[5.33042,50.21822],[5.33233,50.21771],[5.33295,50.21752],[5.333,50.21749],[5.33315,50.21749],[5.33509,50.21724],[5.33705,50.21686],[5.33895,50.21636],[5.33935,50.21622],[5.34001,50.21602],[5.34006,50.21599],[5.34012,50.21599],[5.34202,50.21549],[5.34389,50.21484],[5.34467,50.21454],[5.34476,50.21448],[5.34616,50.21448],[5.3469,50.21448],[5.34875,50.21443],[5.35059,50.21427],[5.3524,50.21401],[5.35417,50.21365],[5.35588,50.21318],[5.35648,50.213],[5.35653,50.21297],[5.35754,50.21297],[5.35889,50.21297],[5.36124,50.21297],[5.3636,50.21297],[5.36596,50.21297],[5.36824,50.21297],[5.36838,50.21297],[5.3706,50.21296],[5.37067,50.21296],[5.373,50.21296],[5.37302,50.21296],[5.37538,50.21296],[5.37773,50.21296],[5.38002,50.21296],[5.38016,50.21296],[5.38136,50.21295],[5.38244,50.21295],[5.38281,50.21318],[5.38319,50.2134],[5.3832,50.2134],[5.38394,50.21383],[5.3854,50.21454],[5.38695,50.21516],[5.38859,50.2157],[5.38944,50.21595],[5.38952,50.21595],[5.38959,50.21599],[5.39034,50.21621],[5.39244,50.21675],[5.39462,50.21713],[5.39685,50.21736],[5.3991,50.21744],[5.40131,50.21744],[5.40267,50.21744],[5.40366,50.21744],[5.40373,50.21749],[5.4045,50.21778],[5.4046,50.21782],[5.40643,50.21844],[5.40831,50.21893],[5.40838,50.21893],[5.40845,50.21898],[5.40912,50.21923],[5.40935,50.21933],[5.41115,50.21994],[5.41303,50.22043],[5.4131,50.22043],[5.41487,50.22155],[5.41545,50.22192],[5.41547,50.22193],[5.41769,50.22334],[5.41779,50.2234],[5.41787,50.22346],[5.42016,50.22489],[5.4202,50.22492],[5.42253,50.2264],[5.42256,50.22642],[5.42321,50.22683],[5.42492,50.22792],[5.42492,50.22825],[5.42493,50.22926],[5.42502,50.23045],[5.42527,50.23163],[5.42569,50.23279],[5.42626,50.23393],[5.42699,50.23502],[5.42727,50.2354],[5.42732,50.23543],[5.42732,50.23551],[5.42771,50.23673],[5.42831,50.23799],[5.42911,50.23921],[5.42933,50.23947],[5.42965,50.2399],[5.4297,50.23993],[5.4297,50.23997],[5.43049,50.24118],[5.43151,50.24237],[5.43199,50.24287],[5.43208,50.24293],[5.43208,50.243],[5.43223,50.24337],[5.43284,50.24464],[5.43365,50.24587],[5.43463,50.24703],[5.43579,50.24813],[5.43654,50.24871],[5.43671,50.24885],[5.43683,50.24893],[5.43683,50.24897],[5.4372,50.24947],[5.4373,50.24962],[5.4383,50.2508],[5.43947,50.2519],[5.44081,50.25293],[5.44114,50.25316],[5.44157,50.25343],[5.44157,50.25346],[5.44189,50.25373],[5.4424,50.25421],[5.44371,50.25523],[5.44517,50.25615],[5.44676,50.25698],[5.44848,50.25771],[5.45029,50.25833],[5.45219,50.25883],[5.45416,50.25921],[5.45532,50.25936],[5.45565,50.25941],[5.45575,50.25941],[5.45587,50.25949],[5.45649,50.25978],[5.45834,50.26056],[5.46032,50.26121],[5.46239,50.26172],[5.46453,50.26209],[5.46672,50.26231],[5.46894,50.26239],[5.46944,50.26239],[5.46985,50.26239],[5.46999,50.26239],[5.47118,50.26238],[5.47228,50.26238],[5.47233,50.26241],[5.47299,50.26261],[5.47488,50.2631],[5.47683,50.26348],[5.47884,50.26373],[5.48087,50.26386],[5.48121,50.26387],[5.48172,50.26387],[5.48177,50.2639],[5.48238,50.26409],[5.48451,50.26463],[5.48672,50.26503],[5.48899,50.26527],[5.49128,50.26535],[5.49345,50.26535],[5.49359,50.26535],[5.49581,50.26534],[5.49588,50.26534],[5.49815,50.26534],[5.49817,50.26534],[5.49831,50.26534],[5.50052,50.26533],[5.50059,50.26533],[5.50286,50.26533],[5.50288,50.26533],[5.50302,50.26533],[5.50524,50.26532],[5.50531,50.26532],[5.50767,50.26532],[5.50772,50.26535],[5.50833,50.26553],[5.51005,50.26599],[5.51183,50.26635],[5.51365,50.2666],[5.5155,50.26675],[5.51737,50.2668],[5.5194,50.26679],[5.51947,50.26679],[5.52174,50.26679],[5.52176,50.26679],[5.5219,50.26679],[5.52419,50.26678],[5.52648,50.26677],[5.52655,50.26677],[5.52882,50.26677],[5.52884,50.26677],[5.52898,50.26677],[5.53119,50.26676],[5.53126,50.26676],[5.53353,50.26676],[5.53355,50.26676],[5.53369,50.26676],[5.53591,50.26675],[5.53598,50.26675],[5.53825,50.26675],[5.53827,50.26675],[5.53841,50.26675],[5.5407,50.26674],[5.54299,50.26673],[5.54306,50.26673],[5.54532,50.26673],[5.54534,50.26673],[5.54548,50.26673],[5.5477,50.26672],[5.54777,50.26672],[5.55004,50.26672],[5.55006,50.26672],[5.5502,50.26672],[5.55249,50.26671],[5.55383,50.2667],[5.55485,50.2667],[5.5549,50.26673],[5.55552,50.26692],[5.55598,50.26707],[5.55788,50.26757],[5.55983,50.26795],[5.56178,50.26819],[5.56193,50.26819],[5.56198,50.26822],[5.56258,50.2684],[5.56471,50.26895],[5.56691,50.26934],[5.56917,50.26958],[5.57146,50.26966],[5.57367,50.26966],[5.57381,50.26966],[5.5761,50.26965],[5.57839,50.26964],[5.57846,50.26964],[5.58073,50.26964],[5.58075,50.26964],[5.58089,50.26964],[5.58317,50.26963],[5.58546,50.26962],[5.58553,50.26962],[5.5878,50.26962],[5.58782,50.26962],[5.58796,50.26962],[5.59025,50.26961],[5.59254,50.2696],[5.59261,50.2696],[5.59488,50.2696],[5.5949,50.2696],[5.59504,50.2696],[5.59733,50.26959],[5.59867,50.26958],[5.59968,50.26958],[5.59973,50.26961],[5.60035,50.2698],[5.60247,50.27034],[5.60467,50.27073],[5.60693,50.27097],[5.60921,50.27105],[5.61142,50.27105],[5.61156,50.27105],[5.61276,50.27104],[5.61385,50.27104],[5.6139,50.27107],[5.61456,50.27127],[5.61647,50.27176],[5.61844,50.27214],[5.62046,50.27238],[5.62251,50.2725],[5.62278,50.27251],[5.6233,50.27251],[5.62335,50.27254],[5.62399,50.27273],[5.62614,50.27328],[5.62837,50.27367],[5.63066,50.27391],[5.63297,50.27398],[5.63504,50.27397],[5.63511,50.27397],[5.63747,50.27397],[5.63752,50.274],[5.63808,50.27417],[5.64,50.27467],[5.64199,50.27505],[5.64403,50.2753],[5.64609,50.27542],[5.6464,50.27543],[5.64692,50.27543],[5.64699,50.27548],[5.64774,50.27576],[5.64787,50.27582],[5.64972,50.27644],[5.65159,50.27692],[5.65165,50.27692],[5.6517,50.27695],[5.65236,50.27715],[5.65451,50.27769],[5.65673,50.27808],[5.65901,50.27832],[5.66132,50.27839],[5.66346,50.27838],[5.66582,50.27837],[5.66818,50.27836],[5.66953,50.27835],[5.67054,50.27835],[5.67058,50.27838],[5.67123,50.27852],[5.67177,50.27866],[5.67374,50.27903],[5.67576,50.27928],[5.6778,50.2794],[5.67986,50.27939],[5.6819,50.27925],[5.68391,50.27899],[5.68588,50.2786],[5.68632,50.27848],[5.68701,50.27832],[5.68705,50.27829],[5.68806,50.27829],[5.68941,50.27828],[5.69076,50.27827],[5.69177,50.27827],[5.69182,50.2783],[5.69248,50.2785],[5.69463,50.27904],[5.69685,50.27943],[5.69914,50.27967],[5.70144,50.27974],[5.70222,50.27974],[5.70359,50.27973],[5.70536,50.28084],[5.70594,50.28121],[5.70598,50.28123],[5.70834,50.28271],[5.7107,50.28419],[5.71072,50.2842],[5.71309,50.28569],[5.71309,50.2858],[5.71317,50.28612],[5.71322,50.28644],[5.7136,50.28766],[5.71416,50.28886],[5.71488,50.29002],[5.71577,50.29112],[5.71681,50.29218],[5.718,50.29316],[5.71933,50.29407],[5.72028,50.29467],[5.72028,50.29471],[5.72108,50.29592],[5.7221,50.2971],[5.72259,50.2976],[5.72268,50.29766],[5.72268,50.2977],[5.72348,50.2989],[5.7245,50.30009],[5.72499,50.3006],[5.72507,50.30065],[5.72507,50.3007],[5.72539,50.30125],[5.72542,50.30131],[5.72623,50.30253],[5.72723,50.3037],[5.7284,50.3048],[5.72974,50.30581],[5.73122,50.30674],[5.73284,50.30757],[5.73458,50.3083],[5.73643,50.30891],[5.73836,50.3094],[5.73925,50.3096],[5.73935,50.3096],[5.7394,50.30963],[5.74,50.30981],[5.74215,50.31036],[5.74439,50.31075],[5.74668,50.31099],[5.74899,50.31106],[5.75117,50.31105],[5.75251,50.31104],[5.75353,50.31104],[5.7536,50.31109],[5.75433,50.31136],[5.75448,50.31142],[5.7563,50.31203],[5.7582,50.31252],[5.75827,50.31252],[5.75864,50.31275],[5.75902,50.31297],[5.75903,50.31296],[5.75975,50.31337],[5.76122,50.31408],[5.76278,50.3147],[5.76443,50.31523],[5.76531,50.31549],[5.76539,50.31549],[5.76551,50.31557],[5.76621,50.31589],[5.76623,50.3159],[5.76797,50.31663],[5.76981,50.31724],[5.77174,50.31773],[5.77373,50.3181],[5.77577,50.31835],[5.77664,50.31839],[5.77707,50.31843],[5.77724,50.31843],[5.77731,50.31848],[5.778,50.31873],[5.7782,50.31881],[5.78001,50.31942],[5.78191,50.31991],[5.78198,50.31991],[5.78235,50.32014],[5.78273,50.32036],[5.78274,50.32035],[5.78346,50.32076],[5.78493,50.32147],[5.7865,50.32209],[5.78814,50.32263],[5.78902,50.32288],[5.7891,50.32288],[5.78947,50.32311],[5.78985,50.32333],[5.78986,50.32332],[5.7906,50.32375],[5.79207,50.32445],[5.79363,50.32507],[5.79526,50.32559],[5.79615,50.32585],[5.79623,50.32585],[5.7963,50.3259],[5.79703,50.32617],[5.79718,50.32623],[5.79901,50.32684],[5.8009,50.32733],[5.80097,50.32733],[5.80273,50.32843],[5.80335,50.32881],[5.80337,50.32883],[5.80571,50.33028],[5.80572,50.33028],[5.80574,50.3303],[5.80805,50.33175],[5.80812,50.33179],[5.81048,50.33327],[5.81052,50.33329],[5.81287,50.33476],[5.81289,50.33477],[5.81431,50.33566],[5.81573,50.33647],[5.81725,50.33719],[5.81888,50.33783],[5.82059,50.33837],[5.82236,50.33881],[5.8242,50.33914],[5.82466,50.33921],[5.82476,50.33921],[5.82655,50.34033],[5.82714,50.34069],[5.82715,50.3407],[5.82725,50.34076],[5.82726,50.34077],[5.82863,50.34155],[5.8301,50.34226],[5.83167,50.34288],[5.83331,50.34341],[5.8342,50.34367],[5.83428,50.34367],[5.83617,50.34485],[5.83662,50.34513],[5.8367,50.34519],[5.83901,50.34661],[5.83905,50.34664],[5.84139,50.34811],[5.84142,50.34812],[5.84145,50.34814],[5.84202,50.3485],[5.84382,50.34962],[5.84382,50.34966],[5.84412,50.35006],[5.8442,50.35017],[5.84507,50.35122],[5.84608,50.35222],[5.84723,50.35316],[5.84851,50.35404],[5.84852,50.35405],[5.84861,50.3541],[5.85093,50.35555],[5.85095,50.35557],[5.85103,50.35562],[5.8511,50.35566],[5.85115,50.35569],[5.85287,50.35665],[5.85475,50.35748],[5.85676,50.35818],[5.85721,50.3583],[5.85807,50.35855],[5.85813,50.35855],[5.85818,50.35858],[5.85888,50.35879],[5.85922,50.3589],[5.86113,50.3594],[5.86311,50.35977],[5.86509,50.36001],[5.86524,50.36001],[5.86561,50.36024],[5.86599,50.36046],[5.86601,50.36045],[5.86708,50.36104],[5.86897,50.36189],[5.87099,50.36259],[5.87145,50.36271],[5.87232,50.36297],[5.87238,50.36297],[5.8725,50.36305],[5.87319,50.36337],[5.87321,50.36337],[5.87493,50.3641],[5.87676,50.36471],[5.87867,50.3652],[5.88064,50.36557],[5.88267,50.36582],[5.88375,50.36588],[5.88407,50.36591],[5.88424,50.36591],[5.88607,50.36704],[5.8866,50.36737],[5.88663,50.36739],[5.88896,50.36884],[5.889,50.36887],[5.88902,50.36888],[5.89126,50.37028],[5.89136,50.37034],[5.89144,50.3704],[5.89189,50.37067],[5.89379,50.37185],[5.89379,50.37194],[5.8942,50.37316],[5.89482,50.37442],[5.89563,50.37563],[5.89587,50.3759],[5.89618,50.37631],[5.89623,50.37634],[5.89623,50.37667],[5.89625,50.37774],[5.89636,50.37901],[5.89666,50.38026],[5.89714,50.3815],[5.8978,50.3827],[5.89864,50.38385],[5.89964,50.38495],[5.9008,50.38599],[5.9021,50.38695],[5.90355,50.38782],[5.90511,50.38861],[5.90679,50.3893],[5.90799,50.3897],[5.90822,50.38978],[5.90827,50.38978],[5.90834,50.38983],[5.90905,50.39009],[5.90921,50.39016],[5.91102,50.39076],[5.91291,50.39124],[5.91295,50.39125],[5.91302,50.39125],[5.91485,50.39239],[5.91538,50.39272],[5.91544,50.39276],[5.91552,50.39281],[5.91553,50.39281],[5.9169,50.39359],[5.91838,50.39429],[5.91994,50.39491],[5.92159,50.39544],[5.92248,50.39569],[5.92256,50.39569],[5.92263,50.39573],[5.9233,50.39593],[5.92372,50.39606],[5.92564,50.39656],[5.92764,50.39692],[5.92955,50.39715],[5.92968,50.39715],[5.93005,50.39738],[5.93044,50.3976],[5.93045,50.39759],[5.93115,50.398],[5.93264,50.3987],[5.93421,50.39933],[5.93587,50.39986],[5.93674,50.40011],[5.93682,50.40011],[5.93689,50.40015],[5.93757,50.40035],[5.93796,50.40048],[5.93988,50.40097],[5.94186,50.40133],[5.94381,50.40156],[5.94395,50.40156],[5.94432,50.40179],[5.94471,50.40201],[5.94472,50.402],[5.94542,50.4024],[5.9469,50.40311],[5.94848,50.40373],[5.95013,50.40426],[5.95102,50.40452],[5.9511,50.40452],[5.95118,50.40457],[5.95191,50.40484],[5.95205,50.4049],[5.95389,50.40551],[5.95578,50.40599],[5.95585,50.40599],[5.9559,50.40602],[5.95658,50.40622],[5.95697,50.40635],[5.9589,50.40684],[5.96089,50.40721],[5.96284,50.40744],[5.96298,50.40744],[5.96306,50.40749],[5.9638,50.40776],[5.96394,50.40782],[5.96578,50.40843],[5.96766,50.40891],[5.96773,50.40891],[5.96778,50.40894],[5.96839,50.40912],[5.96888,50.40928],[5.97077,50.40977],[5.97273,50.41013],[5.9747,50.41037],[5.97486,50.41037],[5.97498,50.41045],[5.97517,50.41053],[5.97614,50.41103],[5.97786,50.41174],[5.97968,50.41234],[5.98158,50.41283],[5.98355,50.4132],[5.98428,50.41331],[5.98438,50.41331],[5.98443,50.41334],[5.98511,50.41354],[5.98548,50.41367],[5.98739,50.41415],[5.98936,50.41452],[5.99134,50.41476],[5.9915,50.41476],[5.99157,50.41481],[5.99227,50.41506],[5.99246,50.41514],[5.99428,50.41574],[5.99617,50.41623],[5.99619,50.41623],[5.99626,50.41623],[5.99663,50.41646],[5.99701,50.41667],[5.99702,50.41667],[5.99777,50.41709],[5.99925,50.41779],[6.00081,50.4184],[6.00245,50.41893],[6.00334,50.41918],[6.00342,50.41918],[6.00349,50.41922],[6.00415,50.41941],[6.00458,50.41955],[6.0065,50.42004],[6.00849,50.42041],[6.01041,50.42063],[6.01054,50.42063],[6.01061,50.42068],[6.01128,50.42092],[6.0115,50.42101],[6.0133,50.42161],[6.01518,50.42209],[6.01524,50.4221],[6.01531,50.4221],[6.01538,50.42215],[6.01616,50.42244],[6.01623,50.42246],[6.01806,50.42307],[6.01998,50.42356],[6.01999,50.42356],[6.02007,50.42356],[6.02015,50.42361],[6.02089,50.42388],[6.02101,50.42393],[6.02285,50.42454],[6.02476,50.42503],[6.02483,50.42503],[6.02491,50.42508],[6.02567,50.42536],[6.02579,50.42541],[6.02764,50.42602],[6.02953,50.4265],[6.02959,50.4265],[6.02971,50.42658],[6.03036,50.42687],[6.03046,50.42692],[6.0322,50.42764],[6.03403,50.42824],[6.03594,50.42873],[6.03793,50.42909],[6.03995,50.42933],[6.04096,50.42938],[6.04131,50.42941],[6.04148,50.42941],[6.04156,50.42946],[6.04229,50.42973],[6.04244,50.42979],[6.04428,50.4304],[6.04618,50.43088],[6.04625,50.43088],[6.04632,50.43093],[6.04702,50.43118],[6.04721,50.43126],[6.04903,50.43186],[6.05093,50.43235],[6.05094,50.43235],[6.05101,50.43235],[6.05108,50.4324],[6.05185,50.43268],[6.05196,50.43272],[6.0538,50.43333],[6.0557,50.43381],[6.05577,50.43381],[6.05584,50.43386],[6.05652,50.4341],[6.05673,50.43419],[6.05854,50.43479],[6.06043,50.43527],[6.06047,50.43528],[6.06054,50.43528],[6.06059,50.43531],[6.06118,50.43548],[6.0631,50.43597],[6.0651,50.43634],[6.06714,50.43658],[6.06921,50.4367],[6.06952,50.4367],[6.07004,50.4367],[6.07012,50.43675],[6.07085,50.43702],[6.07101,50.43709],[6.07286,50.4377],[6.07473,50.43817],[6.0748,50.43817],[6.07487,50.43822],[6.0756,50.43848],[6.07574,50.43854],[6.07756,50.43914],[6.07947,50.43962],[6.07949,50.43963],[6.07957,50.43963],[6.07962,50.43966],[6.08024,50.43984],[6.08241,50.44038],[6.08465,50.44077],[6.08696,50.441],[6.08928,50.44106],[6.09144,50.44104],[6.09374,50.44102],[6.09381,50.44102],[6.09617,50.44101],[6.0962,50.44103],[6.09653,50.44106],[6.09862,50.44118],[6.10071,50.44116],[6.1028,50.44102],[6.10325,50.44097],[6.10328,50.44095],[6.10343,50.44095],[6.10536,50.44069],[6.10731,50.4403],[6.1092,50.43978],[6.10971,50.4396],[6.1103,50.43942],[6.11035,50.43939],[6.11052,50.43939],[6.11095,50.43935],[6.11182,50.43929],[6.11387,50.43902],[6.11586,50.43862],[6.11778,50.4381],[6.1196,50.43746],[6.12133,50.43671],[6.122,50.43638],[6.12213,50.4363],[6.12228,50.4363],[6.12422,50.43604],[6.12618,50.43564],[6.12807,50.43512],[6.12851,50.43497],[6.12915,50.43477],[6.1292,50.43474],[6.12926,50.43474],[6.13014,50.43447],[6.13053,50.43436],[6.13254,50.43362],[6.13441,50.43275],[6.13612,50.43176],[6.13614,50.43174],[6.13622,50.43169],[6.13626,50.43167],[6.13855,50.43017],[6.13857,50.43016],[6.14076,50.42874],[6.14089,50.42865],[6.14093,50.42863],[6.14101,50.42858],[6.14102,50.42857],[6.14224,50.4277],[6.14334,50.42676],[6.14431,50.42577],[6.14515,50.42472],[6.14555,50.42415],[6.14555,50.42411],[6.14562,50.42406],[6.14605,50.42359],[6.14614,50.4235],[6.1471,50.42233],[6.14785,50.42113],[6.14785,50.42109],[6.15018,50.41957],[6.15122,50.41956],[6.15255,50.41955],[6.15492,50.41953],[6.15728,50.41951],[6.15965,50.41949],[6.16202,50.41947],[6.16335,50.41946],[6.16438,50.41945],[6.16443,50.41948],[6.16494,50.41963],[6.16687,50.42012],[6.16886,50.42048],[6.17089,50.42072],[6.17295,50.42083],[6.17502,50.42081],[6.17707,50.42066],[6.1791,50.42038],[6.18107,50.41998],[6.18297,50.41946],[6.18478,50.41882],[6.18648,50.41807],[6.18806,50.41722],[6.1895,50.41627],[6.19079,50.41524],[6.19191,50.41413],[6.19245,50.41346],[6.19265,50.41324],[6.19265,50.41321],[6.19499,50.41168],[6.19507,50.41168],[6.19508,50.41168],[6.197,50.41115],[6.19883,50.4105],[6.1996,50.4102],[6.19969,50.41014],[6.20072,50.41013],[6.20205,50.41012],[6.20442,50.4101],[6.20678,50.41008],[6.2081,50.41007],[6.20915,50.41006],[6.2092,50.41009],[6.20987,50.41029],[6.21028,50.41042],[6.2122,50.41091],[6.21418,50.41127],[6.21621,50.41151],[6.21826,50.41162],[6.22033,50.4116],[6.22237,50.41145],[6.22439,50.41118],[6.22636,50.41078],[6.22825,50.41026],[6.23006,50.40963],[6.23176,50.40888],[6.23334,50.40803],[6.23478,50.40709],[6.23511,50.40685],[6.23511,50.40683],[6.23684,50.4057],[6.23744,50.40531],[6.23975,50.4038],[6.23977,50.40379],[6.24211,50.40227],[6.24227,50.40227],[6.24424,50.402],[6.24618,50.4016],[6.24805,50.40108],[6.24851,50.40092],[6.24912,50.40073],[6.24917,50.4007],[6.24924,50.40075],[6.24997,50.40102],[6.25012,50.40107],[6.25195,50.40168],[6.25386,50.40216],[6.25394,50.40216],[6.25634,50.40364],[6.25634,50.40368],[6.25635,50.40369],[6.25715,50.40486],[6.25819,50.40606],[6.25869,50.40656],[6.25877,50.40661],[6.25877,50.4067],[6.25918,50.40791],[6.25982,50.40916],[6.26064,50.41037],[6.26089,50.41066],[6.2612,50.41106],[6.26125,50.41109],[6.26126,50.41142],[6.26128,50.41256],[6.26128,50.41262],[6.26132,50.41406],[6.26132,50.41409],[6.26135,50.41556],[6.26135,50.41562],[6.26139,50.41709],[6.26143,50.41856],[6.26143,50.41859],[6.26146,50.41988],[6.26156,50.42108],[6.26184,50.42227],[6.26228,50.42344],[6.26288,50.42458],[6.26364,50.42568],[6.26392,50.42604],[6.26397,50.42607],[6.26398,50.4264],[6.26401,50.42754],[6.26401,50.42757],[6.26404,50.42904],[6.26404,50.4291],[6.26408,50.43054],[6.26408,50.43057],[6.26411,50.43204],[6.26411,50.4321],[6.26415,50.43357],[6.26419,50.43504],[6.26419,50.43507],[6.26422,50.43654],[6.26422,50.4366],[6.26426,50.43804],[6.26426,50.43807],[6.26429,50.43954],[6.26429,50.4396],[6.26433,50.44107],[6.26437,50.44254],[6.26437,50.44257],[6.2644,50.44404],[6.2644,50.4441],[6.26444,50.44554],[6.26444,50.44557],[6.26447,50.44704],[6.26447,50.4471],[6.26451,50.44854],[6.26451,50.44857],[6.26454,50.44984],[6.26464,50.45104],[6.26492,50.45224],[6.26536,50.45341],[6.26597,50.45455],[6.26673,50.45565],[6.267,50.45601],[6.26706,50.45604],[6.26706,50.45608],[6.26736,50.45647],[6.26745,50.4566],[6.26833,50.45765],[6.26936,50.45864],[6.27052,50.45957],[6.2718,50.46044],[6.27188,50.46049],[6.27192,50.46051],[6.2743,50.46197],[6.27432,50.46199],[6.27493,50.46236],[6.27671,50.46345],[6.27672,50.46378],[6.27675,50.46495],[6.27679,50.46642],[6.27679,50.46645],[6.27682,50.46792],[6.27682,50.46798],[6.27685,50.46912],[6.27686,50.46945],[6.2765,50.46969],[6.27615,50.46994],[6.27616,50.46994],[6.27552,50.4704],[6.27442,50.47134],[6.27346,50.47233],[6.27263,50.47338],[6.27223,50.47395],[6.27223,50.474],[6.27186,50.47424],[6.27141,50.47453],[6.27003,50.47552],[6.2688,50.4766],[6.26775,50.47774],[6.26688,50.47895],[6.2662,50.48021],[6.26572,50.4815],[6.26544,50.48282],[6.26536,50.48415],[6.26537,50.48453],[6.26537,50.48459],[6.2654,50.48555],[6.26554,50.4869],[6.26589,50.48824],[6.26646,50.48954],[6.26722,50.49081],[6.26819,50.49202],[6.26933,50.49316],[6.27066,50.49422],[6.27214,50.49519],[6.27376,50.49606],[6.27552,50.49683],[6.27739,50.49748],[6.27935,50.498],[6.28138,50.4984],[6.28347,50.49866],[6.28558,50.49879],[6.28771,50.49878],[6.28982,50.49864],[6.29278,50.49834],[6.29473,50.49809],[6.29664,50.49772],[6.29745,50.49753],[6.29751,50.4975],[6.29754,50.49752],[6.29813,50.49766],[6.30005,50.49805],[6.30202,50.49831],[6.30402,50.49846],[6.30603,50.49848],[6.30803,50.49838],[6.31001,50.49816],[6.31195,50.49782],[6.31383,50.49737],[6.31564,50.4968],[6.31663,50.49641],[6.31664,50.49641],[6.31686,50.49632],[6.31947,50.49533],[6.32188,50.49426],[6.32261,50.49388],[6.32262,50.49385],[6.3228,50.49384],[6.32292,50.49382],[6.32427,50.49362],[6.32619,50.49321],[6.32803,50.49269],[6.32979,50.49205],[6.33145,50.49132],[6.33299,50.49048],[6.33439,50.48956],[6.33566,50.48855],[6.33676,50.48747],[6.3377,50.48633],[6.33846,50.48514],[6.33904,50.4839],[6.33944,50.48264],[6.33964,50.48136],[6.33965,50.48007],[6.33947,50.47878],[6.33909,50.47752],[6.33853,50.47628],[6.33779,50.47508],[6.33752,50.47471],[6.33749,50.47469],[6.33746,50.47466],[6.3375,50.47456],[6.33757,50.47429],[6.33765,50.47376],[6.33773,50.4734],[6.33771,50.47339],[6.33773,50.47329],[6.33777,50.47314],[6.3378,50.47313],[6.33788,50.47291],[6.33798,50.47271],[6.33804,50.47258],[6.33807,50.47248],[6.33816,50.47239],[6.33823,50.4723],[6.33886,50.47152],[6.3396,50.47033],[6.34016,50.4691],[6.34054,50.46784],[6.34072,50.46657],[6.34072,50.46529],[6.34053,50.46402],[6.3404,50.46359],[6.34032,50.46324],[6.34028,50.46318],[6.34028,50.46256],[6.34052,50.46208],[6.34088,50.46185],[6.34108,50.46172],[6.34139,50.46152],[6.34152,50.46146],[6.34194,50.46122],[6.34294,50.46066],[6.34456,50.45953],[6.34458,50.45949],[6.34494,50.45928],[6.34498,50.45925],[6.34513,50.45916],[6.34561,50.45891],[6.34575,50.45887],[6.34731,50.4582],[6.34885,50.4574],[6.3493,50.45711],[6.34977,50.45685],[6.34977,50.45682],[6.35026,50.45673],[6.35035,50.45671],[6.3508,50.45662],[6.35103,50.45662],[6.35313,50.45645],[6.35539,50.45611],[6.35758,50.4556],[6.35967,50.45495],[6.3598,50.45491],[6.35987,50.45487],[6.36046,50.45468],[6.3614,50.45437],[6.36244,50.45402],[6.36303,50.4538],[6.36307,50.45377],[6.3631,50.45377],[6.364,50.45351],[6.36412,50.45348],[6.36598,50.45286],[6.36774,50.45213],[6.36938,50.45129],[6.37088,50.45034],[6.37222,50.44931],[6.3734,50.44819],[6.37439,50.44701],[6.3752,50.44577],[6.37581,50.44448],[6.37621,50.44316],[6.37641,50.44183],[6.3764,50.44048],[6.37634,50.43984],[6.37631,50.43983],[6.37634,50.43982],[6.37634,50.4398],[6.37637,50.43967],[6.37663,50.43881],[6.37684,50.4376],[6.37686,50.43638],[6.37672,50.43516],[6.37662,50.43464],[6.37631,50.43346],[6.37584,50.4323],[6.37522,50.43118],[6.37457,50.43028],[6.37442,50.43012],[6.37406,50.4296],[6.37406,50.42954],[6.37397,50.42935],[6.37353,50.42822],[6.37266,50.42673],[6.37247,50.42646],[6.3724,50.42641],[6.37239,50.42634],[6.37218,50.42604],[6.37187,50.42552],[6.37092,50.42432],[6.37075,50.42413],[6.37035,50.4237],[6.36969,50.42302],[6.36944,50.42275],[6.36941,50.42269],[6.36898,50.42221],[6.36896,50.42221],[6.36856,50.42172],[6.36741,50.4205],[6.36717,50.42024],[6.36692,50.41982],[6.36681,50.41948],[6.36684,50.41877],[6.36883,50.41323],[6.36919,50.41194],[6.36935,50.41064],[6.36931,50.40933],[6.36907,50.40803],[6.36864,50.40675],[6.36802,50.4055],[6.36717,50.40405],[6.36637,50.40287],[6.3654,50.40174],[6.36427,50.40067],[6.36299,50.39968],[6.36156,50.39877],[6.36117,50.39855],[6.361,50.39844],[6.36079,50.39833],[6.36049,50.39807],[6.3593,50.39706],[6.35912,50.3969],[6.35895,50.39674],[6.35845,50.39625],[6.35807,50.39589],[6.35788,50.39564],[6.35778,50.39542],[6.35778,50.39529],[6.35764,50.39486],[6.35712,50.39358],[6.35641,50.39235],[6.35551,50.39116],[6.35444,50.39003],[6.35319,50.38898],[6.3518,50.38801],[6.35102,50.38756],[6.35103,50.38756],[6.35055,50.38728],[6.35006,50.38702],[6.34993,50.38691],[6.34957,50.3867],[6.34824,50.386],[6.34823,50.38599],[6.34787,50.3858],[6.34752,50.38562],[6.34703,50.38537],[6.34625,50.3847],[6.34602,50.38438],[6.34552,50.3837],[6.34492,50.38293],[6.34419,50.38208],[6.34404,50.3819],[6.34362,50.38133],[6.3435,50.38114],[6.34348,50.3811],[6.34326,50.3808],[6.34316,50.38066],[6.34294,50.38036],[6.3431,50.38005],[6.34312,50.38002],[6.34329,50.37969],[6.34363,50.3796],[6.34533,50.37898],[6.34706,50.37818],[6.34867,50.37728],[6.35012,50.37628],[6.3514,50.37519],[6.35194,50.37468],[6.35198,50.37461],[6.35231,50.37433],[6.35246,50.3742],[6.35272,50.37398],[6.35339,50.37364],[6.35357,50.37361],[6.35402,50.37349],[6.35573,50.37296],[6.35736,50.37233],[6.3589,50.37161],[6.36033,50.37081],[6.36164,50.36993],[6.3626,50.36914],[6.36266,50.36907],[6.36306,50.36875],[6.36343,50.36842],[6.36342,50.36841],[6.36383,50.36806],[6.36485,50.36698],[6.3657,50.36585],[6.36639,50.36468],[6.3669,50.36346],[6.36723,50.36222],[6.36739,50.36097],[6.36736,50.35971],[6.36724,50.35906],[6.36722,50.3588],[6.36719,50.35878],[6.36733,50.35871],[6.36758,50.35853],[6.36806,50.35822],[6.36817,50.35812],[6.36819,50.35814],[6.3687,50.35804],[6.37051,50.35762],[6.37225,50.3571],[6.37391,50.35647],[6.37547,50.35576],[6.37591,50.35551],[6.37639,50.35528],[6.3764,50.35525],[6.37641,50.35526],[6.37658,50.35521],[6.37794,50.35473],[6.37925,50.35418],[6.38097,50.3534],[6.38099,50.35341],[6.38121,50.35332],[6.38221,50.35296],[6.38368,50.35232],[6.38489,50.3517],[6.3852,50.3515],[6.38571,50.3513],[6.38615,50.35112],[6.38617,50.35114],[6.38671,50.35099],[6.38763,50.35077],[6.38956,50.35017],[6.39137,50.34944],[6.39307,50.3486],[6.39462,50.34765],[6.39601,50.34661],[6.39723,50.34548],[6.39827,50.34428],[6.39911,50.34302],[6.39974,50.34171],[6.40016,50.34037],[6.40024,50.33984],[6.4003,50.33959],[6.4003,50.33946],[6.40043,50.33909],[6.40053,50.33874],[6.40058,50.33859],[6.40067,50.33825],[6.40068,50.33825],[6.40097,50.33717],[6.40111,50.33585],[6.40105,50.33453],[6.40079,50.33323],[6.40033,50.33194],[6.39968,50.33069],[6.39883,50.32948],[6.39781,50.32834],[6.39662,50.32726],[6.39527,50.32626],[6.39378,50.32535],[6.39215,50.32454],[6.39041,50.32384],[6.38856,50.32325],[6.38664,50.32277],[6.38465,50.32242],[6.38264,50.3222],[6.38253,50.3222],[6.38226,50.32209],[6.38169,50.32177],[6.38122,50.32142],[6.38118,50.32136],[6.38071,50.32091],[6.3807,50.32089],[6.37953,50.31986],[6.37823,50.31891],[6.37678,50.31804],[6.37522,50.31726],[6.37355,50.31658],[6.37179,50.316],[6.36995,50.31553],[6.36805,50.31517],[6.3661,50.31493],[6.36413,50.31481],[6.36215,50.3148],[6.36163,50.31482],[6.36146,50.31484],[6.36146,50.31482],[6.36086,50.31476],[6.35877,50.31462],[6.35668,50.31462],[6.35459,50.31475],[6.35253,50.31501],[6.35053,50.3154],[6.34859,50.31591],[6.34675,50.31655],[6.34501,50.3173],[6.3434,50.31815],[6.3429,50.31845],[6.34291,50.31846],[6.34283,50.31847],[6.34239,50.31861],[6.34141,50.31888],[6.33955,50.31955],[6.3378,50.32034],[6.33619,50.32123],[6.33472,50.32223],[6.33361,50.32316],[6.33352,50.32322],[6.33353,50.32324],[6.33294,50.32351],[6.33291,50.3235],[6.33269,50.32354],[6.33116,50.32374],[6.32918,50.32414],[6.32773,50.32454],[6.32771,50.32455],[6.32724,50.32468],[6.32722,50.32465],[6.32716,50.32462],[6.32564,50.32385],[6.3238,50.3231],[6.32185,50.32248],[6.31981,50.32199],[6.3177,50.32163],[6.31555,50.32142],[6.31337,50.32135],[6.31206,50.3214],[6.31167,50.3214],[6.31159,50.32142],[6.31113,50.32129],[6.30975,50.32089],[6.30788,50.32043],[6.30721,50.32031],[6.30677,50.32021],[6.3066,50.32019],[6.30654,50.32009],[6.30644,50.31996],[6.30633,50.31983],[6.30627,50.31975],[6.30616,50.31964],[6.30591,50.31922],[6.30566,50.31867],[6.30565,50.31857],[6.30558,50.31826],[6.30518,50.31701],[6.3046,50.31578],[6.30385,50.3146],[6.30292,50.31347],[6.30183,50.3124],[6.30058,50.3114],[6.29919,50.31048],[6.29768,50.30965],[6.2962,50.30898],[6.29615,50.30896],[6.29611,50.30896],[6.2961,50.30885],[6.29607,50.30878],[6.29583,50.30817],[6.29562,50.30768],[6.29552,50.30754],[6.29555,50.30754],[6.29555,50.30752],[6.29556,50.30733],[6.29566,50.30639],[6.2956,50.30503],[6.29532,50.30369],[6.29484,50.30237],[6.29416,50.30109],[6.29327,50.29986],[6.2922,50.2987],[6.29135,50.29795],[6.29118,50.29779],[6.29114,50.29777],[6.29115,50.29776],[6.29095,50.29756],[6.28971,50.29649],[6.28832,50.29549],[6.28684,50.29463],[6.28677,50.29461],[6.28592,50.29412],[6.28585,50.29385],[6.28589,50.29374],[6.28595,50.2932],[6.286,50.29297],[6.28603,50.29152],[6.28581,50.29009],[6.28536,50.28867],[6.28522,50.28832],[6.28519,50.28831],[6.28522,50.28829],[6.28524,50.28795],[6.28522,50.28653],[6.28502,50.28545],[6.28496,50.28514],[6.28488,50.28483],[6.28494,50.28473],[6.28496,50.2847],[6.28509,50.28429],[6.28514,50.28414],[6.28515,50.28411],[6.28517,50.28408],[6.2855,50.28315],[6.28577,50.28182],[6.28583,50.28049],[6.28568,50.27916],[6.28533,50.27784],[6.28478,50.27655],[6.28403,50.27531],[6.28309,50.27411],[6.28197,50.27298],[6.28069,50.27193],[6.27924,50.27097],[6.27766,50.2701],[6.27595,50.26933],[6.27413,50.26868],[6.27222,50.26815],[6.27024,50.26774],[6.2682,50.26746],[6.26613,50.2673],[6.26404,50.26728],[6.26197,50.2674],[6.25992,50.26764],[6.25891,50.26779],[6.25889,50.26781],[6.25843,50.26764],[6.25603,50.26676],[6.25559,50.26659],[6.25557,50.26656],[6.25527,50.26638],[6.25372,50.2655],[6.25203,50.26473],[6.25024,50.26407],[6.24835,50.26352],[6.24639,50.2631],[6.24438,50.2628],[6.24233,50.26263],[6.24026,50.26259],[6.23928,50.2626],[6.23931,50.26262],[6.2388,50.26261],[6.23674,50.26257],[6.2362,50.26256],[6.2358,50.26232],[6.23558,50.26219],[6.23393,50.2613],[6.23215,50.26052],[6.23026,50.25987],[6.22827,50.25934],[6.2262,50.25894],[6.22408,50.25868],[6.22389,50.25867],[6.22371,50.25867],[6.2237,50.25865],[6.22345,50.25857],[6.22213,50.25812],[6.22019,50.25762],[6.21818,50.25724],[6.21612,50.25699],[6.21582,50.25696],[6.21576,50.25697],[6.21572,50.25691],[6.21546,50.25669],[6.21403,50.25562],[6.21243,50.25465],[6.21068,50.25379],[6.20944,50.2533],[6.20926,50.25322],[6.2091,50.25317],[6.20902,50.25308],[6.20875,50.25286],[6.2086,50.25273],[6.20847,50.25262],[6.20833,50.25253],[6.20808,50.25213],[6.20805,50.252],[6.20801,50.25194],[6.20721,50.25063],[6.20619,50.24939],[6.20497,50.24821],[6.20482,50.24808],[6.20474,50.24803],[6.20462,50.24786],[6.20462,50.2478],[6.20461,50.24778],[6.20409,50.24666],[6.2033,50.24543],[6.20232,50.24425],[6.20117,50.24314],[6.19985,50.2421],[6.19838,50.24116],[6.19677,50.24031],[6.19504,50.23957],[6.1932,50.23895],[6.19128,50.23844],[6.18928,50.23805],[6.18724,50.2378],[6.18517,50.23768],[6.18493,50.23767],[6.18447,50.23767],[6.18404,50.23757],[6.18214,50.23712],[6.18161,50.237],[6.18152,50.23695],[6.18126,50.23688],[6.18015,50.23653],[6.17819,50.23605],[6.17734,50.2359],[6.17678,50.23579],[6.17673,50.23579],[6.17629,50.23566],[6.17583,50.23551],[6.17558,50.23535],[6.17555,50.23528],[6.17519,50.23488],[6.17487,50.23447],[6.17418,50.23379],[6.17393,50.23352],[6.17388,50.2335],[6.17372,50.23323],[6.17361,50.23277],[6.17359,50.23243],[6.17356,50.23227],[6.17328,50.231],[6.17281,50.22975],[6.17215,50.22853],[6.17132,50.22736],[6.17032,50.22625],[6.16916,50.2252],[6.16796,50.22431],[6.16786,50.22426],[6.16757,50.22399],[6.16749,50.22393],[6.16716,50.22368],[6.16673,50.22301],[6.16651,50.22254],[6.16643,50.22203],[6.16634,50.22158],[6.16627,50.22126],[6.16631,50.22017],[6.16649,50.21977],[6.16666,50.21947],[6.167,50.2192],[6.16705,50.21921],[6.16716,50.21919],[6.16909,50.21879],[6.17094,50.21828],[6.17271,50.21765],[6.17438,50.21692],[6.17593,50.21609],[6.17735,50.21517],[6.17863,50.21416],[6.17975,50.21308],[6.1807,50.21194],[6.18147,50.21074],[6.18207,50.2095],[6.18224,50.20907],[6.18227,50.20894],[6.18243,50.2086],[6.18304,50.20763],[6.18314,50.20753],[6.18347,50.20707],[6.18434,50.20566],[6.18496,50.2042],[6.18531,50.20275],[6.18532,50.2027],[6.18532,50.20269],[6.18536,50.20246],[6.18545,50.20082],[6.18534,50.19999],[6.1853,50.19951],[6.18527,50.1995],[6.18527,50.19902],[6.18531,50.19895],[6.18535,50.19858],[6.1854,50.19828],[6.18545,50.19696],[6.18529,50.19564],[6.18493,50.19435],[6.18475,50.19393],[6.18466,50.19365],[6.18459,50.19354],[6.1845,50.19318],[6.18453,50.19293],[6.18446,50.19178],[6.18418,50.19049],[6.18372,50.18922],[6.18306,50.18799],[6.18222,50.1868],[6.18121,50.18567],[6.18003,50.18461],[6.1787,50.18362],[6.17723,50.18273],[6.17562,50.18192],[6.17391,50.18123],[6.1721,50.18064],[6.17021,50.18016],[6.16825,50.17981],[6.16789,50.17975],[6.16785,50.17976],[6.16755,50.17969],[6.16747,50.17964],[6.167,50.17951],[6.16644,50.17932],[6.16561,50.17911],[6.16532,50.17902],[6.16515,50.17899],[6.16515,50.17897],[6.16419,50.17868],[6.16419,50.17869],[6.16392,50.1786],[6.16379,50.17856],[6.16371,50.17856],[6.16331,50.17842],[6.16329,50.17841],[6.16273,50.17825],[6.16073,50.17775],[6.15865,50.17737],[6.15653,50.17714],[6.15439,50.17705],[6.15223,50.1771],[6.1501,50.17729],[6.14928,50.17742],[6.14916,50.17743],[6.14701,50.17777],[6.14691,50.17781],[6.14684,50.17771],[6.14665,50.17752],[6.14638,50.17727],[6.14633,50.17721],[6.14621,50.17711],[6.14579,50.17658],[6.14565,50.17625],[6.14549,50.17594],[6.14535,50.17566],[6.14527,50.1755],[6.14522,50.1754],[6.14517,50.1753],[6.14515,50.17527],[6.14515,50.17526],[6.14469,50.17446],[6.14448,50.17412],[6.14445,50.17409],[6.14432,50.17389],[6.14428,50.1738],[6.14425,50.17376],[6.1433,50.17244],[6.14214,50.17121],[6.14077,50.17005],[6.1401,50.16955],[6.14004,50.16953],[6.13999,50.16947],[6.13959,50.16916],[6.13822,50.16822],[6.13671,50.16736],[6.13509,50.16661],[6.13335,50.16595],[6.13153,50.16541],[6.12964,50.16497],[6.12769,50.16466],[6.1257,50.16447],[6.1237,50.1644],[6.12169,50.16445],[6.1197,50.16463],[6.11775,50.16493],[6.11584,50.16535],[6.11401,50.16588],[6.11227,50.16652],[6.11122,50.16695],[6.11121,50.16695],[6.11104,50.16703],[6.1102,50.16738],[6.10809,50.16824],[6.10796,50.16829],[6.10689,50.16873],[6.10619,50.16902],[6.10611,50.16905],[6.10553,50.16929],[6.10287,50.17038],[6.10245,50.17055],[6.10243,50.17054],[6.10215,50.17056],[6.10214,50.17057],[6.10213,50.17056],[6.10196,50.17058],[6.10162,50.1706],[6.10025,50.17074],[6.1002,50.17074],[6.1002,50.17076],[6.10018,50.17076],[6.10016,50.17076],[6.10013,50.17074],[6.10008,50.17073],[6.10004,50.17074],[6.10001,50.17073],[6.09998,50.17072],[6.09993,50.17072],[6.09989,50.17072],[6.09987,50.17071],[6.09988,50.17071],[6.09921,50.17063],[6.0992,50.17065],[6.09807,50.17052],[6.09603,50.17041],[6.09397,50.17044],[6.09193,50.17059],[6.08992,50.17087],[6.08797,50.17127],[6.087,50.17154],[6.08643,50.17169],[6.08641,50.1717],[6.08638,50.17171],[6.0863,50.17172],[6.08623,50.17174],[6.08618,50.17177],[6.08616,50.17177],[6.08611,50.17177],[6.08576,50.17186],[6.08534,50.17195],[6.0853,50.17197],[6.08524,50.17198],[6.08517,50.17198],[6.0851,50.172],[6.08507,50.17201],[6.08504,50.172],[6.08501,50.17199],[6.0849,50.17199],[6.08438,50.17199],[6.08429,50.172],[6.08425,50.172],[6.08335,50.17185],[6.0832,50.17182],[6.08279,50.17171],[6.08252,50.17165],[6.08174,50.17145],[6.08061,50.17115],[6.08023,50.17105],[6.07946,50.17086],[6.07929,50.17082],[6.0792,50.17079],[6.07923,50.17072],[6.07923,50.17062],[6.07919,50.16952],[6.07901,50.16842],[6.079,50.16837],[6.07892,50.16812],[6.07893,50.16806],[6.07882,50.1676],[6.07876,50.16724],[6.07835,50.16596],[6.07774,50.16472],[6.07696,50.16353],[6.076,50.16238],[6.07487,50.16131],[6.07358,50.1603],[6.07216,50.15938],[6.0706,50.15855],[6.06892,50.15783],[6.06714,50.15721],[6.06528,50.1567],[6.06335,50.15631],[6.06138,50.15604],[6.05937,50.15589],[6.05734,50.15587],[6.05533,50.15597],[6.05334,50.1562],[6.05139,50.15655],[6.05029,50.15682],[6.04936,50.15704],[6.0492,50.15708],[6.04862,50.15722],[6.04802,50.15732],[6.04743,50.15743],[6.04744,50.15744],[6.04674,50.15758],[6.04498,50.15802],[6.04353,50.15849],[6.04352,50.1585],[6.04314,50.15863],[6.04204,50.15894],[6.04205,50.15895],[6.0408,50.15932],[6.03905,50.15998],[6.03741,50.16074],[6.03589,50.1616],[6.03451,50.16255],[6.03328,50.16359],[6.0322,50.16469],[6.0313,50.16585],[6.03058,50.16707],[6.03004,50.16832],[6.02969,50.16961],[6.02956,50.17071],[6.02956,50.17074],[6.02953,50.17107],[6.02945,50.17135],[6.02944,50.17138],[6.02939,50.17166],[6.02929,50.17211],[6.0292,50.17248],[6.02915,50.17286],[6.029,50.17331],[6.02884,50.17365],[6.02837,50.1746],[6.02831,50.17473],[6.02827,50.1748],[6.02811,50.17522],[6.02787,50.17562],[6.02756,50.17616],[6.02747,50.17631],[6.02737,50.17646],[6.02726,50.17656],[6.02658,50.17759],[6.02601,50.1787],[6.0256,50.17983],[6.02559,50.17987],[6.02547,50.18027],[6.02544,50.18036],[6.02504,50.18181],[6.02492,50.18216],[6.02483,50.18245],[6.02473,50.18277],[6.02424,50.18269],[6.02403,50.18266],[6.02308,50.18254],[6.02293,50.18252],[6.02227,50.18246],[6.02212,50.18243],[6.02153,50.18227],[6.02125,50.18218],[6.02124,50.18217],[6.02084,50.18205],[6.02083,50.18207],[6.01853,50.18144],[6.01846,50.18143],[6.0182,50.18138],[6.01797,50.18132],[6.0178,50.18127],[6.01764,50.18121],[6.01757,50.18117],[6.01756,50.18115],[6.01592,50.18029],[6.01402,50.17949],[6.012,50.17883],[6.00988,50.17832],[6.00984,50.17831],[6.00966,50.17829],[6.00951,50.17825],[6.0089,50.17805],[6.00858,50.17794],[6.00728,50.17754],[6.0063,50.17726],[6.00593,50.17715],[6.00538,50.17698],[6.00325,50.17643],[6.00105,50.17603],[5.99879,50.17579],[5.99227,50.17532],[5.99226,50.17532],[5.99221,50.17532],[5.99206,50.17531],[5.98984,50.17521],[5.98966,50.17521],[5.98904,50.17521],[5.98898,50.17521],[5.98873,50.17521],[5.98784,50.17521],[5.9869,50.1752],[5.98663,50.1752],[5.9861,50.1752],[5.98504,50.17519],[5.98502,50.17519],[5.985,50.17519],[5.9846,50.17518],[5.98446,50.17518],[5.98348,50.17515],[5.98273,50.17513],[5.98009,50.17511],[5.97849,50.1751],[5.97684,50.17508],[5.97584,50.17507],[5.97571,50.17507],[5.97509,50.17506],[5.97497,50.17506],[5.97493,50.17506],[5.97474,50.17506],[5.97426,50.17505],[5.97398,50.17505],[5.97327,50.17504],[5.97162,50.17502],[5.97107,50.17502],[5.97103,50.17501],[5.97081,50.17491],[5.97078,50.17489],[5.97053,50.17479],[5.96929,50.17426],[5.96731,50.1736],[5.96524,50.17307],[5.96512,50.17305],[5.9651,50.17306],[5.96465,50.17295],[5.96414,50.1728],[5.96368,50.17263],[5.96381,50.1723],[5.96383,50.17223],[5.96419,50.17064],[5.96424,50.16906],[5.96423,50.16886],[5.96423,50.16876],[5.96424,50.16777],[5.96415,50.16691],[5.96412,50.16684],[5.96407,50.16666],[5.96406,50.16658],[5.96409,50.16651],[5.96397,50.16577],[5.96394,50.16577],[5.96387,50.16525],[5.96345,50.1639],[5.96283,50.16258],[5.96209,50.16147],[5.96195,50.1613],[5.96192,50.16124],[5.96177,50.16076],[5.9618,50.16076],[5.96181,50.16053],[5.96193,50.15971],[5.96192,50.15842],[5.96172,50.15713],[5.96132,50.15585],[5.96074,50.15461],[5.95998,50.15341],[5.95904,50.15227],[5.95834,50.15159],[5.95818,50.15141],[5.95814,50.15139],[5.95817,50.15138],[5.95831,50.15115],[5.95835,50.1511],[5.95871,50.15056],[5.9587,50.15053],[5.95873,50.15052],[5.95936,50.14943],[5.95985,50.14831],[5.96018,50.14717],[5.96021,50.14704],[5.96025,50.14684],[5.96029,50.14668],[5.96032,50.14652],[5.96031,50.14652],[5.96049,50.14552],[5.96054,50.14424],[5.96039,50.14296],[5.96005,50.14169],[5.95953,50.14045],[5.95883,50.13924],[5.95879,50.13918],[5.95854,50.13886],[5.95855,50.13882],[5.95826,50.13821],[5.95758,50.13701],[5.95672,50.13585],[5.95571,50.13476],[5.95453,50.13372],[5.95321,50.13277],[5.95175,50.1319],[5.95017,50.13112],[5.94849,50.13044],[5.94671,50.12987],[5.94485,50.12941],[5.94351,50.12916],[5.94343,50.12916],[5.94314,50.1291],[5.94264,50.129],[5.94265,50.12898],[5.94257,50.12895],[5.94059,50.12826],[5.94052,50.12824],[5.94049,50.12823],[5.93985,50.12805],[5.93984,50.12805],[5.93953,50.12796],[5.93903,50.12783],[5.93902,50.12784],[5.93781,50.12752],[5.93571,50.12713],[5.93414,50.12695],[5.93389,50.12692],[5.93371,50.12689],[5.93357,50.12687],[5.9334,50.12683],[5.93329,50.1268],[5.93296,50.12673],[5.93131,50.12647],[5.93132,50.12645],[5.93057,50.12634],[5.93056,50.12633],[5.93034,50.12632],[5.93014,50.12629],[5.92994,50.12625],[5.92966,50.12619],[5.92925,50.126],[5.9289,50.12583],[5.92808,50.12544],[5.92784,50.12533],[5.92783,50.12532],[5.9258,50.12447],[5.92364,50.12378],[5.9221,50.12335],[5.92164,50.12322],[5.92159,50.12319],[5.91975,50.12269],[5.9178,50.12229],[5.9158,50.12202],[5.91444,50.12192],[5.91415,50.12189],[5.9141,50.1219],[5.91406,50.12188],[5.91374,50.12174],[5.91368,50.12172],[5.91307,50.12145],[5.91206,50.12108],[5.91208,50.12107],[5.9112,50.12072],[5.91119,50.12074],[5.91115,50.12069],[5.91095,50.12057],[5.90969,50.11976],[5.90783,50.11881],[5.90581,50.11799],[5.90526,50.1178],[5.90511,50.11774],[5.905,50.1177],[5.90395,50.11734],[5.90391,50.11733],[5.90349,50.11721],[5.90335,50.11713],[5.9031,50.11703],[5.9024,50.11671],[5.90134,50.11631],[5.9012,50.11626],[5.90101,50.1162],[5.90089,50.11615],[5.90083,50.11612],[5.90074,50.11608],[5.90053,50.11592],[5.90046,50.11587],[5.90035,50.11576],[5.90026,50.11567],[5.90024,50.11564],[5.90013,50.11553],[5.89901,50.11452],[5.89775,50.11357],[5.89636,50.11271],[5.89598,50.1125],[5.89538,50.11221],[5.89531,50.11216],[5.89534,50.11205],[5.89533,50.11147],[5.89532,50.11147],[5.89533,50.11119],[5.89515,50.10984],[5.89516,50.10984],[5.89512,50.1096],[5.89506,50.10935],[5.89504,50.10918],[5.89507,50.10733],[5.89508,50.10728],[5.89512,50.10634],[5.89494,50.10493],[5.89466,50.104],[5.89467,50.104],[5.8946,50.10374],[5.89455,50.10362],[5.89453,50.10353],[5.89444,50.1033],[5.89443,50.1033],[5.89413,50.10249],[5.89348,50.10126],[5.89265,50.10008],[5.89236,50.09976],[5.89207,50.0994],[5.89198,50.09932],[5.89155,50.09873],[5.89131,50.09831],[5.89129,50.09827],[5.89088,50.09754],[5.89014,50.09651],[5.88942,50.0957],[5.8894,50.09567],[5.88934,50.09562],[5.88929,50.09555],[5.88919,50.09528],[5.88909,50.09508],[5.88899,50.09479],[5.88888,50.09453],[5.88796,50.0928],[5.88794,50.09277],[5.88792,50.09274],[5.88763,50.09231],[5.88746,50.09209],[5.887,50.09142],[5.8867,50.09098],[5.88658,50.09078],[5.88652,50.09066],[5.88647,50.09051],[5.88645,50.09041],[5.88647,50.09009],[5.88648,50.08985],[5.88653,50.08937],[5.88657,50.08904],[5.88658,50.08894],[5.88659,50.0889],[5.88667,50.08761],[5.88655,50.08629],[5.88623,50.08499],[5.88572,50.08372],[5.88501,50.08248],[5.88412,50.08129],[5.88306,50.08017],[5.88183,50.07912],[5.88045,50.07814],[5.87892,50.07726],[5.87727,50.07648],[5.87551,50.07581],[5.87366,50.07525],[5.8732,50.07513],[5.87315,50.07512],[5.8729,50.07505],[5.87201,50.07477],[5.8715,50.07462],[5.87127,50.07454],[5.87114,50.07451],[5.87078,50.07437],[5.87046,50.07426],[5.86962,50.07399],[5.86882,50.07375],[5.86849,50.07364],[5.86794,50.07344],[5.86772,50.07335],[5.86772,50.07332],[5.86711,50.07281],[5.86702,50.07273],[5.86561,50.07167],[5.86402,50.0707],[5.86229,50.06985],[5.86095,50.06932],[5.86072,50.06922],[5.86066,50.06921],[5.8606,50.06911],[5.8602,50.06865],[5.86016,50.06866],[5.85967,50.06806],[5.85928,50.06765],[5.85889,50.06727],[5.85886,50.06725],[5.85868,50.06707],[5.85856,50.06694],[5.85844,50.06681],[5.85835,50.06668],[5.85816,50.06638],[5.85809,50.06627],[5.85803,50.06616],[5.85802,50.06616],[5.85749,50.06535],[5.85747,50.06532],[5.85735,50.06515],[5.85713,50.0648],[5.85693,50.06442],[5.85684,50.06424],[5.85677,50.06408],[5.85673,50.06393],[5.8567,50.06379],[5.85668,50.06372],[5.85629,50.06258],[5.85575,50.06145],[5.85506,50.06036],[5.85482,50.06003],[5.85477,50.06],[5.85474,50.0599],[5.85448,50.05942],[5.85447,50.05942],[5.85444,50.05935],[5.85424,50.05891],[5.8542,50.05889],[5.85428,50.05884],[5.85471,50.05845],[5.85499,50.05822],[5.8561,50.05706],[5.85703,50.05583],[5.85721,50.05552],[5.85748,50.05512],[5.85752,50.05501],[5.85755,50.05502],[5.85799,50.05467],[5.85923,50.05359],[5.86029,50.05244],[5.86117,50.05123],[5.86186,50.04997],[5.86235,50.04867],[5.86264,50.04734],[5.86272,50.046],[5.8626,50.04467],[5.86227,50.04335],[5.86174,50.04205],[5.86101,50.0408],[5.8601,50.0396],[5.859,50.03846],[5.85774,50.0374],[5.85631,50.03642],[5.85619,50.03634],[5.85618,50.03634],[5.85611,50.03631],[5.85608,50.03629],[5.85607,50.03627],[5.85607,50.03621],[5.85609,50.03619],[5.8561,50.03617],[5.85611,50.03614],[5.85624,50.03488],[5.85618,50.03362],[5.85594,50.03237],[5.85553,50.03114],[5.85493,50.02994],[5.85417,50.02878],[5.85324,50.02767],[5.85215,50.02662],[5.85158,50.02612],[5.85152,50.0261],[5.85153,50.02608],[5.85152,50.02607],[5.85117,50.02568],[5.85087,50.02532],[5.84972,50.0242],[5.8484,50.02317],[5.84692,50.02222],[5.84531,50.02137],[5.84358,50.02062],[5.84174,50.01999],[5.83981,50.01949],[5.83893,50.01932],[5.83848,50.01922],[5.83837,50.01921],[5.83838,50.01919],[5.8381,50.01913],[5.83548,50.01866],[5.83527,50.01863],[5.8351,50.01861],[5.83405,50.01847],[5.83375,50.01842],[5.83376,50.0184],[5.83192,50.01791],[5.82999,50.01754],[5.82802,50.01729],[5.82603,50.01717],[5.82402,50.01716],[5.82202,50.01728],[5.82005,50.01752],[5.81813,50.01789],[5.81627,50.01837],[5.81448,50.01896],[5.8128,50.01966],[5.81122,50.02046],[5.80978,50.02135],[5.80847,50.02233],[5.80731,50.02339],[5.80631,50.02451],[5.80549,50.02569],[5.80485,50.02691],[5.80439,50.02817],[5.80412,50.02945],[5.80404,50.03074],[5.80405,50.03167],[5.80407,50.03317],[5.80409,50.03467],[5.80411,50.03617],[5.80413,50.03767],[5.80415,50.03917],[5.80417,50.04067],[5.80419,50.04184],[5.80419,50.04217],[5.80412,50.04222],[5.8037,50.04267],[5.80359,50.04278],[5.80264,50.04395],[5.80188,50.04515],[5.80188,50.04519],[5.80181,50.04524],[5.80137,50.04571],[5.80129,50.04579],[5.80032,50.04697],[5.79957,50.04816],[5.79957,50.0482],[5.79921,50.04844],[5.79886,50.04868],[5.79887,50.04869],[5.79826,50.04912],[5.79715,50.05006],[5.79618,50.05106],[5.79534,50.05211],[5.79493,50.05267],[5.79493,50.05272],[5.79457,50.05296],[5.79317,50.05386],[5.79261,50.05422],[5.79259,50.05424],[5.79028,50.05574],[5.78831,50.05702],[5.78795,50.05725],[5.78789,50.05725],[5.78702,50.05752],[5.78662,50.05763],[5.78462,50.05836],[5.78275,50.05922],[5.78104,50.06022],[5.78094,50.06028],[5.77863,50.06177],[5.77859,50.06181],[5.77628,50.06331],[5.77395,50.06482],[5.77332,50.06523],[5.77198,50.0661],[5.77162,50.06633],[5.77156,50.06633],[5.77081,50.06656],[5.77052,50.06664],[5.76871,50.06727],[5.767,50.06802],[5.76541,50.06887],[5.76506,50.06908],[5.76462,50.06936],[5.76411,50.06936],[5.76364,50.06936],[5.76227,50.06937],[5.75992,50.06938],[5.75757,50.06939],[5.75522,50.0694],[5.75287,50.06941],[5.75052,50.06942],[5.74817,50.06943],[5.74583,50.06944],[5.74348,50.06944],[5.74341,50.06939],[5.74265,50.06911],[5.74255,50.06906],[5.74073,50.06845],[5.73883,50.06796],[5.73876,50.06796],[5.73869,50.06791],[5.73798,50.06765],[5.73781,50.06758],[5.736,50.06697],[5.73412,50.06648],[5.73405,50.06648],[5.73368,50.06625],[5.73235,50.06541],[5.73168,50.06499],[5.72931,50.0635],[5.72919,50.06343],[5.72748,50.06245],[5.7256,50.06161],[5.7236,50.0609],[5.72316,50.06078],[5.72229,50.06052],[5.72223,50.06052],[5.72187,50.06029],[5.72049,50.05942],[5.71988,50.05904],[5.71986,50.05902],[5.71927,50.05865],[5.71787,50.05777],[5.7175,50.05754],[5.7175,50.0575],[5.71669,50.05628],[5.71566,50.05507],[5.7152,50.0546],[5.71512,50.05455],[5.71512,50.05452],[5.71398,50.05345],[5.71266,50.05246],[5.71121,50.05154],[5.70962,50.05072],[5.70806,50.05007],[5.70803,50.05007],[5.70796,50.05003],[5.70792,50.05001],[5.70724,50.04975],[5.70709,50.04969],[5.70529,50.04908],[5.7034,50.04859],[5.70338,50.04859],[5.70331,50.04859],[5.70294,50.04836],[5.70162,50.04752],[5.70095,50.0471],[5.70084,50.04703],[5.69948,50.04624],[5.69801,50.04553],[5.69646,50.04491],[5.69483,50.04438],[5.69395,50.04412],[5.69387,50.04412],[5.6935,50.04389],[5.69218,50.04305],[5.69151,50.04263],[5.68915,50.04114],[5.68755,50.04013],[5.68715,50.03987],[5.68678,50.03964],[5.68678,50.0396],[5.68677,50.03959],[5.686,50.03841],[5.68497,50.03721],[5.68449,50.0367],[5.6844,50.03665],[5.6844,50.03661],[5.68401,50.03609],[5.68394,50.03598],[5.68294,50.03481],[5.68177,50.0337],[5.68043,50.03267],[5.68009,50.03244],[5.67966,50.03217],[5.67966,50.03213],[5.67887,50.03092],[5.67785,50.02973],[5.67736,50.02922],[5.67728,50.02917],[5.67728,50.0291],[5.67688,50.02785],[5.67623,50.02654],[5.67538,50.02527],[5.67497,50.02473],[5.67489,50.02468],[5.67489,50.02459],[5.67449,50.02336],[5.67388,50.0221],[5.67308,50.02089],[5.67287,50.02064],[5.67255,50.02021],[5.6725,50.02018],[5.6725,50.02014],[5.67171,50.01894],[5.67069,50.01775],[5.67021,50.01725],[5.67012,50.01719],[5.67012,50.01711],[5.66971,50.01585],[5.66907,50.01455],[5.66822,50.01329],[5.6678,50.01275],[5.66773,50.0127],[5.66773,50.01237],[5.66771,50.0122],[5.66749,50.01089],[5.66707,50.00959],[5.66645,50.00832],[5.66565,50.0071],[5.66537,50.00673],[5.66532,50.0067],[5.66532,50.00666],[5.66452,50.00545],[5.66351,50.00427],[5.66303,50.00377],[5.66294,50.00371],[5.66294,50.00367],[5.66275,50.00347],[5.66208,50.00268],[5.66086,50.00154],[5.65946,50.00049],[5.65791,49.99953],[5.65622,49.99868],[5.65439,49.99795],[5.65246,49.99734],[5.65045,49.99687],[5.64837,49.99652],[5.64625,49.99632],[5.6441,49.99626],[5.64176,49.99627],[5.63942,49.99628],[5.63713,49.99628],[5.637,49.99628],[5.63576,49.99629],[5.63524,49.99629],[5.63473,49.99629],[5.63436,49.99606],[5.63398,49.99584],[5.63397,49.99585],[5.63325,49.99543],[5.63179,49.99472],[5.63025,49.9941],[5.62862,49.99357],[5.62774,49.99331],[5.62766,49.99331],[5.62754,49.99323],[5.62693,49.99295],[5.62534,49.99227],[5.62366,49.99168],[5.62191,49.9912],[5.62009,49.99082],[5.61823,49.99055],[5.61634,49.99039],[5.61444,49.99035],[5.61408,49.99035],[5.61357,49.99035],[5.61354,49.99033],[5.61324,49.9903],[5.61189,49.99014],[5.60985,49.99002],[5.6078,49.99002],[5.60577,49.99016],[5.60462,49.99031],[5.60422,49.99035],[5.60419,49.99037],[5.60368,49.99037],[5.60334,49.99038],[5.60133,49.99052],[5.59935,49.99078],[5.59742,49.99116],[5.59555,49.99166],[5.59487,49.99187],[5.59482,49.9919],[5.59476,49.9919],[5.59396,49.99214],[5.59376,49.9922],[5.59193,49.99283],[5.5902,49.99358],[5.5886,49.99443],[5.58824,49.99465],[5.58782,49.99492],[5.58775,49.99492],[5.58585,49.99543],[5.58401,49.99607],[5.58322,49.99638],[5.58314,49.99643],[5.58262,49.99643],[5.58209,49.99643],[5.58086,49.99643],[5.58072,49.99643],[5.57949,49.99644],[5.57896,49.99644],[5.57845,49.99644],[5.57838,49.99639],[5.57766,49.99612],[5.5775,49.99605],[5.57569,49.99544],[5.57382,49.99495],[5.57375,49.99495],[5.57338,49.99472],[5.57196,49.99381],[5.57141,49.99347],[5.57137,49.99343],[5.56903,49.99196],[5.56672,49.99048],[5.56664,49.99043],[5.56657,49.99039],[5.56655,49.99038],[5.5652,49.9896],[5.56374,49.98889],[5.5622,49.98827],[5.56058,49.98774],[5.5597,49.98748],[5.55962,49.98748],[5.5595,49.9874],[5.55926,49.98729],[5.55749,49.98654],[5.55561,49.98591],[5.55364,49.98541],[5.5516,49.98503],[5.54951,49.9848],[5.54739,49.98469],[5.54527,49.98473],[5.54317,49.98491],[5.54111,49.98522],[5.5391,49.98566],[5.53718,49.98624],[5.53536,49.98693],[5.53365,49.98774],[5.53208,49.98866],[5.53162,49.98896],[5.5315,49.98904],[5.5292,49.99052],[5.52912,49.99057],[5.52683,49.99205],[5.52676,49.9921],[5.52675,49.9921],[5.52552,49.99297],[5.5244,49.99391],[5.52342,49.9949],[5.52258,49.99595],[5.52217,49.99652],[5.52217,49.99656],[5.52181,49.99679],[5.52031,49.99776],[5.51984,49.99807],[5.51754,49.99955],[5.51746,49.9996],[5.51517,50.00108],[5.51283,50.00258],[5.51268,50.00258],[5.51074,50.00284],[5.50879,50.00322],[5.5069,50.00373],[5.50653,50.00386],[5.50586,50.00407],[5.50581,50.0041],[5.50574,50.00405],[5.50506,50.00379],[5.50484,50.0037],[5.50304,50.00309],[5.50118,50.0026],[5.50111,50.0026],[5.50075,50.00237],[5.49912,50.00134],[5.49875,50.00111],[5.49875,50.00109],[5.4983,50.00077],[5.49782,50.0004],[5.49631,49.99946],[5.49467,49.99861],[5.4929,49.99788],[5.49102,49.99726],[5.48906,49.99677],[5.48703,49.99641],[5.48496,49.99618],[5.48286,49.99608],[5.48075,49.99613],[5.47867,49.99631],[5.47662,49.99662],[5.47463,49.99706],[5.47272,49.99763],[5.47091,49.99832],[5.46922,49.99913],[5.46766,50.00004],[5.46629,50.00092],[5.46592,50.00116],[5.46359,50.00266],[5.46353,50.0027],[5.46228,50.00357],[5.46116,50.00451],[5.46018,50.00551],[5.45933,50.00656],[5.45892,50.00712],[5.45892,50.00717],[5.45856,50.0074],[5.45719,50.00828],[5.4566,50.00867],[5.45658,50.00867],[5.45425,50.01018],[5.45273,50.01116],[5.45228,50.01145],[5.45192,50.01168],[5.45141,50.01168],[5.45087,50.01168],[5.44964,50.01168],[5.4495,50.01168],[5.44722,50.01169],[5.44488,50.01169],[5.4435,50.01169],[5.44304,50.01169],[5.44253,50.01169],[5.44246,50.01164],[5.44174,50.01137],[5.44161,50.01132],[5.43983,50.01071],[5.43795,50.01021],[5.4379,50.0102],[5.43783,50.0102],[5.43776,50.01015],[5.43704,50.00988],[5.43688,50.00981],[5.43507,50.00919],[5.43321,50.0087],[5.43314,50.0087],[5.43309,50.00867],[5.43243,50.00847],[5.43204,50.00834],[5.43016,50.00784],[5.42821,50.00746],[5.42625,50.00721],[5.42609,50.00721],[5.42606,50.00719],[5.42569,50.00716],[5.42448,50.007],[5.42244,50.00687],[5.42039,50.00687],[5.41835,50.007],[5.41707,50.00717],[5.41674,50.0072],[5.41671,50.00722],[5.4162,50.00722],[5.41574,50.00722],[5.41437,50.00722],[5.41202,50.00722],[5.40975,50.00722],[5.40961,50.00722],[5.40733,50.00723],[5.40499,50.00723],[5.40264,50.00723],[5.40029,50.00723],[5.39795,50.00723],[5.39583,50.00723],[5.39353,50.00731],[5.39126,50.00756],[5.38904,50.00796],[5.38691,50.00852],[5.38628,50.00871],[5.38623,50.00874],[5.38572,50.00874],[5.3852,50.00874],[5.38396,50.00874],[5.38382,50.00874],[5.38154,50.00875],[5.37919,50.00875],[5.37685,50.00875],[5.3745,50.00875],[5.37216,50.00875],[5.36981,50.00875],[5.36747,50.00875],[5.36609,50.00875],[5.36563,50.00875],[5.36512,50.00875],[5.36507,50.00872],[5.36438,50.00851],[5.36404,50.00839],[5.36215,50.00789],[5.36019,50.00751],[5.35823,50.00726],[5.35808,50.00726],[5.35772,50.00703],[5.3564,50.00619],[5.35573,50.00576],[5.35338,50.00426],[5.35105,50.00277],[5.35101,50.00273],[5.34868,50.00125],[5.34633,49.99975],[5.34567,49.99933],[5.34435,49.99848],[5.34398,49.99825],[5.34398,49.99821],[5.34318,49.99698],[5.34215,49.99577],[5.3417,49.9953],[5.34163,49.99525],[5.34163,49.99522],[5.34051,49.99416],[5.33921,49.99316],[5.33777,49.99225],[5.3362,49.99143],[5.33467,49.99077],[5.33462,49.99075],[5.33458,49.99075],[5.33446,49.99067],[5.33409,49.9905],[5.33239,49.98977],[5.33058,49.98915],[5.32869,49.98865],[5.32673,49.98827],[5.32473,49.98802],[5.32269,49.98789],[5.32065,49.98789],[5.31861,49.98802],[5.31661,49.98827],[5.31465,49.98866],[5.31276,49.98916],[5.31096,49.98978],[5.30926,49.99051],[5.30891,49.99067],[5.30879,49.99075],[5.30873,49.99075],[5.30785,49.99102],[5.30786,49.99102],[5.30747,49.99112],[5.30546,49.99184],[5.30359,49.9927],[5.30187,49.99369],[5.30177,49.99375],[5.29943,49.99525],[5.29879,49.99566],[5.29745,49.99652],[5.29709,49.99675],[5.29703,49.99675],[5.29615,49.99702],[5.29616,49.99702],[5.29576,49.99713],[5.29375,49.99785],[5.29187,49.9987],[5.29015,49.99969],[5.29006,49.99975],[5.28774,50.00123],[5.2877,50.00127],[5.28538,50.00276],[5.28304,50.00425],[5.28302,50.00427],[5.28069,50.00576],[5.27835,50.00726],[5.27601,50.00876],[5.27367,50.01026],[5.27133,50.01175],[5.27131,50.01177],[5.26898,50.01326],[5.26664,50.01476],[5.2643,50.01626],[5.26232,50.01752],[5.26231,50.01753],[5.26195,50.01776],[5.26188,50.01776],[5.25998,50.01827],[5.25813,50.0189],[5.25736,50.0192],[5.25727,50.01926],[5.25721,50.01926],[5.25633,50.01953],[5.25593,50.01964],[5.25393,50.02035],[5.25206,50.02121],[5.25035,50.02219],[5.25033,50.02219],[5.25024,50.02225],[5.25022,50.02227],[5.25015,50.02231],[5.24891,50.02318],[5.24779,50.02411],[5.24681,50.0251],[5.24596,50.02614],[5.24555,50.02671],[5.24555,50.02676],[5.24548,50.0268],[5.24515,50.02726],[5.24499,50.02745],[5.24419,50.02868],[5.24359,50.02995],[5.24321,50.03118],[5.24321,50.03127],[5.24284,50.0315],[5.24249,50.03175],[5.24251,50.03176],[5.2419,50.03218],[5.24077,50.03312],[5.23978,50.03411],[5.23893,50.03516],[5.23852,50.03572],[5.23852,50.03577],[5.23816,50.036],[5.23781,50.03625],[5.23782,50.03626],[5.23719,50.0367],[5.23607,50.03763],[5.23509,50.03862],[5.23424,50.03966],[5.23383,50.04022],[5.23383,50.04027],[5.23376,50.04032],[5.23332,50.04078],[5.23323,50.04087],[5.23226,50.04204],[5.23149,50.04323],[5.23149,50.04327],[5.23137,50.04335],[5.23121,50.04349],[5.23046,50.04407],[5.22931,50.04518],[5.22834,50.04634],[5.22755,50.04757],[5.22695,50.04884],[5.2268,50.04921],[5.2268,50.04928],[5.22644,50.04951],[5.22504,50.05041],[5.22446,50.05078],[5.22212,50.05227],[5.2221,50.05229],[5.21977,50.05378],[5.2197,50.05382],[5.21846,50.05469],[5.21734,50.05563],[5.21635,50.05662],[5.2155,50.05767],[5.21508,50.05824],[5.21508,50.05828],[5.21471,50.05852],[5.21336,50.05938],[5.21273,50.05978],[5.21039,50.06127],[5.21037,50.06129],[5.21028,50.06134],[5.20905,50.06221],[5.20793,50.06314],[5.20695,50.06413],[5.2061,50.06517],[5.20569,50.06573],[5.20569,50.06578],[5.20532,50.06601],[5.20391,50.06691],[5.20335,50.06727],[5.20333,50.06729],[5.20311,50.06743],[5.20193,50.06818],[5.20066,50.06908],[5.19951,50.07004],[5.19851,50.07107],[5.19765,50.07215],[5.19695,50.07328],[5.1964,50.07444],[5.1963,50.07471],[5.1963,50.07478],[5.19594,50.07501],[5.19559,50.07526],[5.1956,50.07526],[5.19497,50.07571],[5.19385,50.07664],[5.19287,50.07763],[5.19202,50.07867],[5.19161,50.07923],[5.19161,50.07928],[5.19124,50.07951],[5.18989,50.08038],[5.18926,50.08078],[5.18691,50.08228],[5.18627,50.08269],[5.18492,50.08355],[5.18456,50.08378],[5.18446,50.08378],[5.18409,50.08384],[5.18301,50.08398],[5.18104,50.08436],[5.17915,50.08486],[5.17734,50.08548],[5.17563,50.08621],[5.17404,50.08705],[5.17259,50.08798],[5.17128,50.089],[5.1708,50.08945],[5.17047,50.08974],[5.17047,50.08977],[5.17035,50.08985],[5.17018,50.09],[5.16944,50.09057],[5.16829,50.09167],[5.16731,50.09284],[5.16652,50.09406],[5.16592,50.09534],[5.16577,50.09571],[5.16577,50.09578],[5.1657,50.09583],[5.16526,50.09629],[5.16516,50.09638],[5.16419,50.09755],[5.16342,50.09874],[5.16342,50.09878],[5.16335,50.09883],[5.16291,50.09929],[5.16281,50.09938],[5.16184,50.10055],[5.16107,50.10174],[5.16107,50.10178],[5.161,50.10183],[5.16056,50.10229],[5.16046,50.10238],[5.15949,50.10355],[5.15872,50.10474],[5.15872,50.10478],[5.15835,50.10501],[5.157,50.10588],[5.15637,50.10628],[5.15402,50.10778],[5.15339,50.10818],[5.15204,50.10905],[5.15167,50.10928],[5.15155,50.10928],[5.14957,50.10953],[5.14752,50.10993],[5.14554,50.11046],[5.14469,50.11072],[5.14462,50.11077],[5.14454,50.11077],[5.14453,50.11077],[5.14451,50.11078],[5.1426,50.11128],[5.14078,50.11191],[5.14001,50.11221],[5.13992,50.11226],[5.13941,50.11226],[5.13894,50.11226],[5.13757,50.11226],[5.13522,50.11226],[5.13293,50.11225],[5.1328,50.11225],[5.13052,50.11225],[5.1283,50.11225],[5.12601,50.11233],[5.12374,50.11257],[5.12153,50.11297],[5.1194,50.11352],[5.11882,50.1137],[5.11877,50.11373],[5.11826,50.11373],[5.11779,50.11373],[5.11642,50.11373],[5.11407,50.11373],[5.11178,50.11372],[5.11165,50.11372],[5.10937,50.11372],[5.10708,50.11371],[5.10695,50.11371],[5.10467,50.11371],[5.10232,50.11371],[5.10003,50.1137],[5.0999,50.1137],[5.09762,50.1137],[5.09533,50.11369],[5.0952,50.11369],[5.09292,50.11369],[5.09063,50.11368],[5.0905,50.11368],[5.08822,50.11368],[5.08587,50.11368],[5.08377,50.11367],[5.08191,50.11372],[5.08007,50.11387],[5.07826,50.11412],[5.07648,50.11448],[5.07477,50.11494],[5.07416,50.11512],[5.07411,50.11515],[5.07394,50.11515],[5.07363,50.11518],[5.07254,50.11525],[5.07053,50.1155],[5.06857,50.11588],[5.06668,50.11638],[5.06487,50.117],[5.06317,50.11773],[5.06249,50.11805],[5.06236,50.11813],[5.0623,50.11813],[5.06157,50.11835],[5.06124,50.11844],[5.05942,50.11906],[5.0577,50.11979],[5.05611,50.12063],[5.05576,50.12083],[5.0553,50.12112],[5.05523,50.12112],[5.05331,50.12163],[5.05146,50.12226],[5.05068,50.12256],[5.05059,50.12262],[5.05046,50.12262],[5.04848,50.12287],[5.04643,50.12326],[5.04446,50.12379],[5.04361,50.12406],[5.04354,50.1241],[5.04303,50.1241],[5.04265,50.12411],[5.04063,50.12424],[5.03863,50.12449],[5.03668,50.12487],[5.0348,50.12536],[5.03418,50.12555],[5.03413,50.12558],[5.03362,50.12558],[5.03325,50.12559],[5.03121,50.12572],[5.0292,50.12598],[5.02723,50.12636],[5.02534,50.12686],[5.02478,50.12703],[5.02473,50.12706],[5.02422,50.12706],[5.02384,50.12707],[5.02181,50.1272],[5.01982,50.12745],[5.01787,50.12783],[5.01599,50.12832],[5.01537,50.12851],[5.01532,50.12854],[5.01525,50.12854],[5.01333,50.12904],[5.01148,50.12967],[5.0107,50.12997],[5.01061,50.13003],[5.01054,50.13003],[5.00865,50.13053],[5.00678,50.13116],[5.00599,50.13147],[5.00591,50.13152],[5.00584,50.13152],[5.00392,50.13202],[5.00207,50.13265],[5.00129,50.13295],[5.0012,50.13301],[5.00114,50.13301],[5.00035,50.13325],[5.00011,50.13331],[4.99827,50.13393],[4.99654,50.13467],[4.99492,50.13552],[4.99456,50.13573],[4.99414,50.136],[4.99408,50.136],[4.99319,50.13627],[4.99281,50.13637],[4.99079,50.13708],[4.98891,50.13793],[4.98719,50.1389],[4.98717,50.13891],[4.98709,50.13896],[4.98705,50.139],[4.98471,50.14048],[4.98463,50.14053],[4.98338,50.14139],[4.98226,50.14233],[4.98126,50.14332],[4.9804,50.14436],[4.97999,50.14492],[4.97999,50.14497],[4.97987,50.14505],[4.97972,50.14518],[4.97894,50.14578],[4.97779,50.14688],[4.97681,50.14805],[4.97602,50.14927],[4.97542,50.15053],[4.97527,50.1509],[4.97527,50.15097],[4.9752,50.15102],[4.97478,50.15146],[4.9747,50.15153]]],[[[5.78272,49.9965],[5.78335,49.99779],[5.78418,49.99903],[5.7852,50.00021],[5.78639,50.00131],[5.78775,50.00234],[5.78926,50.00327],[5.79091,50.00411],[5.79268,50.00483],[5.79455,50.00543],[5.79651,50.00591],[5.79853,50.00626],[5.8006,50.00648],[5.80269,50.00657],[5.80478,50.00652],[5.80685,50.00634],[5.80889,50.00602],[5.81086,50.00558],[5.81276,50.00501],[5.81456,50.00432],[5.81624,50.00351],[5.81779,50.00261],[5.81919,50.00161],[5.82043,50.00052],[5.82144,49.99941],[5.82155,49.99927],[5.82234,49.99837],[5.82268,49.99798],[5.82273,49.99793],[5.82277,49.99789],[5.82307,49.99756],[5.82359,49.99699],[5.82362,49.997],[5.8242,49.99669],[5.82458,49.99651],[5.82608,49.99563],[5.82745,49.99466],[5.82866,49.99361],[5.82971,49.99249],[5.83058,49.99131],[5.83127,49.99008],[5.83178,49.98881],[5.83209,49.98752],[5.83221,49.98621],[5.83212,49.9849],[5.83185,49.98361],[5.83137,49.98234],[5.83071,49.9811],[5.82987,49.97991],[5.82885,49.97877],[5.82767,49.97771],[5.82633,49.97673],[5.82485,49.97583],[5.8235,49.97516],[5.82345,49.97514],[5.82332,49.97507],[5.82324,49.97503],[5.82303,49.97493],[5.82302,49.97493],[5.82131,49.97424],[5.8195,49.97365],[5.81762,49.97318],[5.81567,49.97284],[5.81368,49.97261],[5.8132,49.97257],[5.81315,49.97258],[5.8131,49.97254],[5.81289,49.97245],[5.81118,49.97177],[5.80937,49.9712],[5.80748,49.97074],[5.80554,49.9704],[5.80355,49.97019],[5.80154,49.97009],[5.79953,49.97013],[5.79753,49.97028],[5.79556,49.97057],[5.79364,49.97097],[5.7918,49.97149],[5.79004,49.97212],[5.78838,49.97286],[5.78684,49.97369],[5.78543,49.97462],[5.78417,49.97563],[5.78307,49.97672],[5.78224,49.97773],[5.78224,49.97775],[5.7822,49.97777],[5.78213,49.97787],[5.78193,49.97814],[5.78122,49.97925],[5.78067,49.98039],[5.78027,49.98156],[5.78004,49.98275],[5.77997,49.98395],[5.77999,49.98527],[5.78001,49.98674],[5.78001,49.98677],[5.78002,49.98824],[5.78002,49.9883],[5.78004,49.98959],[5.78014,49.99079],[5.7804,49.99197],[5.78082,49.99313],[5.7814,49.99427],[5.78213,49.99536],[5.78241,49.99573],[5.78246,49.99576],[5.78246,49.99583],[5.78267,49.99636],[5.78272,49.9965]]]]},"properties":{"geometry_id":"geom-territoire-be-zone-allemande-ardennes-1945-01-01","date_validite":"1945-01-01","statut":"provisoire_carte_georeferencee","sources":[{"source_id":"src-loc-12ag-1944-12-31","locator":"situation 1200 hrs, 31 December 1944 ; trait noir épais « front line »","usage":"dernière position du front connue avant le Snapshot, géoréférencée"},{"source_id":"src-openhistoricalmap","locator":"relation 2800293 — Belgium 1920-1940","usage":"tracé de la frontière"},{"source_id":"src-natural-earth-10m","locator":"ne_10m_land + ne_10m_minor_islands","usage":"trait de côte"}],"method":"carte_georeferencee_puis_intersection","operations":["Belgique ∩ côté allemand du front LOC du 31/12/1944"],"precision":"voir points_a_verifier","zone_incertitude_km":3,"surface_km2":2305,"logiciel":"Python — Shapely/GEOS, scikit-image, SciPy","script":"outils/geo/deriver_snapshot0_lot03.py","date_creation":"2026-09-28","auteur":"Claude","licence":"CC0 (OpenHistoricalMap) + segments sous licence d’origine listés dans licences_segments : à créditer","licences_segments":[{"relation":2800293,"licence":"CC0-1.0","source":"Limites communales historiques","segments":1}],"points_a_verifier":["Carte LOC géoréférencée par ajustement automatique de ~9 900 points des fleuves Natural Earth sur les fleuves bleus de la carte (Lambert + polynôme d'ordre 2) : écart ≈ 1 à 2 km ; trait du front ≈ 1 km de large. Incertitude retenue : 3 km.","Situation du 31/12 à midi (dernière connue avant le Snapshot), pas l'extension maximale de l'offensive (24-26/12)."],"reference_temporelle":{"snapshot":"1945-01-01T00:00","observation_source":"1944-12-31T12:00","ecart":"12 h avant","statut":"derniere_situation_connue_avant_snapshot","etat_suivant":"État suivant connu (ratissage de janvier) : carte LOC du 01/01/1945 à 12:00 (item 2004630304) ; écart médian 0,7 km avec celle du 31/12, secteurs changés ≈ 31 km² à l'ouest de Bastogne et ≈ 20 km² vers Monschau (outils/geo/lot03/comparer_31dec_01jan.py)."}}}