{"type":"Feature","geometry":{"type":"MultiPolygon","coordinates":[[[[7.96147,49.04634],[7.95941,49.04859],[7.95769,49.05097],[7.95633,49.05344],[7.95535,49.05599],[7.95475,49.05859],[7.95453,49.06122],[7.95471,49.06385],[7.95528,49.06646],[7.95623,49.06901],[7.95755,49.0715],[7.95924,49.07389],[7.96127,49.07615],[7.96363,49.07828],[7.96629,49.08025],[7.96923,49.08203],[7.97243,49.08362],[7.97584,49.085],[7.97944,49.08615],[7.9832,49.08707],[7.98707,49.08774],[7.9873,49.08777],[7.9875,49.08777],[7.98757,49.08781],[7.98786,49.08785],[7.99045,49.08831],[7.99392,49.08872],[7.99744,49.08893],[8.00097,49.08894],[8.001,49.08894],[8.00141,49.08893],[8.00151,49.08893],[8.00152,49.08893],[8.0021,49.08892],[8.00371,49.08888],[8.00377,49.08892],[8.00454,49.08897],[8.00684,49.08922],[8.01084,49.08938],[8.01485,49.08929],[8.01882,49.08894],[8.02272,49.08834],[8.02651,49.08749],[8.02774,49.08713],[8.02887,49.08684],[8.02895,49.08678],[8.02909,49.08678],[8.03279,49.08567],[8.03633,49.08432],[8.03783,49.08368],[8.03799,49.08357],[8.03814,49.08357],[8.03899,49.08334],[8.04075,49.08295],[8.04438,49.08187],[8.04784,49.08057],[8.05109,49.07905],[8.05132,49.07893],[8.05155,49.07877],[8.05164,49.07877],[8.05276,49.07829],[8.05682,49.07634],[8.06048,49.07408],[8.06049,49.07407],[8.06049,49.07407],[8.06271,49.07252],[8.06285,49.07252],[8.06458,49.07207],[8.06457,49.07206],[8.06516,49.07193],[8.06911,49.0707],[8.07284,49.0692],[8.07631,49.06745],[8.07947,49.06546],[8.08049,49.06475],[8.08066,49.06463],[8.08072,49.06459],[8.0829,49.06306],[8.08323,49.06283],[8.08511,49.06151],[8.08545,49.0615],[8.08586,49.06145],[8.08982,49.06084],[8.09367,49.05998],[8.09415,49.05985],[8.09423,49.0598],[8.09522,49.05977],[8.09585,49.05974],[8.09979,49.05938],[8.10367,49.05878],[8.10743,49.05793],[8.11105,49.05684],[8.11449,49.05553],[8.11772,49.05401],[8.11896,49.05336],[8.11919,49.0532],[8.11939,49.0532],[8.1196,49.05316],[8.12346,49.05229],[8.12717,49.05118],[8.12771,49.051],[8.12782,49.05097],[8.12985,49.05019],[8.13042,49.05],[8.13052,49.04993],[8.13064,49.04993],[8.13169,49.04957],[8.13297,49.04919],[8.13643,49.04788],[8.13969,49.04635],[8.14079,49.04572],[8.14153,49.04533],[8.14176,49.04517],[8.14185,49.04517],[8.14336,49.04453],[8.14366,49.04441],[8.14694,49.04286],[8.14822,49.04219],[8.14848,49.04201],[8.1486,49.04201],[8.15029,49.04144],[8.15029,49.04143],[8.15033,49.04142],[8.1521,49.04075],[8.15289,49.04048],[8.15299,49.04041],[8.15332,49.0404],[8.15384,49.04034],[8.15611,49.04013],[8.15999,49.03952],[8.16377,49.03866],[8.16741,49.03757],[8.17086,49.03624],[8.1741,49.03471],[8.17538,49.03404],[8.17563,49.03386],[8.17684,49.03383],[8.18086,49.03359],[8.18483,49.0331],[8.1887,49.03235],[8.19245,49.03135],[8.19602,49.03012],[8.19939,49.02866],[8.20253,49.02699],[8.2054,49.02512],[8.20798,49.02308],[8.21025,49.02088],[8.21217,49.01854],[8.21373,49.01609],[8.21492,49.01356],[8.21572,49.01095],[8.21613,49.00831],[8.21615,49.00565],[8.21577,49.00301],[8.21499,49.0004],[8.21383,48.99786],[8.21229,48.9954],[8.2104,48.99306],[8.20816,48.99084],[8.20561,48.98879],[8.20276,48.98691],[8.2027,48.98687],[8.20243,48.98671],[8.20139,48.98608],[8.19836,48.98444],[8.1951,48.98299],[8.19165,48.98175],[8.18803,48.98074],[8.18429,48.97996],[8.18044,48.97942],[8.17654,48.97912],[8.17261,48.97908],[8.17222,48.97908],[8.17202,48.97911],[8.17185,48.97912],[8.1713,48.97911],[8.17055,48.97907],[8.17055,48.97904],[8.16919,48.97893],[8.16906,48.97891],[8.1688,48.9789],[8.16858,48.97888],[8.16858,48.97888],[8.1657,48.97869],[8.16233,48.97865],[8.16091,48.97868],[8.16082,48.9787],[8.16065,48.97871],[8.16055,48.97869],[8.16053,48.97867],[8.15986,48.97864],[8.15738,48.97845],[8.15335,48.9784],[8.14932,48.97861],[8.14535,48.97909],[8.14147,48.97981],[8.13771,48.98079],[8.13412,48.982],[8.13259,48.98265],[8.13164,48.98302],[8.13164,48.98303],[8.1316,48.98307],[8.13131,48.98315],[8.13049,48.98346],[8.12931,48.98387],[8.12609,48.98525],[8.12406,48.98631],[8.12366,48.9865],[8.12358,48.98658],[8.12348,48.98659],[8.12333,48.98656],[8.12181,48.98661],[8.11791,48.98687],[8.11407,48.98738],[8.11032,48.98812],[8.10693,48.98903],[8.10686,48.98908],[8.10673,48.98913],[8.10655,48.98916],[8.10636,48.98917],[8.10612,48.98917],[8.10532,48.98928],[8.10455,48.98934],[8.10158,48.98979],[8.10156,48.9898],[8.10134,48.98983],[8.10132,48.98983],[8.1008,48.9899],[8.1006,48.98995],[8.10052,48.98994],[8.1005,48.98993],[8.09887,48.99013],[8.09887,48.99014],[8.09772,48.99025],[8.0936,48.99096],[8.0896,48.99194],[8.08604,48.99311],[8.08597,48.99316],[8.0857,48.99325],[8.08554,48.99326],[8.08456,48.99355],[8.08318,48.99391],[8.07971,48.99506],[8.07642,48.99642],[8.07335,48.99797],[8.07051,48.99972],[8.06793,49.00163],[8.06564,49.00369],[8.06425,49.00524],[8.06398,49.0055],[8.06399,49.00555],[8.06382,49.0056],[8.06367,49.00568],[8.06348,49.00577],[8.06348,49.00577],[8.06347,49.00577],[8.0623,49.00632],[8.06198,49.00648],[8.06115,49.00685],[8.05782,49.00874],[8.05529,49.01052],[8.05501,49.0107],[8.05499,49.01074],[8.05484,49.01087],[8.05466,49.01099],[8.05451,49.01107],[8.05446,49.01106],[8.05352,49.01167],[8.05156,49.01304],[8.05064,49.01373],[8.05062,49.01378],[8.05051,49.01387],[8.05041,49.0139],[8.04956,49.01442],[8.04953,49.01443],[8.04955,49.01446],[8.04922,49.01446],[8.04886,49.0145],[8.04532,49.01501],[8.04187,49.01572],[8.03853,49.01662],[8.03532,49.01772],[8.0343,49.0181],[8.03426,49.01816],[8.03412,49.01819],[8.03406,49.01818],[8.03351,49.01834],[8.03345,49.01836],[8.03345,49.01836],[8.03327,49.01842],[8.03304,49.01847],[8.03299,49.01847],[8.03143,49.01885],[8.03136,49.01886],[8.03135,49.01889],[8.03127,49.01892],[8.03107,49.01891],[8.02691,49.01956],[8.02279,49.02052],[8.01884,49.02176],[8.01512,49.02327],[8.01167,49.02504],[8.01087,49.02549],[8.01088,49.02551],[8.01084,49.02555],[8.01064,49.02556],[8.00991,49.02572],[8.00765,49.02614],[8.00375,49.02715],[8.0011,49.02806],[8.00057,49.02823],[8.00056,49.02824],[8.0005,49.02828],[8.00036,49.02832],[8.00026,49.02831],[8.00024,49.02831],[7.99707,49.02875],[7.99629,49.02889],[7.99626,49.02891],[7.99623,49.02892],[7.99611,49.02894],[7.99589,49.02896],[7.9958,49.02896],[7.99493,49.02906],[7.99096,49.02967],[7.9871,49.03053],[7.98339,49.03164],[7.97987,49.03299],[7.97656,49.03456],[7.97351,49.03634],[7.97075,49.03831],[7.96829,49.04046],[7.96712,49.04173],[7.96665,49.04218],[7.96663,49.04226],[7.96648,49.04232],[7.96385,49.04422],[7.96147,49.04634]]],[[[6.36953,49.51119],[6.37097,49.51364],[6.37278,49.51598],[6.37493,49.51821],[6.3774,49.52028],[6.38017,49.52219],[6.38321,49.52391],[6.38649,49.52544],[6.38999,49.52675],[6.39366,49.52783],[6.39748,49.52867],[6.40141,49.52927],[6.40541,49.52962],[6.40943,49.52971],[6.41017,49.52971],[6.41078,49.5297],[6.41106,49.5297],[6.41161,49.52969],[6.41233,49.52968],[6.41645,49.52949],[6.4185,49.52927],[6.42006,49.52961],[6.42021,49.52961],[6.42032,49.52968],[6.42121,49.52994],[6.42497,49.5309],[6.42884,49.53162],[6.43281,49.53209],[6.43683,49.53231],[6.44086,49.53227],[6.44487,49.53198],[6.44882,49.53143],[6.45266,49.53064],[6.45637,49.52961],[6.45728,49.52932],[6.45738,49.52925],[6.45772,49.52925],[6.4581,49.52921],[6.46208,49.52866],[6.46595,49.52786],[6.46655,49.52771],[6.46663,49.52766],[6.46765,49.52765],[6.46773,49.52765],[6.47203,49.52733],[6.47626,49.52671],[6.48036,49.52582],[6.4843,49.52464],[6.48803,49.52321],[6.49151,49.52153],[6.4947,49.51963],[6.49659,49.51837],[6.49679,49.51837],[6.49696,49.51834],[6.50084,49.51754],[6.50458,49.5165],[6.50535,49.51625],[6.50535,49.51625],[6.50541,49.51623],[6.5072,49.51559],[6.50802,49.51533],[6.50812,49.51526],[6.50824,49.51526],[6.50986,49.51474],[6.50995,49.51471],[6.51204,49.51396],[6.51262,49.51378],[6.51272,49.51371],[6.51286,49.51371],[6.51662,49.51266],[6.52025,49.51134],[6.52177,49.51073],[6.52193,49.51062],[6.52205,49.51062],[6.52367,49.5101],[6.52376,49.51007],[6.52585,49.50932],[6.52643,49.50914],[6.52653,49.50907],[6.52673,49.50907],[6.52695,49.50903],[6.53081,49.50823],[6.53238,49.5078],[6.53338,49.50755],[6.53346,49.5075],[6.53361,49.5075],[6.53458,49.50726],[6.53624,49.50692],[6.53998,49.50587],[6.54355,49.50459],[6.54691,49.50308],[6.54703,49.50302],[6.54727,49.50286],[6.54739,49.50286],[6.54907,49.50232],[6.54916,49.5023],[6.55187,49.50132],[6.55187,49.50132],[6.55187,49.50132],[6.55272,49.50101],[6.55316,49.50084],[6.55651,49.49933],[6.55962,49.49762],[6.56032,49.4972],[6.56103,49.49672],[6.56113,49.49672],[6.56257,49.49614],[6.563,49.49598],[6.56634,49.49448],[6.56766,49.49383],[6.56791,49.49366],[6.56803,49.49366],[6.5697,49.49312],[6.56977,49.4931],[6.5725,49.49212],[6.57251,49.49211],[6.57252,49.49211],[6.57328,49.49184],[6.57359,49.49171],[6.57496,49.49122],[6.57828,49.48973],[6.58137,49.48803],[6.58418,49.48615],[6.58577,49.48485],[6.58622,49.48452],[6.58622,49.48447],[6.58826,49.48311],[6.58845,49.48298],[6.58855,49.48292],[6.59077,49.48143],[6.59077,49.48143],[6.59078,49.48142],[6.59081,49.4814],[6.59082,49.48139],[6.59309,49.47974],[6.59514,49.47798],[6.59696,49.47612],[6.59757,49.47542],[6.59757,49.47536],[6.59771,49.47526],[6.59858,49.47429],[6.59872,49.47415],[6.6006,49.47177],[6.60203,49.4694],[6.60203,49.46932],[6.60218,49.46922],[6.60302,49.46828],[6.60317,49.46812],[6.60504,49.46576],[6.6065,49.46337],[6.6065,49.46328],[6.60658,49.46323],[6.60719,49.46206],[6.6077,49.46091],[6.61111,49.45969],[6.61212,49.45923],[6.61319,49.4588],[6.61333,49.45871],[6.61343,49.45871],[6.61447,49.45829],[6.61783,49.45678],[6.62095,49.45506],[6.62379,49.45315],[6.62633,49.45106],[6.62854,49.44882],[6.6304,49.44646],[6.63189,49.44398],[6.63301,49.44142],[6.63361,49.43923],[6.63363,49.43915],[6.63363,49.43901],[6.6337,49.43896],[6.63378,49.43873],[6.63449,49.43615],[6.63482,49.43353],[6.63475,49.4309],[6.63444,49.42913],[6.63604,49.42712],[6.63755,49.42463],[6.63783,49.42409],[6.63783,49.42399],[6.63791,49.42394],[6.6383,49.42318],[6.63888,49.42223],[6.64001,49.41962],[6.64001,49.41961],[6.64001,49.41948],[6.64008,49.41943],[6.64045,49.41838],[6.64059,49.41804],[6.64131,49.41544],[6.64163,49.41281],[6.64155,49.41017],[6.64108,49.40754],[6.64021,49.40496],[6.63896,49.40244],[6.63735,49.40002],[6.63537,49.39771],[6.63393,49.39636],[6.63461,49.39647],[6.63856,49.3969],[6.64255,49.39708],[6.64654,49.397],[6.65051,49.39668],[6.65441,49.3961],[6.6582,49.39528],[6.66186,49.39423],[6.66534,49.39294],[6.66683,49.39233],[6.66701,49.39221],[6.66713,49.39221],[6.66857,49.39162],[6.67175,49.39017],[6.6747,49.38854],[6.67544,49.38809],[6.67614,49.38762],[6.67634,49.38762],[6.67667,49.38756],[6.68047,49.38676],[6.68197,49.38634],[6.68297,49.38609],[6.68305,49.38604],[6.68338,49.38604],[6.68387,49.38598],[6.68783,49.38542],[6.69168,49.38461],[6.69218,49.38448],[6.69226,49.38443],[6.69246,49.38443],[6.69284,49.38436],[6.69662,49.38356],[6.69812,49.38314],[6.69909,49.3829],[6.69917,49.38285],[6.69938,49.38285],[6.69954,49.38282],[6.70341,49.38201],[6.705,49.38157],[6.70599,49.38132],[6.70607,49.38127],[6.70776,49.38126],[6.70825,49.38125],[6.70853,49.38125],[6.70902,49.38124],[6.70967,49.38123],[6.71362,49.38106],[6.71753,49.38064],[6.72135,49.37997],[6.72507,49.37907],[6.72863,49.37794],[6.73201,49.3766],[6.73517,49.37505],[6.73809,49.3733],[6.74075,49.37139],[6.74311,49.36931],[6.74515,49.3671],[6.74687,49.36477],[6.74823,49.36234],[6.74923,49.35984],[6.74985,49.35729],[6.75011,49.35471],[6.74998,49.35212],[6.74947,49.34956],[6.74859,49.34704],[6.74735,49.34458],[6.74666,49.34341],[6.74657,49.34336],[6.74655,49.34269],[6.74655,49.34269],[6.74654,49.34232],[6.74652,49.34186],[6.74648,49.34036],[6.74656,49.34031],[6.74695,49.33955],[6.74752,49.33861],[6.74865,49.336],[6.74865,49.33598],[6.74865,49.33585],[6.75073,49.33444],[6.75083,49.33437],[6.75083,49.33437],[6.75091,49.33432],[6.75318,49.3328],[6.75333,49.3328],[6.7542,49.33258],[6.75596,49.33221],[6.75964,49.33117],[6.76314,49.3299],[6.76644,49.32842],[6.76669,49.3283],[6.76692,49.32814],[6.76702,49.32814],[6.77046,49.32689],[6.77381,49.32538],[6.77691,49.32366],[6.77973,49.32174],[6.78226,49.31966],[6.78445,49.31742],[6.7863,49.31505],[6.78778,49.31258],[6.78888,49.31002],[6.78959,49.3074],[6.78991,49.30475],[6.78982,49.30209],[6.78933,49.29944],[6.78845,49.29685],[6.78718,49.29432],[6.7867,49.29351],[6.78662,49.29346],[6.7866,49.2928],[6.7866,49.2928],[6.78659,49.29242],[6.78657,49.29197],[6.78653,49.29053],[6.78653,49.29052],[6.78653,49.29041],[6.78652,49.29002],[6.7865,49.28964],[6.7865,49.28964],[6.78648,49.28897],[6.78656,49.28891],[6.78674,49.28857],[6.78784,49.28604],[6.78855,49.28345],[6.78861,49.28318],[6.7886,49.28296],[6.78884,49.2828],[6.78982,49.2819],[6.78981,49.2819],[6.78997,49.28177],[6.79223,49.27944],[6.79288,49.27869],[6.79307,49.27844],[6.79307,49.27841],[6.79313,49.27837],[6.79452,49.27658],[6.79529,49.27547],[6.79529,49.27539],[6.7973,49.27404],[6.7975,49.2739],[6.7976,49.27384],[6.79976,49.27237],[6.79976,49.27237],[6.79981,49.27234],[6.802,49.27086],[6.80203,49.27085],[6.80212,49.27079],[6.8043,49.26931],[6.8043,49.26931],[6.80433,49.26929],[6.8066,49.26776],[6.80672,49.26776],[6.80835,49.26724],[6.81117,49.26621],[6.81117,49.26621],[6.81117,49.26621],[6.81201,49.2659],[6.81248,49.26571],[6.81653,49.26383],[6.8202,49.26164],[6.82023,49.26162],[6.82026,49.2616],[6.82252,49.26008],[6.82262,49.26008],[6.82359,49.25968],[6.82502,49.25916],[6.82836,49.25765],[6.83145,49.25592],[6.83427,49.25401],[6.83679,49.25192],[6.83898,49.24968],[6.84082,49.24731],[6.8423,49.24484],[6.8434,49.24228],[6.8441,49.23966],[6.84441,49.237],[6.84432,49.23434],[6.84383,49.2317],[6.84294,49.22911],[6.84167,49.22658],[6.84002,49.22415],[6.83992,49.22401],[6.83981,49.22394],[6.8398,49.22372],[6.83975,49.22352],[6.83887,49.22093],[6.8376,49.2184],[6.83738,49.21803],[6.8373,49.21798],[6.83728,49.21731],[6.83728,49.21731],[6.83727,49.21697],[6.83725,49.21649],[6.83723,49.21587],[6.83697,49.21338],[6.83646,49.2113],[6.83633,49.21098],[6.83643,49.21094],[6.83663,49.21075],[6.83862,49.20865],[6.84031,49.20643],[6.84131,49.20476],[6.84146,49.20454],[6.84146,49.20446],[6.84156,49.20439],[6.84172,49.20416],[6.8431,49.2024],[6.8446,49.19991],[6.84571,49.19735],[6.84643,49.19472],[6.84675,49.19206],[6.84666,49.18939],[6.84618,49.18674],[6.8453,49.18413],[6.84402,49.18159],[6.84238,49.17915],[6.84037,49.17683],[6.83802,49.17465],[6.83536,49.17263],[6.8324,49.17079],[6.82919,49.16915],[6.82574,49.16773],[6.82209,49.16654],[6.81829,49.16559],[6.81436,49.16489],[6.81034,49.16445],[6.80628,49.16428],[6.80221,49.16436],[6.79818,49.16471],[6.79422,49.16532],[6.79037,49.16618],[6.78667,49.16729],[6.78475,49.16794],[6.78475,49.16794],[6.78389,49.16824],[6.78291,49.16824],[6.78291,49.16824],[6.78031,49.16825],[6.78031,49.16825],[6.77927,49.16825],[6.77828,49.16805],[6.7781,49.16802],[6.77422,49.16751],[6.77029,49.16724],[6.76633,49.16722],[6.76239,49.16745],[6.75851,49.16793],[6.75471,49.16865],[6.75103,49.16961],[6.74751,49.17079],[6.74418,49.17219],[6.74108,49.17379],[6.73822,49.17558],[6.73563,49.17755],[6.73335,49.17966],[6.73139,49.18191],[6.72976,49.18428],[6.72849,49.18673],[6.72758,49.18926],[6.72705,49.19183],[6.7269,49.19442],[6.72713,49.19701],[6.72773,49.19957],[6.72871,49.20209],[6.73005,49.20453],[6.73096,49.20578],[6.73124,49.20622],[6.73136,49.20633],[6.73096,49.20692],[6.73096,49.20692],[6.72848,49.21057],[6.72832,49.21081],[6.72816,49.21104],[6.72713,49.21257],[6.72636,49.21378],[6.72366,49.21835],[6.72366,49.21835],[6.72329,49.21898],[6.72257,49.21947],[6.72257,49.21947],[6.72047,49.22088],[6.72047,49.22088],[6.71977,49.22135],[6.71971,49.22133],[6.7182,49.2217],[6.71738,49.22187],[6.71361,49.22295],[6.71002,49.22426],[6.70665,49.2258],[6.70353,49.22756],[6.70069,49.2295],[6.69817,49.23163],[6.69598,49.23391],[6.69415,49.23632],[6.69269,49.23884],[6.69163,49.24144],[6.69096,49.2441],[6.69071,49.24679],[6.69069,49.24767],[6.69074,49.24769],[6.69048,49.24834],[6.69048,49.24834],[6.6902,49.24902],[6.6902,49.24902],[6.68994,49.24966],[6.68989,49.24964],[6.68864,49.25029],[6.685,49.25244],[6.68368,49.25332],[6.68355,49.25346],[6.68342,49.25349],[6.68281,49.2539],[6.68129,49.25479],[6.67858,49.25675],[6.67617,49.25887],[6.67408,49.26113],[6.67235,49.26351],[6.67098,49.266],[6.66999,49.26856],[6.66939,49.27117],[6.66918,49.27381],[6.66936,49.27645],[6.66994,49.27907],[6.67026,49.28013],[6.67033,49.28021],[6.66938,49.28043],[6.66845,49.28068],[6.66846,49.2807],[6.66707,49.28106],[6.66405,49.28205],[6.66117,49.2832],[6.66012,49.28366],[6.66003,49.28374],[6.65999,49.28371],[6.65949,49.28393],[6.65751,49.2847],[6.65453,49.2861],[6.65176,49.28767],[6.65047,49.28847],[6.65033,49.28861],[6.65027,49.28859],[6.65025,49.2886],[6.65019,49.28863],[6.64669,49.29022],[6.64346,49.29204],[6.64054,49.29407],[6.63957,49.2949],[6.63888,49.29544],[6.6387,49.29563],[6.63779,49.29591],[6.63718,49.29612],[6.63371,49.29745],[6.63046,49.299],[6.62745,49.30075],[6.62476,49.30265],[6.62467,49.30277],[6.62452,49.30277],[6.62294,49.30317],[6.6189,49.30437],[6.61508,49.30585],[6.61152,49.30758],[6.60827,49.30956],[6.60536,49.31175],[6.60502,49.31204],[6.60484,49.31225],[6.60414,49.31278],[6.60187,49.31489],[6.59991,49.31716],[6.59829,49.31955],[6.59703,49.32203],[6.59614,49.32457],[6.59563,49.32716],[6.5955,49.32977],[6.59552,49.33025],[6.59557,49.33032],[6.59536,49.33051],[6.59478,49.33121],[6.59448,49.33154],[6.59277,49.33385],[6.5914,49.33627],[6.59039,49.33875],[6.58974,49.34129],[6.58947,49.34386],[6.58958,49.34643],[6.59006,49.34899],[6.59091,49.3515],[6.59212,49.35395],[6.59368,49.35631],[6.59559,49.35857],[6.59635,49.35938],[6.59643,49.3594],[6.5964,49.35944],[6.59652,49.35956],[6.597,49.36016],[6.59752,49.36078],[6.59759,49.3608],[6.60231,49.36712],[6.60225,49.3671],[6.60226,49.36712],[6.60219,49.36757],[6.60201,49.37018],[6.60222,49.37279],[6.60281,49.37537],[6.60378,49.3779],[6.60512,49.38036],[6.60682,49.38272],[6.60886,49.38497],[6.60968,49.38571],[6.6057,49.38523],[6.60167,49.38501],[6.59762,49.38505],[6.5936,49.38535],[6.58964,49.38591],[6.58578,49.38671],[6.58207,49.38776],[6.57853,49.38903],[6.57696,49.38967],[6.57686,49.38975],[6.57679,49.38974],[6.57582,49.39013],[6.57255,49.39159],[6.56952,49.39326],[6.56675,49.3951],[6.56425,49.39711],[6.56207,49.39926],[6.56021,49.40154],[6.55869,49.40393],[6.55753,49.4064],[6.55674,49.40894],[6.55632,49.41151],[6.55628,49.41409],[6.55663,49.41667],[6.55735,49.41921],[6.5574,49.41936],[6.55746,49.4194],[6.55691,49.41995],[6.5569,49.41995],[6.55636,49.42047],[6.55636,49.42047],[6.55579,49.42102],[6.55579,49.42102],[6.554,49.42275],[6.55206,49.42509],[6.55049,49.42755],[6.54974,49.42915],[6.54888,49.42941],[6.54534,49.43076],[6.54203,49.43234],[6.54176,49.43248],[6.54176,49.43252],[6.54091,49.43293],[6.54091,49.43293],[6.54007,49.43332],[6.54007,49.43332],[6.53923,49.43372],[6.53919,49.4337],[6.53865,49.43388],[6.53592,49.43497],[6.53591,49.43497],[6.53424,49.4356],[6.5342,49.43565],[6.534,49.43565],[6.53278,49.43584],[6.53128,49.43602],[6.5272,49.43682],[6.52327,49.43789],[6.51953,49.43921],[6.51602,49.44078],[6.51277,49.44257],[6.50982,49.44457],[6.50954,49.44479],[6.50888,49.44533],[6.50808,49.44578],[6.50808,49.44578],[6.50513,49.44741],[6.50513,49.44741],[6.50429,49.44787],[6.50339,49.44827],[6.50339,49.44827],[6.49967,49.44992],[6.49967,49.44992],[6.49876,49.45033],[6.49767,49.45045],[6.49359,49.45119],[6.48965,49.4522],[6.48589,49.45347],[6.48235,49.45499],[6.47906,49.45673],[6.47607,49.45868],[6.4721,49.46155],[6.4721,49.46155],[6.47131,49.46211],[6.47043,49.46262],[6.47043,49.46262],[6.465,49.46574],[6.465,49.46574],[6.46425,49.46617],[6.46417,49.46614],[6.46226,49.46614],[6.46226,49.46614],[6.46215,49.46614],[6.45808,49.46628],[6.45405,49.46668],[6.4501,49.46733],[6.44628,49.46824],[6.4426,49.46938],[6.43912,49.47076],[6.43586,49.47235],[6.43286,49.47414],[6.43032,49.47599],[6.42988,49.47638],[6.42893,49.47661],[6.42893,49.47661],[6.4287,49.47666],[6.4287,49.47666],[6.42777,49.47688],[6.42774,49.47685],[6.42706,49.4769],[6.42466,49.47715],[6.42084,49.47644],[6.42048,49.47639],[6.42039,49.47641],[6.42035,49.47637],[6.41874,49.47612],[6.41818,49.47602],[6.41427,49.47556],[6.41031,49.47534],[6.40633,49.47537],[6.40238,49.47565],[6.39848,49.47617],[6.39468,49.47694],[6.39101,49.47794],[6.38751,49.47916],[6.3842,49.4806],[6.38112,49.48224],[6.3783,49.48406],[6.37576,49.48605],[6.37352,49.48819],[6.3716,49.49046],[6.37004,49.49284],[6.36882,49.49531],[6.36798,49.49784],[6.36752,49.50042],[6.36744,49.50286],[6.36744,49.5029],[6.36744,49.50292],[6.36743,49.50301],[6.36745,49.50346],[6.36776,49.50607],[6.36845,49.50866],[6.36953,49.51119]]],[[[6.0278,50.77355],[6.02778,50.77359],[6.02778,50.77359],[6.02778,50.77361],[6.02778,50.77366],[6.02785,50.7738],[6.0278,50.77385],[6.02779,50.77386],[6.02778,50.77386],[6.02778,50.77387],[6.02775,50.77388],[6.02774,50.7739],[6.02773,50.7739],[6.02765,50.77407],[6.02764,50.7741],[6.02764,50.77415],[6.02761,50.77417],[6.02759,50.77418],[6.02757,50.77418],[6.02748,50.77426],[6.02714,50.7746],[6.02701,50.77473],[6.02701,50.77473],[6.02701,50.77476],[6.02694,50.77479],[6.02663,50.77508],[6.02663,50.77509],[6.02663,50.77514],[6.02655,50.77516],[6.02655,50.77516],[6.02644,50.77525],[6.02623,50.77541],[6.02614,50.77547],[6.02613,50.77552],[6.02611,50.77553],[6.02605,50.77554],[6.02603,50.77554],[6.0256,50.77584],[6.02357,50.77714],[6.02088,50.77924],[6.01854,50.78151],[6.01656,50.78391],[6.01498,50.78643],[6.0138,50.78904],[6.01305,50.7917],[6.01271,50.79441],[6.01281,50.79712],[6.01334,50.79981],[6.01429,50.80245],[6.01566,50.80502],[6.01742,50.80749],[6.01957,50.80983],[6.02208,50.81203],[6.02442,50.81369],[6.02442,50.81369],[6.02476,50.81389],[6.02503,50.81413],[6.02498,50.81415],[6.02509,50.81521],[6.02544,50.81727],[6.02604,50.81932],[6.02625,50.81988],[6.02631,50.81995],[6.02635,50.82003],[6.02638,50.82012],[6.02636,50.82023],[6.02634,50.82025],[6.02636,50.82062],[6.0267,50.8233],[6.02746,50.82594],[6.02863,50.82853],[6.0302,50.83102],[6.03216,50.83341],[6.03449,50.83566],[6.03716,50.83775],[6.04014,50.83967],[6.04341,50.84139],[6.04694,50.84289],[6.05068,50.84416],[6.0546,50.84519],[6.05867,50.84597],[6.06284,50.84648],[6.06707,50.84673],[6.07132,50.84672],[6.07271,50.84662],[6.07401,50.84658],[6.07404,50.84657],[6.07408,50.84655],[6.07417,50.84654],[6.07424,50.84673],[6.0754,50.85233],[6.07618,50.85503],[6.0774,50.85767],[6.07903,50.86022],[6.08097,50.86253],[6.08104,50.86256],[6.08104,50.86262],[6.08107,50.86265],[6.08113,50.86272],[6.08245,50.86394],[6.08333,50.86483],[6.0834,50.86484],[6.08494,50.86704],[6.08532,50.86757],[6.08542,50.8677],[6.08576,50.86817],[6.08596,50.86843],[6.08603,50.86853],[6.08603,50.86853],[6.08624,50.8688],[6.08641,50.86906],[6.08654,50.86933],[6.08664,50.86961],[6.08666,50.86969],[6.08667,50.86972],[6.08801,50.87227],[6.08807,50.87229],[6.0881,50.87243],[6.08803,50.87252],[6.08798,50.87278],[6.08753,50.87436],[6.08719,50.87678],[6.0872,50.87793],[6.08716,50.87838],[6.08721,50.87847],[6.08678,50.87928],[6.08668,50.87945],[6.08654,50.87964],[6.08644,50.87976],[6.08633,50.87988],[6.0863,50.87989],[6.08627,50.8799],[6.08624,50.8799],[6.08536,50.88079],[6.08486,50.88124],[6.08279,50.88357],[6.08109,50.88602],[6.07978,50.88857],[6.07888,50.89118],[6.0784,50.89384],[6.07833,50.89651],[6.07868,50.89918],[6.07945,50.90181],[6.07979,50.90272],[6.07979,50.90272],[6.07991,50.90292],[6.07999,50.90319],[6.07998,50.90322],[6.08002,50.90332],[6.08116,50.90583],[6.08268,50.90825],[6.08456,50.91057],[6.08602,50.91201],[6.08604,50.91202],[6.08635,50.91226],[6.0865,50.91241],[6.08664,50.91262],[6.08665,50.91264],[6.08666,50.91264],[6.08831,50.91438],[6.09083,50.91652],[6.09162,50.91713],[6.09177,50.91723],[6.09197,50.91736],[6.09215,50.91751],[6.09233,50.9177],[6.09286,50.91831],[6.09288,50.91833],[6.09288,50.91833],[6.09303,50.91851],[6.09315,50.91866],[6.09324,50.91877],[6.09335,50.91893],[6.09341,50.91903],[6.09354,50.91922],[6.0941,50.92018],[6.09416,50.92031],[6.09418,50.92044],[6.09418,50.92057],[6.09415,50.9207],[6.09408,50.92083],[6.09399,50.92095],[6.09373,50.92123],[6.09366,50.9212],[6.09269,50.9212],[6.09087,50.92116],[6.08687,50.92129],[6.08291,50.92166],[6.07903,50.92226],[6.07838,50.92238],[6.07741,50.92259],[6.0764,50.92268],[6.0764,50.92268],[6.07619,50.9227],[6.07556,50.92276],[6.07557,50.92278],[6.0729,50.92301],[6.07202,50.92312],[6.07197,50.92313],[6.06779,50.92378],[6.06374,50.9247],[6.05986,50.92587],[6.05618,50.92728],[6.05275,50.92891],[6.05172,50.92946],[6.05172,50.92946],[6.05088,50.9299],[6.0508,50.92988],[6.04914,50.93013],[6.04498,50.9309],[6.04097,50.93194],[6.03714,50.93323],[6.03354,50.93475],[6.0302,50.9365],[6.02716,50.93846],[6.02445,50.9406],[6.0221,50.9429],[6.02013,50.94534],[6.01856,50.94789],[6.01742,50.95053],[6.01701,50.95205],[6.01693,50.95229],[6.01684,50.95262],[6.01686,50.95266],[6.01683,50.95266],[6.01624,50.95486],[6.01596,50.95746],[6.01607,50.96007],[6.01658,50.96266],[6.01748,50.9652],[6.01877,50.96768],[6.02043,50.97006],[6.02116,50.971],[6.02245,50.97355],[6.02294,50.97445],[6.0262,50.9802],[6.02782,50.98266],[6.02981,50.98501],[6.03216,50.98722],[6.03485,50.98928],[6.03784,50.99115],[6.04112,50.99283],[6.04464,50.9943],[6.04837,50.99555],[6.05228,50.99655],[6.05633,50.99731],[6.06047,50.99781],[6.06468,50.99805],[6.0689,50.99803],[6.0731,50.99774],[6.07723,50.9972],[6.08126,50.9964],[6.08514,50.99535],[6.08612,50.99505],[6.08623,50.99498],[6.08635,50.99498],[6.0881,50.99444],[6.08816,50.99443],[6.09017,50.99373],[6.09088,50.99351],[6.09099,50.99344],[6.09276,50.99343],[6.09339,50.99342],[6.09579,50.9934],[6.09818,50.99338],[6.10058,50.99336],[6.10297,50.99334],[6.10359,50.99333],[6.10537,50.99332],[6.10546,50.99337],[6.10587,50.99346],[6.10873,50.99418],[6.11274,50.9949],[6.11684,50.99538],[6.12099,50.9956],[6.12516,50.99557],[6.1293,50.99528],[6.13338,50.99473],[6.13409,50.99461],[6.13416,50.99457],[6.13451,50.99457],[6.13524,50.99449],[6.13726,50.99435],[6.14137,50.9938],[6.14536,50.993],[6.14922,50.99195],[6.15075,50.99148],[6.15086,50.99141],[6.15098,50.99141],[6.15265,50.99089],[6.1528,50.99085],[6.15483,50.99015],[6.15551,50.98994],[6.15562,50.98987],[6.15577,50.98987],[6.15677,50.98963],[6.15848,50.98929],[6.16235,50.98825],[6.16603,50.98697],[6.16949,50.98546],[6.16965,50.98539],[6.16989,50.98523],[6.17166,50.98522],[6.17229,50.98521],[6.17468,50.98519],[6.17618,50.98518],[6.17664,50.98517],[6.18131,50.98497],[6.18592,50.98445],[6.19041,50.98361],[6.19472,50.98247],[6.19607,50.98206],[6.19618,50.98199],[6.19693,50.98245],[6.1971,50.98254],[6.20019,50.98409],[6.20348,50.98546],[6.20697,50.98662],[6.2106,50.98758],[6.21437,50.98833],[6.21822,50.98885],[6.22214,50.98914],[6.22608,50.98921],[6.22694,50.9892],[6.22737,50.98919],[6.22737,50.98919],[6.2275,50.98919],[6.2299,50.98917],[6.22999,50.98922],[6.2305,50.98933],[6.23452,50.99006],[6.23863,50.99054],[6.23917,50.99058],[6.23952,50.99058],[6.23958,50.99062],[6.24034,50.99068],[6.24285,50.99097],[6.24704,50.99119],[6.25124,50.99115],[6.25542,50.99084],[6.25783,50.99051],[6.25863,50.99043],[6.25869,50.99039],[6.25904,50.99039],[6.25962,50.99032],[6.26367,50.98977],[6.26761,50.98897],[6.26815,50.98884],[6.26823,50.98879],[6.26858,50.98879],[6.26958,50.98868],[6.27151,50.98853],[6.27587,50.9879],[6.28009,50.98699],[6.28415,50.9858],[6.28798,50.98436],[6.29155,50.98266],[6.29482,50.98074],[6.29658,50.9796],[6.29667,50.97954],[6.29667,50.97954],[6.29675,50.97949],[6.29906,50.978],[6.29907,50.978],[6.29916,50.97794],[6.30144,50.97646],[6.3015,50.97642],[6.30374,50.97496],[6.30374,50.97496],[6.30382,50.97491],[6.30612,50.97343],[6.30613,50.97343],[6.30851,50.97175],[6.31067,50.96996],[6.31259,50.96805],[6.31321,50.96737],[6.31321,50.96731],[6.31543,50.96586],[6.31548,50.96583],[6.31548,50.96583],[6.31556,50.96578],[6.31787,50.96429],[6.31788,50.96429],[6.31797,50.96423],[6.32026,50.96274],[6.32026,50.96274],[6.32028,50.96273],[6.32263,50.96121],[6.32273,50.96121],[6.32395,50.96073],[6.32815,50.95886],[6.33196,50.95668],[6.33203,50.95664],[6.33209,50.9566],[6.33437,50.95513],[6.33437,50.95513],[6.33453,50.95503],[6.33457,50.955],[6.3368,50.95355],[6.33684,50.95355],[6.33947,50.95184],[6.34209,50.94976],[6.34437,50.94753],[6.34629,50.94516],[6.34783,50.94269],[6.34845,50.94152],[6.34845,50.94142],[6.34856,50.94135],[6.34887,50.94092],[6.34999,50.93954],[6.35033,50.93907],[6.35186,50.93662],[6.353,50.93409],[6.35303,50.934],[6.35303,50.93387],[6.35311,50.93382],[6.35348,50.93314],[6.35413,50.93211],[6.35529,50.92955],[6.35531,50.92947],[6.35531,50.92934],[6.35539,50.92929],[6.3556,50.92891],[6.35675,50.92636],[6.3575,50.92375],[6.35755,50.92353],[6.35754,50.92331],[6.3597,50.92191],[6.35984,50.92181],[6.35984,50.92181],[6.35989,50.92178],[6.36218,50.9203],[6.36219,50.92029],[6.36229,50.92023],[6.36457,50.91874],[6.36457,50.91874],[6.36459,50.91873],[6.36461,50.91871],[6.36463,50.9187],[6.36697,50.91705],[6.36909,50.91528],[6.37098,50.91341],[6.37161,50.91271],[6.37161,50.91265],[6.37377,50.91125],[6.37391,50.91115],[6.37391,50.91115],[6.37396,50.91112],[6.37625,50.90964],[6.37626,50.90963],[6.37636,50.90957],[6.37866,50.90807],[6.37894,50.90788],[6.38101,50.90654],[6.38111,50.90654],[6.38236,50.90605],[6.38658,50.90417],[6.39041,50.90197],[6.39051,50.90191],[6.39281,50.90041],[6.39511,50.89891],[6.39511,50.89891],[6.39516,50.89888],[6.39745,50.8974],[6.39746,50.89739],[6.39756,50.89733],[6.39771,50.89723],[6.39986,50.89583],[6.39996,50.89583],[6.40121,50.89534],[6.40539,50.89346],[6.40918,50.89129],[6.40924,50.89125],[6.40929,50.89122],[6.41164,50.8897],[6.41173,50.8897],[6.41188,50.88963],[6.41491,50.8883],[6.41812,50.88659],[6.42105,50.88468],[6.42366,50.8826],[6.42558,50.88072],[6.42573,50.88059],[6.42573,50.88053],[6.42789,50.87913],[6.42803,50.87903],[6.42803,50.87903],[6.42808,50.879],[6.4304,50.8775],[6.43043,50.87748],[6.43041,50.87747],[6.43222,50.87629],[6.43485,50.87421],[6.43715,50.87197],[6.43908,50.8696],[6.44063,50.86712],[6.44179,50.86456],[6.442,50.86397],[6.442,50.86384],[6.44224,50.86368],[6.44326,50.86278],[6.44326,50.86278],[6.44344,50.86264],[6.44577,50.86033],[6.44641,50.85961],[6.44665,50.85931],[6.44665,50.85928],[6.4467,50.85925],[6.44813,50.85748],[6.44895,50.85633],[6.44895,50.85625],[6.44906,50.85618],[6.44974,50.85524],[6.45005,50.85486],[6.45161,50.85238],[6.45277,50.84981],[6.45347,50.84736],[6.45347,50.8472],[6.45358,50.84713],[6.45366,50.84701],[6.45524,50.84506],[6.45678,50.84261],[6.45792,50.84007],[6.45803,50.83977],[6.45803,50.83964],[6.4581,50.83959],[6.45821,50.83929],[6.45907,50.8374],[6.45982,50.83475],[6.46015,50.83206],[6.46018,50.83145],[6.46016,50.83062],[6.46024,50.83057],[6.46043,50.83022],[6.46158,50.82768],[6.46232,50.82507],[6.46238,50.82481],[6.46237,50.82459],[6.46245,50.82454],[6.46264,50.82418],[6.4638,50.8216],[6.46455,50.81895],[6.46459,50.81878],[6.46458,50.81856],[6.4667,50.81718],[6.4669,50.81705],[6.46696,50.81701],[6.46919,50.81555],[6.46919,50.81555],[6.46927,50.8155],[6.47149,50.81406],[6.47387,50.81239],[6.47602,50.81059],[6.47793,50.80869],[6.4782,50.8084],[6.4786,50.8079],[6.4786,50.80789],[6.47862,50.80788],[6.48008,50.80608],[6.4809,50.80494],[6.4809,50.80486],[6.48115,50.8047],[6.48196,50.80399],[6.48424,50.80176],[6.48617,50.79939],[6.48772,50.79692],[6.48887,50.79436],[6.48963,50.79175],[6.48997,50.78909],[6.48998,50.78891],[6.48996,50.78825],[6.49004,50.7882],[6.49023,50.78785],[6.49137,50.78531],[6.49212,50.78271],[6.49218,50.78244],[6.49217,50.78222],[6.49223,50.78218],[6.49225,50.7821],[6.49293,50.77974],[6.49327,50.77708],[6.4932,50.77442],[6.49272,50.77178],[6.49182,50.76918],[6.49053,50.76665],[6.48885,50.76421],[6.4868,50.76189],[6.4844,50.7597],[6.48167,50.75768],[6.47864,50.75584],[6.47534,50.7542],[6.47472,50.75392],[6.47464,50.75392],[6.47389,50.75347],[6.47389,50.75347],[6.47253,50.75265],[6.47221,50.75245],[6.46978,50.75098],[6.46736,50.74951],[6.46498,50.74806],[6.46488,50.748],[6.46471,50.7479],[6.46326,50.74702],[6.46326,50.74702],[6.4625,50.74656],[6.4625,50.74648],[6.46167,50.74543],[6.46047,50.74408],[6.46014,50.74366],[6.46003,50.74359],[6.46003,50.74351],[6.4592,50.74246],[6.458,50.7411],[6.45767,50.74069],[6.45756,50.74062],[6.45756,50.74054],[6.45668,50.73943],[6.45511,50.73765],[6.45509,50.73764],[6.45509,50.73763],[6.45467,50.73716],[6.45402,50.7365],[6.45402,50.7365],[6.45397,50.73644],[6.45153,50.73422],[6.45047,50.73336],[6.4502,50.7332],[6.45018,50.73254],[6.45018,50.73254],[6.45016,50.73212],[6.45015,50.7317],[6.45011,50.7302],[6.45007,50.7287],[6.45003,50.72726],[6.45003,50.72714],[6.44998,50.7257],[6.44994,50.7242],[6.4499,50.72276],[6.4499,50.72264],[6.44985,50.7212],[6.44981,50.7197],[6.44977,50.7182],[6.44973,50.71676],[6.44973,50.71664],[6.44968,50.7152],[6.44968,50.71503],[6.44968,50.71502],[6.44941,50.71246],[6.44877,50.70993],[6.44774,50.70745],[6.44636,50.70504],[6.44462,50.70273],[6.44254,50.70053],[6.44014,50.69847],[6.43744,50.69656],[6.43447,50.69482],[6.43126,50.69327],[6.42782,50.69192],[6.4242,50.69078],[6.42043,50.68987],[6.41654,50.68918],[6.41256,50.68874],[6.41117,50.68863],[6.41082,50.68863],[6.41073,50.68858],[6.40972,50.68836],[6.40808,50.68796],[6.4041,50.68724],[6.40385,50.68721],[6.40364,50.68721],[6.40289,50.68675],[6.40289,50.68675],[6.40144,50.68586],[6.40127,50.68576],[6.40117,50.6857],[6.3988,50.68426],[6.39638,50.68279],[6.39397,50.68132],[6.39393,50.6813],[6.39347,50.68102],[6.39197,50.68011],[6.38862,50.67827],[6.385,50.67667],[6.38113,50.67532],[6.37706,50.67423],[6.37283,50.67342],[6.3685,50.67288],[6.3641,50.67264],[6.3638,50.67263],[6.36277,50.67264],[6.36203,50.67219],[6.36203,50.67219],[6.36058,50.67131],[6.36035,50.67117],[6.35798,50.66972],[6.35788,50.66966],[6.35771,50.66956],[6.35627,50.66868],[6.35627,50.66868],[6.35551,50.66822],[6.35551,50.66814],[6.35462,50.66701],[6.35462,50.66701],[6.35345,50.66569],[6.35316,50.66531],[6.35305,50.66524],[6.35302,50.6638],[6.35302,50.66368],[6.35298,50.66224],[6.35294,50.66074],[6.3529,50.65924],[6.35286,50.65774],[6.35284,50.65704],[6.35284,50.65691],[6.35284,50.65691],[6.35282,50.65624],[6.35289,50.65619],[6.35292,50.65613],[6.35396,50.65381],[6.35472,50.65118],[6.35501,50.64895],[6.355,50.64872],[6.35506,50.64868],[6.35517,50.64814],[6.35552,50.64543],[6.35543,50.64271],[6.35491,50.64001],[6.35396,50.63735],[6.35261,50.63477],[6.35084,50.63229],[6.3487,50.62994],[6.34619,50.62773],[6.34335,50.6257],[6.3402,50.62386],[6.33677,50.62223],[6.33311,50.62083],[6.32924,50.61967],[6.3252,50.61876],[6.32105,50.61812],[6.31681,50.61774],[6.31254,50.61764],[6.31242,50.61764],[6.31242,50.61764],[6.31139,50.61765],[6.31138,50.61765],[6.30796,50.61768],[6.30369,50.618],[6.29949,50.61859],[6.2954,50.61945],[6.29147,50.62057],[6.28775,50.62194],[6.28426,50.62354],[6.28104,50.62536],[6.27813,50.62737],[6.27555,50.62956],[6.27334,50.63191],[6.27151,50.63439],[6.27139,50.63459],[6.27137,50.63462],[6.27128,50.63477],[6.27113,50.63498],[6.27102,50.63513],[6.27095,50.6352],[6.27088,50.63527],[6.27049,50.63575],[6.27052,50.63576],[6.26928,50.63734],[6.26787,50.63965],[6.26747,50.6404],[6.26747,50.6404],[6.2674,50.64052],[6.26718,50.64093],[6.26694,50.64132],[6.26668,50.64171],[6.26656,50.64187],[6.2665,50.64194],[6.26637,50.64207],[6.2662,50.64221],[6.26591,50.64242],[6.26577,50.64252],[6.26563,50.6426],[6.26538,50.64273],[6.26515,50.64284],[6.26485,50.64296],[6.26467,50.64302],[6.2645,50.64308],[6.26432,50.64313],[6.26419,50.64316],[6.26388,50.64322],[6.26353,50.64328],[6.26319,50.64332],[6.26279,50.64336],[6.26246,50.64338],[6.26218,50.64338],[6.26182,50.64337],[6.26168,50.64336],[6.26066,50.64335],[6.26066,50.64335],[6.25789,50.64332],[6.25371,50.64354],[6.24959,50.64402],[6.24557,50.64475],[6.24168,50.64573],[6.23795,50.64695],[6.23444,50.6484],[6.23419,50.64852],[6.23416,50.64854],[6.23402,50.64861],[6.2338,50.64872],[6.2336,50.64881],[6.23349,50.64885],[6.23325,50.64893],[6.23296,50.64902],[6.23272,50.64908],[6.23251,50.64913],[6.23221,50.64919],[6.23198,50.64922],[6.23184,50.64923],[6.23139,50.64926],[6.23081,50.64929],[6.23055,50.6493],[6.23035,50.64928],[6.22895,50.64934],[6.22473,50.64965],[6.22057,50.65023],[6.21653,50.65107],[6.21264,50.65216],[6.20894,50.65349],[6.20547,50.65505],[6.20226,50.65683],[6.19935,50.6588],[6.19676,50.66094],[6.19548,50.66227],[6.19489,50.66285],[6.1948,50.66297],[6.19463,50.66314],[6.19457,50.6632],[6.19444,50.6633],[6.1941,50.66355],[6.194,50.66362],[6.19383,50.66372],[6.19364,50.66381],[6.19328,50.66397],[6.19298,50.66409],[6.19285,50.66413],[6.19257,50.66422],[6.19224,50.66431],[6.19211,50.66434],[6.19191,50.66438],[6.19175,50.6644],[6.1915,50.66441],[6.19114,50.66442],[6.1911,50.66442],[6.19042,50.66448],[6.19016,50.66449],[6.19001,50.66451],[6.18981,50.66452],[6.18954,50.66454],[6.1893,50.66455],[6.18892,50.66456],[6.18889,50.66456],[6.18843,50.66458],[6.18843,50.6646],[6.18537,50.66475],[6.1815,50.66518],[6.17771,50.66584],[6.17404,50.66671],[6.17051,50.6678],[6.16715,50.66909],[6.16399,50.67057],[6.16297,50.67115],[6.16298,50.67116],[6.16298,50.67116],[6.16286,50.67124],[6.16279,50.67127],[6.16276,50.67127],[6.16222,50.67158],[6.16201,50.67168],[6.162,50.67171],[6.16194,50.67174],[6.16192,50.67173],[6.16181,50.67179],[6.16181,50.67179],[6.16177,50.67182],[6.16175,50.67182],[6.16113,50.67214],[6.15783,50.67404],[6.15673,50.67475],[6.15667,50.67484],[6.15648,50.67491],[6.15544,50.67558],[6.15478,50.67596],[6.15195,50.67797],[6.14945,50.68015],[6.14731,50.68248],[6.14554,50.68493],[6.14417,50.68748],[6.14361,50.68871],[6.14365,50.68876],[6.14341,50.68897],[6.14327,50.68912],[6.14273,50.68969],[6.14267,50.68979],[6.14244,50.69007],[6.14222,50.69024],[6.14222,50.69024],[6.14149,50.69101],[6.13973,50.69314],[6.13958,50.69331],[6.1396,50.69335],[6.13943,50.69343],[6.13831,50.69424],[6.13542,50.69658],[6.13406,50.69797],[6.13403,50.69796],[6.13317,50.69882],[6.13313,50.6989],[6.13295,50.6991],[6.1328,50.69919],[6.13267,50.69932],[6.13078,50.70104],[6.12873,50.70337],[6.12704,50.70582],[6.12575,50.70836],[6.1249,50.71085],[6.1249,50.71106],[6.1247,50.71133],[6.12453,50.71151],[6.12326,50.71323],[6.12203,50.71534],[6.12108,50.71752],[6.12106,50.71756],[6.12106,50.71756],[6.12111,50.71757],[6.12064,50.71815],[6.12064,50.71815],[6.12046,50.71837],[6.12032,50.71855],[6.12032,50.71855],[6.12027,50.71862],[6.11968,50.71933],[6.1195,50.71952],[6.11919,50.71992],[6.11913,50.71991],[6.11839,50.72034],[6.11614,50.72153],[6.11594,50.72165],[6.11587,50.72174],[6.11456,50.72244],[6.11382,50.72261],[6.11123,50.72337],[6.11075,50.72354],[6.11075,50.72351],[6.11075,50.72351],[6.10892,50.72338],[6.10519,50.72323],[6.10145,50.72328],[6.1001,50.72334],[6.1001,50.72334],[6.09919,50.72338],[6.09913,50.72335],[6.09912,50.72335],[6.09753,50.7232],[6.09358,50.72295],[6.09151,50.72287],[6.09148,50.72291],[6.09138,50.72287],[6.08986,50.72272],[6.08907,50.72261],[6.08495,50.72232],[6.0808,50.72229],[6.07667,50.72252],[6.0726,50.723],[6.06862,50.72372],[6.06477,50.7247],[6.06108,50.7259],[6.0576,50.72733],[6.05436,50.72896],[6.05138,50.73079],[6.04869,50.73279],[6.04633,50.73495],[6.0443,50.73724],[6.04264,50.73965],[6.04136,50.74215],[6.04047,50.74472],[6.04028,50.74544],[6.0403,50.74554],[6.04013,50.74561],[6.04003,50.74567],[6.03751,50.74721],[6.0348,50.74923],[6.03242,50.75141],[6.03038,50.75373],[6.02871,50.75616],[6.02743,50.75868],[6.02654,50.76127],[6.02606,50.76391],[6.02599,50.76656],[6.02634,50.7692],[6.02709,50.77181],[6.02744,50.77261],[6.02774,50.77341],[6.02781,50.77345],[6.0278,50.77355]]]]},"properties":{"geometry_id":"geom-territoire-de-zone-alliee-ouest-1945-01-01","date_validite":"1945-01-01","statut":"provisoire_carte_georeferencee","sources":[{"source_id":"src-loc-12ag-1944-12-31","locator":"situation 1200 hrs, 31 December 1944 ; trait noir épais « front line »","usage":"dernière position du front connue avant le Snapshot, géoréférencée"},{"source_id":"src-openhistoricalmap","locator":"relation 2693085 — German Reich 1936-1938","usage":"frontières de 1937"},{"source_id":"src-natural-earth-10m","locator":"ne_10m_land + ne_10m_minor_islands","usage":"trait de côte"}],"method":"carte_georeferencee_puis_intersection","operations":["Allemagne (1937) ∩ côté allié du front LOC du 31/12/1944","ouverture 3 km, morceaux de moins de 30 km² retirés"],"precision":"voir points_a_verifier","zone_incertitude_km":3,"surface_km2":1474,"logiciel":"Python — Shapely/GEOS, scikit-image, SciPy","script":"outils/geo/deriver_snapshot0_lot03.py","date_creation":"2026-09-28","auteur":"Claude","licence":"CC0 (OpenHistoricalMap) + segments sous licence d’origine listés dans licences_segments : à créditer","licences_segments":[{"relation":2693085,"licence":"CC0-1.0","source":"","segments":13}],"points_a_verifier":["Carte LOC géoréférencée par ajustement automatique de ~9 900 points des fleuves Natural Earth sur les fleuves bleus de la carte (Lambert + polynôme d'ordre 2) : écart ≈ 1 à 2 km ; trait du front ≈ 1 km de large. Incertitude retenue : 3 km.","Région d'Aix-la-Chapelle et bordures de la Sarre et du Palatinat tenues par les Alliés. PROPOSITION de Claude, à valider par Ether."],"reference_temporelle":{"snapshot":"1945-01-01T00:00","observation_source":"1944-12-31T12:00","ecart":"12 h avant","statut":"derniere_situation_connue_avant_snapshot","etat_suivant":"État suivant connu (ratissage de janvier) : carte LOC du 01/01/1945 à 12:00 (item 2004630304) ; écart médian 0,7 km avec celle du 31/12, secteurs changés ≈ 31 km² à l'ouest de Bastogne et ≈ 20 km² vers Monschau (outils/geo/lot03/comparer_31dec_01jan.py)."}}}