{"type":"Feature","geometry":{"type":"Polygon","coordinates":[[[1.44311,42.60348],[1.44543,42.60355],[1.44685,42.60377],[1.44839,42.60358],[1.45067,42.60235],[1.45401,42.60266],[1.45612,42.602],[1.45882,42.60333],[1.45951,42.60462],[1.46148,42.60563],[1.46326,42.60558],[1.46391,42.60677],[1.46459,42.60694],[1.46588,42.6068],[1.46721,42.6065],[1.46901,42.60648],[1.47047,42.60893],[1.47281,42.61002],[1.47494,42.61163],[1.47487,42.61219],[1.47558,42.61283],[1.4765,42.61307],[1.47751,42.61455],[1.47597,42.6164],[1.475,42.61803],[1.47367,42.6219],[1.47277,42.6225],[1.47225,42.62363],[1.4711,42.6248],[1.47058,42.62619],[1.47114,42.62828],[1.47097,42.62929],[1.46805,42.63105],[1.46925,42.63352],[1.47002,42.63585],[1.47174,42.63667],[1.47697,42.6404],[1.47783,42.64349],[1.47723,42.64412],[1.47697,42.64488],[1.47869,42.64835],[1.47852,42.65063],[1.47878,42.65151],[1.48024,42.6512],[1.48564,42.6517],[1.49414,42.65315],[1.49723,42.64917],[1.49929,42.64608],[1.50084,42.64564],[1.5065,42.64539],[1.51165,42.64614],[1.51586,42.64596],[1.51834,42.64526],[1.52066,42.64659],[1.52169,42.64829],[1.52478,42.65037],[1.52847,42.65183],[1.53165,42.65094],[1.53311,42.64987],[1.53594,42.65063],[1.53826,42.65258],[1.54178,42.65347],[1.54521,42.65454],[1.54942,42.65599],[1.5501,42.65517],[1.55431,42.65366],[1.55808,42.65221],[1.55972,42.65328],[1.56152,42.65353],[1.56495,42.65258],[1.56641,42.65088],[1.5683,42.64835],[1.57036,42.6481],[1.57242,42.64697],[1.57439,42.64715],[1.57577,42.64614],[1.57602,42.64251],[1.57834,42.64169],[1.58023,42.63689],[1.58478,42.63377],[1.58585,42.63339],[1.58662,42.63374],[1.58937,42.63352],[1.59375,42.63285],[1.59686,42.63019],[1.60031,42.62589],[1.60224,42.6255],[1.60375,42.62573],[1.60478,42.62673],[1.60645,42.62739],[1.60804,42.62843],[1.60855,42.62842],[1.60954,42.62865],[1.61061,42.62752],[1.6113,42.62676],[1.6125,42.62676],[1.61623,42.62679],[1.61684,42.62679],[1.61739,42.62622],[1.61864,42.62581],[1.61963,42.62588],[1.62229,42.62752],[1.62379,42.62704],[1.62572,42.62673],[1.62859,42.6267],[1.62971,42.62708],[1.63057,42.6279],[1.63709,42.63026],[1.63834,42.62856],[1.63932,42.62821],[1.6419,42.62846],[1.64838,42.62733],[1.65288,42.62648],[1.65516,42.62442],[1.65542,42.62265],[1.65791,42.62114],[1.65979,42.6207],[1.66168,42.61962],[1.664,42.61918],[1.66494,42.62032],[1.66623,42.62139],[1.66838,42.62158],[1.67044,42.62164],[1.67267,42.62108],[1.67439,42.62215],[1.67825,42.62247],[1.68048,42.6248],[1.68344,42.62496],[1.68619,42.6242],[1.68889,42.62382],[1.69065,42.62332],[1.69207,42.62196],[1.69447,42.62259],[1.69649,42.62247],[1.69837,42.62284],[1.70099,42.62221],[1.70434,42.61981],[1.70777,42.61833],[1.71305,42.61504],[1.71537,42.61457],[1.71897,42.61508],[1.72095,42.61568],[1.72305,42.61675],[1.73026,42.61463],[1.73206,42.61473],[1.73309,42.61549],[1.73494,42.61748],[1.73601,42.61782],[1.73623,42.61577],[1.73841,42.61192],[1.73421,42.60813],[1.73335,42.60339],[1.73017,42.60067],[1.7276,42.60092],[1.72726,42.59227],[1.7264,42.59183],[1.72691,42.58924],[1.7276,42.58841],[1.73086,42.58785],[1.73395,42.58848],[1.73644,42.58804],[1.74185,42.58778],[1.74871,42.58519],[1.75026,42.58481],[1.75361,42.58298],[1.7555,42.58292],[1.76022,42.58102],[1.76811,42.58014],[1.78099,42.58247],[1.78313,42.58001],[1.78489,42.57536],[1.78674,42.57448],[1.78571,42.57337],[1.78502,42.57328],[1.78506,42.57246],[1.78416,42.57208],[1.7824,42.5716],[1.78184,42.57062],[1.78099,42.57034],[1.78009,42.56983],[1.77871,42.56889],[1.7776,42.56879],[1.77725,42.56828],[1.77631,42.56781],[1.77498,42.56794],[1.77498,42.56724],[1.77408,42.56664],[1.77279,42.56617],[1.7715,42.56614],[1.77103,42.56645],[1.77086,42.56576],[1.77013,42.56541],[1.76914,42.56481],[1.7679,42.56437],[1.76743,42.5649],[1.76575,42.56509],[1.76567,42.5655],[1.76502,42.56538],[1.76429,42.5656],[1.76339,42.56535],[1.76223,42.56509],[1.76163,42.56531],[1.76064,42.56525],[1.75949,42.56535],[1.75854,42.565],[1.75751,42.56497],[1.75631,42.56481],[1.75567,42.56512],[1.75408,42.56481],[1.75275,42.56437],[1.75133,42.56408],[1.75026,42.56414],[1.74957,42.56313],[1.74846,42.56313],[1.74687,42.56244],[1.74687,42.56196],[1.74496,42.56101],[1.74516,42.56065],[1.74512,42.56047],[1.74488,42.56018],[1.74454,42.56013],[1.74421,42.55983],[1.7438,42.55957],[1.74368,42.55932],[1.7433,42.55906],[1.74329,42.55869],[1.74323,42.55856],[1.74291,42.55845],[1.7429,42.55824],[1.74216,42.55825],[1.74193,42.55747],[1.74146,42.55747],[1.74086,42.55703],[1.73979,42.55675],[1.74,42.55618],[1.73953,42.55589],[1.73889,42.55561],[1.73887,42.55512],[1.73833,42.55453],[1.73801,42.55422],[1.7382,42.55397],[1.7385,42.55357],[1.73796,42.55283],[1.73749,42.55212],[1.73691,42.55177],[1.737,42.55112],[1.73683,42.55091],[1.73627,42.55065],[1.73603,42.55035],[1.73539,42.54987],[1.73494,42.54998],[1.73451,42.54903],[1.73483,42.54842],[1.73481,42.54775],[1.7349,42.54745],[1.73522,42.54709],[1.73565,42.54643],[1.7355,42.54597],[1.73564,42.54499],[1.73515,42.54438],[1.73514,42.54405],[1.73522,42.54398],[1.73525,42.5438],[1.7356,42.54351],[1.7357,42.5433],[1.73565,42.54298],[1.73553,42.54277],[1.73523,42.5427],[1.73461,42.54218],[1.73421,42.54194],[1.73404,42.54141],[1.73402,42.54096],[1.73421,42.54077],[1.73445,42.54053],[1.73434,42.53993],[1.73414,42.53944],[1.73399,42.53914],[1.73354,42.53892],[1.73346,42.53854],[1.73357,42.53816],[1.73382,42.53795],[1.73387,42.53773],[1.73365,42.53751],[1.73374,42.53719],[1.73399,42.53703],[1.73421,42.53683],[1.73445,42.53651],[1.73427,42.53621],[1.7344,42.53585],[1.73427,42.53523],[1.7344,42.53469],[1.73468,42.53406],[1.73485,42.53368],[1.73449,42.53322],[1.73432,42.53264],[1.73363,42.53224],[1.73378,42.53197],[1.73339,42.53118],[1.73309,42.53079],[1.7332,42.53041],[1.73365,42.52791],[1.73331,42.52769],[1.73275,42.52769],[1.73185,42.52895],[1.73142,42.52895],[1.7312,42.52769],[1.73069,42.52699],[1.73069,42.52642],[1.72979,42.52601],[1.72902,42.52513],[1.72884,42.52231],[1.72992,42.52035],[1.72799,42.5195],[1.72756,42.51861],[1.7267,42.51849],[1.72545,42.5189],[1.72374,42.51833],[1.72245,42.51766],[1.72412,42.51618],[1.72533,42.51561],[1.72571,42.51491],[1.72597,42.51225],[1.72623,42.5107],[1.72575,42.50836],[1.72566,42.50468],[1.72056,42.50014],[1.72049,42.50007],[1.71796,42.49775],[1.71438,42.49468],[1.71137,42.49226],[1.70941,42.49156],[1.7074,42.49106],[1.70612,42.49044],[1.70361,42.4898],[1.70311,42.48981],[1.70257,42.48993],[1.70216,42.4901],[1.70059,42.49106],[1.69931,42.49155],[1.69369,42.4936],[1.69243,42.49411],[1.69098,42.49478],[1.69032,42.49495],[1.68783,42.49519],[1.68727,42.49531],[1.68642,42.49548],[1.68585,42.49548],[1.68569,42.49547],[1.68395,42.49481],[1.68343,42.49453],[1.68318,42.49434],[1.68277,42.49401],[1.68266,42.49399],[1.68212,42.4942],[1.6814,42.49437],[1.68083,42.49443],[1.67986,42.49452],[1.67948,42.49468],[1.67889,42.49525],[1.67835,42.49558],[1.67782,42.49609],[1.67757,42.49622],[1.67729,42.49633],[1.67617,42.49684],[1.67582,42.49716],[1.67557,42.49749],[1.67545,42.49776],[1.67542,42.4979],[1.67533,42.49808],[1.67485,42.49835],[1.67426,42.49878],[1.67387,42.49902],[1.67361,42.49924],[1.67333,42.49955],[1.67311,42.49991],[1.6731,42.50006],[1.67293,42.50067],[1.67266,42.50132],[1.67184,42.50222],[1.67134,42.50301],[1.66998,42.50419],[1.66958,42.50394],[1.66917,42.50347],[1.66874,42.50281],[1.66752,42.50017],[1.66748,42.50007],[1.66723,42.49977],[1.6664,42.49912],[1.66607,42.49879],[1.66581,42.49851],[1.6656,42.49819],[1.66552,42.49795],[1.66549,42.49765],[1.66549,42.49716],[1.66546,42.49695],[1.66545,42.49663],[1.66552,42.49636],[1.66564,42.49613],[1.66554,42.49601],[1.66541,42.4959],[1.66495,42.4956],[1.6643,42.49531],[1.66357,42.49488],[1.6629,42.49428],[1.6625,42.49395],[1.66219,42.49362],[1.66199,42.4931],[1.66196,42.49263],[1.66205,42.49248],[1.66237,42.49223],[1.66281,42.4918],[1.66303,42.491],[1.66299,42.49072],[1.66242,42.48995],[1.66236,42.48965],[1.66232,42.48911],[1.66216,42.48813],[1.66221,42.48734],[1.66223,42.48652],[1.66207,42.4857],[1.66163,42.48461],[1.66168,42.48416],[1.66183,42.48363],[1.662,42.48327],[1.66244,42.48238],[1.66288,42.4798],[1.65998,42.47861],[1.66055,42.47806],[1.66077,42.47757],[1.66097,42.47727],[1.66118,42.47711],[1.66134,42.4768],[1.66172,42.47609],[1.6621,42.47535],[1.66223,42.47509],[1.66241,42.47485],[1.66251,42.47445],[1.66233,42.47381],[1.66209,42.4734],[1.66178,42.47302],[1.66116,42.47263],[1.66085,42.47246],[1.66022,42.4723],[1.66003,42.47224],[1.6599,42.47215],[1.65968,42.47195],[1.65942,42.47182],[1.65926,42.47171],[1.659,42.4713],[1.65863,42.47095],[1.65838,42.47065],[1.65789,42.46998],[1.65782,42.46979],[1.65778,42.46957],[1.65776,42.46935],[1.65761,42.46907],[1.65721,42.46873],[1.65712,42.46856],[1.65702,42.46822],[1.65629,42.46805],[1.65561,42.46778],[1.65496,42.46749],[1.65398,42.46721],[1.65357,42.46704],[1.65337,42.46699],[1.65315,42.46696],[1.65274,42.46697],[1.65221,42.46702],[1.65197,42.46706],[1.65171,42.46706],[1.65148,42.46701],[1.65086,42.46691],[1.65071,42.46692],[1.65045,42.46706],[1.65029,42.4671],[1.64993,42.46707],[1.64958,42.46702],[1.64933,42.46705],[1.64816,42.46748],[1.64762,42.46773],[1.64745,42.46786],[1.64733,42.468],[1.64728,42.46809],[1.64728,42.4682],[1.64714,42.46844],[1.64695,42.46856],[1.6467,42.46863],[1.6466,42.46861],[1.6464,42.46851],[1.64591,42.46845],[1.64523,42.46814],[1.64498,42.46807],[1.64481,42.46797],[1.6447,42.46787],[1.64438,42.4676],[1.64406,42.46743],[1.64351,42.46725],[1.64305,42.46698],[1.64238,42.46669],[1.64187,42.46657],[1.64097,42.46646],[1.64017,42.46641],[1.63841,42.46704],[1.63822,42.46724],[1.63807,42.46743],[1.63783,42.46753],[1.63753,42.46756],[1.63734,42.46761],[1.63694,42.46784],[1.63623,42.46807],[1.63611,42.46808],[1.63587,42.46805],[1.63566,42.46795],[1.63545,42.46774],[1.63537,42.4676],[1.63514,42.46739],[1.63505,42.46732],[1.63457,42.46716],[1.63437,42.46714],[1.63413,42.46712],[1.634,42.46711],[1.63384,42.46696],[1.63364,42.46682],[1.63312,42.46638],[1.63289,42.46623],[1.63273,42.46618],[1.63255,42.46615],[1.6323,42.46609],[1.63221,42.46607],[1.63211,42.46599],[1.63194,42.4655],[1.63191,42.46535],[1.63179,42.46515],[1.63164,42.465],[1.63151,42.4649],[1.63111,42.46468],[1.63099,42.46453],[1.63095,42.46408],[1.63102,42.46372],[1.63145,42.463],[1.63144,42.46296],[1.63125,42.46296],[1.6311,42.46305],[1.63036,42.46364],[1.63017,42.46388],[1.63007,42.46394],[1.62991,42.46403],[1.62974,42.46407],[1.62954,42.46409],[1.62905,42.46411],[1.6285,42.46409],[1.62811,42.46407],[1.62778,42.46404],[1.62752,42.46406],[1.62733,42.46414],[1.62698,42.46437],[1.6268,42.46442],[1.62634,42.46446],[1.62585,42.46453],[1.62552,42.46464],[1.62464,42.465],[1.62401,42.4652],[1.62257,42.46568],[1.62204,42.46575],[1.62163,42.46572],[1.62134,42.46565],[1.62093,42.46553],[1.62035,42.46533],[1.62005,42.46517],[1.61975,42.46504],[1.61942,42.46492],[1.61893,42.46491],[1.61828,42.46497],[1.61789,42.46497],[1.61753,42.46493],[1.61738,42.46492],[1.61716,42.46494],[1.61682,42.46503],[1.61646,42.46519],[1.61635,42.46532],[1.61625,42.46537],[1.61612,42.46539],[1.61606,42.46538],[1.61582,42.46533],[1.6155,42.46529],[1.61502,42.46526],[1.61476,42.46533],[1.6145,42.4653],[1.6143,42.46531],[1.61407,42.46535],[1.61388,42.46542],[1.61379,42.46544],[1.61365,42.4654],[1.6132,42.46525],[1.61282,42.46526],[1.61261,42.46527],[1.61235,42.46526],[1.6122,42.46525],[1.61195,42.46513],[1.61171,42.46506],[1.61149,42.46503],[1.61137,42.46504],[1.61112,42.46509],[1.61075,42.4652],[1.61058,42.46522],[1.61047,42.46519],[1.61023,42.46503],[1.60991,42.46488],[1.60951,42.46474],[1.60924,42.46467],[1.60888,42.46464],[1.6086,42.46473],[1.60839,42.46473],[1.60815,42.4647],[1.60782,42.46462],[1.60766,42.46457],[1.60729,42.46443],[1.60694,42.46436],[1.60655,42.46438],[1.60637,42.46441],[1.60616,42.4645],[1.60602,42.46461],[1.60586,42.46475],[1.60575,42.46479],[1.60561,42.46479],[1.60542,42.46484],[1.60509,42.46499],[1.60484,42.46508],[1.60455,42.46517],[1.60437,42.46526],[1.6041,42.46551],[1.60383,42.46568],[1.60365,42.46569],[1.60339,42.46564],[1.60317,42.46563],[1.60306,42.46563],[1.60277,42.4657],[1.60255,42.46576],[1.60223,42.46588],[1.60198,42.46596],[1.60182,42.46604],[1.60175,42.46612],[1.60169,42.46617],[1.60132,42.4663],[1.60111,42.46635],[1.60083,42.46645],[1.60052,42.46662],[1.60034,42.46674],[1.60025,42.46678],[1.60015,42.4668],[1.60002,42.4668],[1.59971,42.46676],[1.59925,42.46661],[1.59863,42.46656],[1.59779,42.46638],[1.59737,42.46632],[1.59672,42.46608],[1.59568,42.46563],[1.59457,42.46534],[1.59385,42.46503],[1.59353,42.46481],[1.59275,42.46439],[1.59222,42.46429],[1.59143,42.46425],[1.59067,42.46419],[1.5901,42.46401],[1.58986,42.46389],[1.58957,42.46348],[1.58935,42.46312],[1.58874,42.4627],[1.58831,42.46227],[1.58774,42.46182],[1.58569,42.46041],[1.58552,42.46024],[1.58541,42.46004],[1.58545,42.45981],[1.58549,42.45947],[1.58555,42.45921],[1.58551,42.45909],[1.58534,42.45894],[1.58511,42.45865],[1.58445,42.45739],[1.58387,42.45678],[1.58364,42.45633],[1.5835,42.45523],[1.58343,42.45508],[1.58313,42.45468],[1.58269,42.45385],[1.58252,42.45337],[1.58249,42.453],[1.58239,42.45257],[1.58197,42.45192],[1.58181,42.45155],[1.58123,42.4508],[1.58083,42.44998],[1.57919,42.44972],[1.5786,42.44975],[1.5776,42.45004],[1.57715,42.45036],[1.57669,42.45085],[1.57634,42.45119],[1.57586,42.45146],[1.5751,42.45172],[1.57491,42.4518],[1.57475,42.45197],[1.57458,42.45207],[1.57416,42.45223],[1.57404,42.45237],[1.5735,42.45278],[1.57252,42.45361],[1.57218,42.45401],[1.57191,42.45435],[1.57138,42.45525],[1.5706,42.45596],[1.57027,42.45641],[1.57006,42.45677],[1.56942,42.45738],[1.56911,42.45762],[1.56888,42.45792],[1.56865,42.45812],[1.56828,42.45829],[1.56793,42.45853],[1.56745,42.45888],[1.56698,42.45899],[1.56637,42.45894],[1.5661,42.4589],[1.56566,42.45881],[1.56465,42.45829],[1.5633,42.45806],[1.56267,42.45802],[1.56226,42.45803],[1.56196,42.45808],[1.56164,42.45822],[1.56107,42.45865],[1.56003,42.4579],[1.55995,42.45781],[1.55937,42.45696],[1.55868,42.45614],[1.55839,42.45589],[1.55806,42.45554],[1.55701,42.45474],[1.55623,42.45413],[1.5571,42.45327],[1.55758,42.45261],[1.55794,42.45215],[1.55819,42.45189],[1.55886,42.45147],[1.5598,42.45016],[1.56018,42.44932],[1.56023,42.44899],[1.56001,42.44864],[1.55967,42.4483],[1.55876,42.44774],[1.55818,42.44746],[1.55578,42.44676],[1.55543,42.44658],[1.55495,42.4461],[1.55294,42.44338],[1.55416,42.44083],[1.55432,42.44049],[1.5545,42.44025],[1.55428,42.44006],[1.55424,42.44004],[1.55423,42.43993],[1.55417,42.4399],[1.55414,42.43986],[1.55405,42.43971],[1.55395,42.43953],[1.55392,42.43948],[1.55386,42.43934],[1.55386,42.43928],[1.55381,42.43908],[1.5538,42.43903],[1.55383,42.43897],[1.55384,42.43893],[1.55388,42.43883],[1.55388,42.43863],[1.55389,42.43857],[1.55392,42.43849],[1.55392,42.43843],[1.55388,42.43833],[1.55383,42.4383],[1.55379,42.43826],[1.55374,42.43823],[1.55364,42.43814],[1.5536,42.43812],[1.55356,42.43807],[1.55354,42.43801],[1.55353,42.43791],[1.55351,42.43787],[1.55349,42.43764],[1.55346,42.43755],[1.55347,42.43746],[1.55346,42.4374],[1.55343,42.43732],[1.55338,42.43728],[1.55333,42.43719],[1.55331,42.43714],[1.55328,42.4371],[1.55326,42.43691],[1.55327,42.43684],[1.55331,42.43673],[1.55333,42.43654],[1.55332,42.43647],[1.55334,42.43643],[1.55332,42.43637],[1.5533,42.43632],[1.55326,42.43629],[1.55325,42.43627],[1.55323,42.43623],[1.55325,42.43612],[1.55318,42.43594],[1.55316,42.43592],[1.55317,42.43588],[1.5532,42.43583],[1.55319,42.43568],[1.55317,42.43564],[1.5531,42.43561],[1.55304,42.43557],[1.55291,42.43541],[1.55288,42.43535],[1.55287,42.43525],[1.55293,42.43505],[1.55295,42.43499],[1.55299,42.43496],[1.55303,42.43491],[1.55304,42.43486],[1.55303,42.43481],[1.55304,42.43476],[1.553,42.43455],[1.55299,42.43445],[1.55305,42.4344],[1.55325,42.43427],[1.5533,42.43423],[1.55333,42.43419],[1.55333,42.43417],[1.55334,42.43414],[1.55324,42.43392],[1.55321,42.43388],[1.55315,42.43384],[1.55309,42.43375],[1.55306,42.43369],[1.55299,42.4335],[1.55297,42.43343],[1.55288,42.43324],[1.5528,42.43314],[1.55275,42.43312],[1.55264,42.43304],[1.55261,42.433],[1.55252,42.43291],[1.5525,42.43287],[1.55242,42.43278],[1.55227,42.43269],[1.55222,42.43266],[1.55208,42.43262],[1.552,42.43259],[1.55195,42.43259],[1.55179,42.43256],[1.55173,42.43254],[1.55168,42.43251],[1.55157,42.43252],[1.55155,42.43251],[1.55149,42.4325],[1.55142,42.43251],[1.55139,42.4325],[1.55137,42.4325],[1.55135,42.43249],[1.55132,42.43249],[1.55124,42.43252],[1.55114,42.43253],[1.55109,42.43254],[1.55103,42.43254],[1.55096,42.43252],[1.55087,42.43248],[1.55084,42.43245],[1.55081,42.43242],[1.55076,42.4324],[1.55074,42.43238],[1.55067,42.43236],[1.55063,42.43236],[1.55058,42.43235],[1.55047,42.43235],[1.55042,42.43237],[1.55031,42.43242],[1.55021,42.43246],[1.55018,42.43249],[1.55009,42.4325],[1.55004,42.43252],[1.55001,42.43255],[1.54989,42.43258],[1.54986,42.4326],[1.54969,42.43261],[1.54963,42.4326],[1.54946,42.43261],[1.54941,42.43263],[1.5494,42.43266],[1.54936,42.43271],[1.5493,42.43274],[1.54923,42.43278],[1.54894,42.43281],[1.54869,42.43289],[1.54848,42.433],[1.54834,42.43304],[1.54808,42.43303],[1.5478,42.43304],[1.54751,42.43302],[1.54652,42.43266],[1.54592,42.43257],[1.54543,42.43258],[1.54476,42.43262],[1.54437,42.43266],[1.54369,42.43267],[1.54293,42.43247],[1.5425,42.43237],[1.54133,42.43242],[1.53955,42.43302],[1.53899,42.43307],[1.53823,42.43298],[1.53612,42.43256],[1.53473,42.43233],[1.53174,42.43223],[1.53075,42.43217],[1.52957,42.43203],[1.52823,42.43203],[1.52698,42.4318],[1.5261,42.43163],[1.52572,42.43128],[1.52567,42.4312],[1.52562,42.43113],[1.52556,42.43108],[1.52546,42.43103],[1.52541,42.43099],[1.52535,42.43097],[1.52529,42.43097],[1.52523,42.43095],[1.52509,42.43094],[1.52505,42.4309],[1.525,42.43087],[1.52494,42.43085],[1.52487,42.4308],[1.52451,42.43066],[1.52428,42.43054],[1.52423,42.43049],[1.52418,42.43045],[1.52415,42.43042],[1.52412,42.43039],[1.52405,42.43038],[1.52377,42.43038],[1.5237,42.43036],[1.52345,42.43037],[1.52338,42.43041],[1.52326,42.43044],[1.5232,42.43043],[1.52312,42.43043],[1.52299,42.43042],[1.52284,42.43042],[1.52277,42.43045],[1.52272,42.43048],[1.5226,42.43047],[1.52249,42.43041],[1.52246,42.43039],[1.5224,42.43039],[1.52233,42.43037],[1.52218,42.43038],[1.52211,42.43036],[1.52205,42.43037],[1.52199,42.43036],[1.52193,42.43036],[1.52178,42.43035],[1.52172,42.43034],[1.52166,42.43033],[1.5216,42.43033],[1.52141,42.43031],[1.52135,42.43028],[1.5213,42.43026],[1.52124,42.43025],[1.52117,42.43026],[1.5211,42.43025],[1.52098,42.43026],[1.52092,42.43024],[1.52085,42.43024],[1.52072,42.43021],[1.52066,42.43019],[1.5205,42.43017],[1.52043,42.43015],[1.52017,42.43013],[1.52001,42.43013],[1.5198,42.43008],[1.51969,42.43004],[1.51962,42.43002],[1.51957,42.43],[1.5195,42.42998],[1.51939,42.42993],[1.51928,42.4299],[1.51924,42.42987],[1.51919,42.42984],[1.51908,42.42976],[1.51897,42.42969],[1.51894,42.42967],[1.51887,42.42963],[1.51877,42.42957],[1.51869,42.42954],[1.51856,42.4295],[1.51851,42.42949],[1.51831,42.42941],[1.51818,42.42934],[1.51816,42.42932],[1.51813,42.42932],[1.51809,42.42929],[1.51805,42.42926],[1.51804,42.42923],[1.51801,42.4292],[1.51796,42.42917],[1.51791,42.42913],[1.51787,42.42908],[1.51774,42.429],[1.51771,42.42895],[1.51763,42.4289],[1.5176,42.42889],[1.51757,42.42887],[1.51754,42.42884],[1.51746,42.42882],[1.51742,42.42881],[1.51738,42.4288],[1.51734,42.42877],[1.51729,42.42876],[1.51719,42.42873],[1.51695,42.42874],[1.51692,42.42875],[1.51679,42.42876],[1.51671,42.42878],[1.51667,42.42878],[1.51661,42.4288],[1.51658,42.4288],[1.51654,42.42881],[1.5165,42.42881],[1.51646,42.42883],[1.51639,42.42885],[1.51635,42.42887],[1.51633,42.42889],[1.51632,42.42891],[1.51629,42.42893],[1.51626,42.42895],[1.51619,42.42895],[1.51615,42.42894],[1.51602,42.42895],[1.51595,42.42892],[1.51589,42.42892],[1.51592,42.42893],[1.51587,42.42892],[1.51578,42.42891],[1.5157,42.42892],[1.51565,42.42891],[1.5156,42.42891],[1.51549,42.42894],[1.51547,42.42894],[1.51532,42.42898],[1.51529,42.42897],[1.51523,42.42898],[1.51518,42.42899],[1.51514,42.42901],[1.51512,42.429],[1.51506,42.429],[1.51497,42.42899],[1.51495,42.42898],[1.51484,42.42899],[1.51483,42.42898],[1.51478,42.42896],[1.51472,42.42895],[1.51467,42.42896],[1.51461,42.42895],[1.51456,42.42895],[1.5145,42.42896],[1.51445,42.42897],[1.51439,42.42899],[1.51436,42.42902],[1.51416,42.42907],[1.51413,42.42907],[1.51401,42.42905],[1.51397,42.42905],[1.51385,42.42903],[1.51374,42.42904],[1.5137,42.42907],[1.51362,42.42911],[1.51361,42.42912],[1.51348,42.42916],[1.51334,42.42916],[1.51328,42.42914],[1.51324,42.42909],[1.5132,42.42906],[1.51307,42.42902],[1.51281,42.429],[1.51276,42.429],[1.51262,42.42903],[1.51253,42.42905],[1.51234,42.42911],[1.51227,42.42912],[1.5122,42.42913],[1.51193,42.42912],[1.51163,42.42909],[1.51158,42.42912],[1.51156,42.42921],[1.51152,42.42928],[1.51152,42.4293],[1.51146,42.42937],[1.51142,42.42944],[1.51141,42.42947],[1.51132,42.42956],[1.5113,42.42959],[1.51126,42.42963],[1.51121,42.42968],[1.51118,42.42971],[1.51115,42.42973],[1.51113,42.42979],[1.5111,42.42982],[1.51106,42.42984],[1.51094,42.42987],[1.51089,42.42989],[1.51085,42.4299],[1.5108,42.42989],[1.51076,42.4299],[1.51066,42.42991],[1.51062,42.42993],[1.51055,42.42995],[1.51034,42.42996],[1.51027,42.42994],[1.51018,42.42994],[1.51008,42.42993],[1.51003,42.42993],[1.50998,42.42992],[1.50995,42.42993],[1.50986,42.42993],[1.5098,42.42992],[1.50969,42.42993],[1.50963,42.42991],[1.50951,42.4299],[1.50942,42.42987],[1.50932,42.4298],[1.50919,42.42968],[1.50913,42.42966],[1.50907,42.42966],[1.50901,42.42968],[1.50896,42.42972],[1.50883,42.42975],[1.50873,42.42982],[1.50867,42.42984],[1.50861,42.42984],[1.50853,42.42984],[1.50846,42.42984],[1.50839,42.42986],[1.50826,42.42995],[1.5082,42.43],[1.50809,42.43013],[1.50804,42.43015],[1.50794,42.43022],[1.50787,42.43026],[1.50782,42.4303],[1.50769,42.43036],[1.50764,42.4304],[1.50755,42.43043],[1.50743,42.43045],[1.50729,42.43045],[1.50723,42.43045],[1.50717,42.43045],[1.5071,42.43047],[1.50701,42.43048],[1.50692,42.43052],[1.50679,42.43056],[1.50675,42.43058],[1.50655,42.43066],[1.50635,42.43073],[1.50619,42.43084],[1.5061,42.43088],[1.50605,42.43093],[1.50599,42.43096],[1.50592,42.43101],[1.50585,42.43105],[1.50579,42.43109],[1.50564,42.43116],[1.50557,42.4312],[1.50552,42.43123],[1.50545,42.43128],[1.50538,42.43132],[1.50509,42.43146],[1.50492,42.43152],[1.50483,42.43157],[1.50475,42.43162],[1.50471,42.43163],[1.50458,42.43165],[1.5045,42.43167],[1.50441,42.43168],[1.50436,42.4317],[1.50432,42.43173],[1.50424,42.43173],[1.50404,42.43176],[1.50392,42.43178],[1.50386,42.43179],[1.50379,42.43178],[1.50369,42.43178],[1.5036,42.43178],[1.50344,42.4318],[1.50336,42.43182],[1.50329,42.43185],[1.50321,42.43188],[1.50308,42.4319],[1.50303,42.43192],[1.50295,42.43194],[1.50291,42.43194],[1.50278,42.43203],[1.50274,42.43205],[1.5027,42.43208],[1.50264,42.43212],[1.50245,42.43218],[1.50241,42.43219],[1.5023,42.43224],[1.50223,42.43226],[1.50215,42.4323],[1.50206,42.43232],[1.50199,42.43235],[1.5019,42.4324],[1.50179,42.43244],[1.50178,42.43245],[1.50172,42.43246],[1.50167,42.43247],[1.50154,42.43247],[1.50148,42.43249],[1.50133,42.43255],[1.50126,42.43259],[1.50115,42.43266],[1.50105,42.43271],[1.50093,42.43273],[1.50086,42.43273],[1.50072,42.43276],[1.50062,42.43275],[1.5005,42.43276],[1.50042,42.43277],[1.50033,42.43277],[1.5002,42.4328],[1.50015,42.43281],[1.50008,42.43283],[1.50001,42.43283],[1.49991,42.43287],[1.49975,42.43292],[1.49954,42.43296],[1.49947,42.43296],[1.49941,42.43298],[1.49935,42.43299],[1.49928,42.43299],[1.49912,42.43302],[1.49909,42.43304],[1.49905,42.43307],[1.49898,42.43309],[1.49881,42.43312],[1.49871,42.43313],[1.49862,42.43313],[1.49854,42.43314],[1.49835,42.43315],[1.49829,42.43316],[1.49826,42.43315],[1.49814,42.4332],[1.498,42.43322],[1.49796,42.43323],[1.49791,42.43321],[1.4978,42.4332],[1.49774,42.43317],[1.49766,42.43317],[1.4976,42.43318],[1.49753,42.43316],[1.49748,42.43316],[1.49743,42.43317],[1.49737,42.43316],[1.4973,42.43315],[1.49722,42.43316],[1.49716,42.43317],[1.49699,42.43313],[1.49692,42.4331],[1.49686,42.43311],[1.4968,42.4331],[1.49673,42.43308],[1.49651,42.43306],[1.49645,42.43306],[1.49638,42.43305],[1.49632,42.43306],[1.49626,42.43307],[1.49618,42.43306],[1.4961,42.43306],[1.49598,42.43305],[1.49594,42.43305],[1.49588,42.43306],[1.49582,42.43309],[1.49573,42.43313],[1.49563,42.43315],[1.49544,42.43319],[1.49506,42.4332],[1.49483,42.43316],[1.49473,42.43316],[1.4946,42.43315],[1.49446,42.43313],[1.49439,42.43313],[1.49431,42.43313],[1.4942,42.43315],[1.49406,42.43315],[1.494,42.43316],[1.49394,42.43316],[1.49384,42.43318],[1.49376,42.43317],[1.49369,42.43318],[1.49363,42.43317],[1.49349,42.43318],[1.49343,42.43317],[1.49331,42.43319],[1.49321,42.43321],[1.49312,42.4332],[1.49303,42.4332],[1.49298,42.43322],[1.49293,42.43323],[1.49284,42.43324],[1.4927,42.43324],[1.49262,42.43323],[1.49255,42.43325],[1.49209,42.43327],[1.492,42.43329],[1.49191,42.4333],[1.49183,42.4333],[1.49172,42.43329],[1.4916,42.4333],[1.49152,42.43329],[1.49144,42.43329],[1.49136,42.43329],[1.49129,42.43329],[1.4912,42.43327],[1.49112,42.43327],[1.49102,42.43325],[1.49093,42.43324],[1.4907,42.4332],[1.4906,42.43319],[1.49052,42.43318],[1.49043,42.43318],[1.49016,42.43316],[1.48986,42.43314],[1.48957,42.43315],[1.48924,42.43319],[1.48912,42.43319],[1.48904,42.43321],[1.48894,42.4332],[1.48883,42.43321],[1.48872,42.4332],[1.48867,42.43319],[1.48849,42.43317],[1.48838,42.43317],[1.48828,42.43316],[1.48819,42.43316],[1.4881,42.43315],[1.488,42.43316],[1.48778,42.4331],[1.48771,42.43308],[1.48762,42.43306],[1.48752,42.43304],[1.48743,42.43304],[1.48736,42.43304],[1.48726,42.43303],[1.48718,42.43304],[1.48708,42.43303],[1.48698,42.43304],[1.4869,42.43303],[1.48682,42.43303],[1.48667,42.43302],[1.48653,42.43298],[1.48649,42.43298],[1.48625,42.43297],[1.48617,42.433],[1.48604,42.433],[1.4859,42.43301],[1.48567,42.43302],[1.48549,42.43301],[1.4853,42.4329],[1.48525,42.43289],[1.48519,42.43284],[1.48471,42.43276],[1.48458,42.43277],[1.48447,42.43278],[1.48411,42.43287],[1.48343,42.43313],[1.48318,42.43319],[1.48307,42.43322],[1.48297,42.43322],[1.48294,42.43324],[1.48271,42.43332],[1.48247,42.43333],[1.48236,42.43335],[1.48206,42.4334],[1.48176,42.43344],[1.48171,42.43345],[1.48158,42.43345],[1.4815,42.43348],[1.48145,42.43348],[1.4814,42.43349],[1.48136,42.43351],[1.48132,42.43352],[1.48126,42.43352],[1.48114,42.43355],[1.48106,42.43356],[1.48102,42.43357],[1.48098,42.43359],[1.48093,42.43359],[1.48075,42.43363],[1.48073,42.43365],[1.48071,42.43366],[1.48066,42.4337],[1.48063,42.43372],[1.48059,42.43372],[1.4805,42.43376],[1.48047,42.43378],[1.48035,42.43383],[1.48032,42.43383],[1.48028,42.43384],[1.48026,42.43383],[1.4802,42.43386],[1.48013,42.43386],[1.48008,42.43386],[1.48003,42.43386],[1.47979,42.43392],[1.47968,42.43396],[1.47965,42.43399],[1.47957,42.43404],[1.47952,42.43403],[1.4794,42.43409],[1.47933,42.43409],[1.47926,42.43411],[1.47917,42.4341],[1.47912,42.4341],[1.479,42.43411],[1.47888,42.43414],[1.47882,42.43417],[1.47878,42.43422],[1.47873,42.43424],[1.47863,42.43425],[1.47854,42.43428],[1.47841,42.4343],[1.47828,42.43433],[1.47814,42.43437],[1.47804,42.43443],[1.47794,42.43447],[1.47776,42.43456],[1.47766,42.43459],[1.47759,42.43464],[1.47755,42.43468],[1.47739,42.43474],[1.47727,42.43478],[1.47714,42.43483],[1.47696,42.43491],[1.47684,42.43495],[1.47674,42.43499],[1.47667,42.43503],[1.47661,42.43505],[1.47654,42.43507],[1.47646,42.43508],[1.47629,42.4351],[1.47604,42.43517],[1.47571,42.43521],[1.47534,42.4353],[1.47521,42.43532],[1.47494,42.43533],[1.47441,42.43531],[1.47374,42.43534],[1.47364,42.43533],[1.47332,42.43527],[1.47273,42.43527],[1.47234,42.43526],[1.47198,42.43535],[1.46145,42.43639],[1.4598,42.43631],[1.45784,42.436],[1.45654,42.43588],[1.45518,42.43605],[1.4524,42.43698],[1.45005,42.43799],[1.44723,42.43944],[1.44439,42.44142],[1.44382,42.44231],[1.44326,42.44392],[1.44258,42.44471],[1.4468,42.44377],[1.44634,42.44524],[1.44532,42.44662],[1.44557,42.44722],[1.44615,42.4481],[1.44372,42.45033],[1.44191,42.45163],[1.44177,42.45222],[1.4418,42.45272],[1.44211,42.45351],[1.44212,42.45398],[1.44191,42.45442],[1.4417,42.45471],[1.4414,42.45507],[1.4412,42.45519],[1.44117,42.45545],[1.4414,42.45577],[1.44181,42.45599],[1.4433,42.45709],[1.44406,42.45747],[1.44555,42.45808],[1.44625,42.45876],[1.44665,42.459],[1.44686,42.45935],[1.44753,42.46007],[1.44572,42.46135],[1.44499,42.46174],[1.44456,42.4621],[1.44384,42.46257],[1.44296,42.46302],[1.44216,42.46334],[1.44059,42.46362],[1.4404,42.4644],[1.4404,42.46501],[1.44063,42.46607],[1.44056,42.4664],[1.44044,42.46745],[1.44026,42.46832],[1.44037,42.46921],[1.4404,42.46956],[1.44031,42.46993],[1.44019,42.47034],[1.44007,42.47067],[1.43996,42.47105],[1.43995,42.47132],[1.44011,42.47165],[1.44026,42.47196],[1.44028,42.47225],[1.44029,42.47256],[1.44036,42.47299],[1.44055,42.4734],[1.44075,42.47374],[1.44082,42.47425],[1.4408,42.47469],[1.44102,42.47512],[1.44119,42.47536],[1.44103,42.47548],[1.44011,42.47623],[1.43963,42.47669],[1.43905,42.47744],[1.43811,42.47814],[1.43773,42.47831],[1.4371,42.47905],[1.43628,42.47954],[1.4355,42.4798],[1.43525,42.47986],[1.43507,42.48],[1.43478,42.48042],[1.43426,42.4809],[1.43385,42.48121],[1.4337,42.48142],[1.43354,42.48185],[1.43335,42.48187],[1.43252,42.48211],[1.43177,42.48234],[1.4313,42.48255],[1.43089,42.48243],[1.4293,42.48233],[1.42803,42.48235],[1.42671,42.48242],[1.42544,42.48243],[1.42492,42.48247],[1.42429,42.48253],[1.42335,42.48259],[1.42268,42.48269],[1.42108,42.48285],[1.42031,42.48286],[1.41897,42.4828],[1.41914,42.48395],[1.41919,42.4842],[1.41933,42.48438],[1.41947,42.4845],[1.41953,42.48466],[1.41962,42.48479],[1.41965,42.48501],[1.41977,42.48508],[1.41991,42.48527],[1.42005,42.48538],[1.42027,42.48561],[1.42032,42.4858],[1.42047,42.48596],[1.42063,42.48605],[1.42074,42.48618],[1.42099,42.48639],[1.42103,42.48644],[1.42115,42.48654],[1.42119,42.48663],[1.42132,42.48675],[1.42147,42.48688],[1.42155,42.48696],[1.42169,42.48721],[1.4217,42.48732],[1.42177,42.48745],[1.42184,42.48764],[1.4219,42.48773],[1.422,42.4879],[1.42209,42.48804],[1.42221,42.48813],[1.42231,42.48827],[1.42243,42.48835],[1.42252,42.48845],[1.42258,42.48854],[1.42267,42.48864],[1.42279,42.48881],[1.42294,42.48896],[1.42301,42.48903],[1.42317,42.48925],[1.42325,42.48933],[1.42338,42.48951],[1.42341,42.4896],[1.42351,42.48981],[1.42349,42.48992],[1.42351,42.49005],[1.42346,42.49031],[1.42348,42.49045],[1.42356,42.49063],[1.42365,42.49078],[1.42372,42.49095],[1.42392,42.49117],[1.42404,42.49129],[1.42417,42.49146],[1.42443,42.49172],[1.42448,42.49182],[1.42466,42.49201],[1.42477,42.49215],[1.42504,42.49241],[1.42529,42.49256],[1.42548,42.49276],[1.42556,42.49291],[1.42556,42.49315],[1.43197,42.49354],[1.4348,42.49386],[1.44108,42.49482],[1.44334,42.49522],[1.45207,42.49988],[1.4522,42.5002],[1.45225,42.50036],[1.45231,42.50049],[1.45235,42.50056],[1.45249,42.50067],[1.45278,42.50085],[1.45301,42.50103],[1.45312,42.50117],[1.45326,42.5013],[1.45344,42.50141],[1.45358,42.50147],[1.45377,42.50153],[1.45398,42.50162],[1.45409,42.50176],[1.45413,42.50184],[1.45422,42.50196],[1.45436,42.50204],[1.45459,42.5022],[1.455,42.50232],[1.45528,42.50242],[1.45551,42.50258],[1.45572,42.50266],[1.45628,42.50327],[1.45638,42.50349],[1.45647,42.50358],[1.45656,42.50369],[1.45667,42.50378],[1.45688,42.50389],[1.45713,42.50397],[1.45735,42.50404],[1.4575,42.50406],[1.45761,42.50409],[1.45772,42.50418],[1.45783,42.50425],[1.45795,42.50427],[1.45814,42.50428],[1.45834,42.50436],[1.45898,42.50452],[1.45915,42.50453],[1.45942,42.50453],[1.45975,42.50456],[1.45996,42.50459],[1.46017,42.50465],[1.46037,42.50474],[1.46047,42.50486],[1.46059,42.50513],[1.46074,42.50536],[1.46088,42.50552],[1.46098,42.5056],[1.46107,42.50565],[1.46132,42.50582],[1.46192,42.50613],[1.46225,42.50629],[1.4629,42.50659],[1.46303,42.50672],[1.46332,42.50707],[1.46351,42.50722],[1.46383,42.50736],[1.46426,42.5075],[1.4646,42.5076],[1.46478,42.50767],[1.46491,42.5078],[1.465,42.508],[1.46511,42.50815],[1.46526,42.50827],[1.46546,42.50837],[1.46582,42.50859],[1.46676,42.5093],[1.46696,42.50943],[1.46766,42.50985],[1.468,42.50995],[1.46837,42.51002],[1.46724,42.51132],[1.46613,42.51296],[1.46499,42.51544],[1.46453,42.51609],[1.46424,42.51648],[1.46416,42.51707],[1.4639,42.51781],[1.46367,42.51833],[1.46303,42.51888],[1.46289,42.51912],[1.46266,42.51939],[1.46236,42.51964],[1.46194,42.51997],[1.46162,42.52033],[1.46129,42.52057],[1.46097,42.52084],[1.46084,42.52104],[1.46059,42.52183],[1.46042,42.52217],[1.46032,42.52276],[1.46011,42.5231],[1.45966,42.52356],[1.45937,42.52376],[1.45903,42.52418],[1.45878,42.52453],[1.45835,42.52499],[1.45814,42.52519],[1.4579,42.52538],[1.45722,42.52579],[1.45681,42.5261],[1.45618,42.52634],[1.45553,42.52648],[1.45512,42.52651],[1.4552,42.52715],[1.4553,42.52836],[1.45493,42.52953],[1.45477,42.53001],[1.45469,42.53018],[1.45445,42.53049],[1.45408,42.53082],[1.45323,42.53158],[1.45239,42.53239],[1.45231,42.53268],[1.45231,42.53321],[1.45247,42.53374],[1.45271,42.5342],[1.45284,42.53466],[1.4528,42.5352],[1.45267,42.53569],[1.45246,42.53615],[1.45235,42.53663],[1.45249,42.53728],[1.45257,42.53799],[1.45254,42.53818],[1.4525,42.53863],[1.45161,42.53917],[1.45055,42.53989],[1.44807,42.54101],[1.44756,42.54121],[1.447,42.54129],[1.44635,42.54134],[1.44611,42.54141],[1.44567,42.54157],[1.44512,42.54196],[1.44455,42.54227],[1.44335,42.5427],[1.44295,42.54282],[1.44249,42.54292],[1.44216,42.54298],[1.44138,42.54301],[1.44057,42.54316],[1.43922,42.54347],[1.43883,42.54346],[1.43844,42.54341],[1.43781,42.54319],[1.43728,42.54296],[1.43655,42.54268],[1.43629,42.54254],[1.43518,42.54179],[1.4343,42.54122],[1.43259,42.5401],[1.43227,42.53993],[1.43201,42.53976],[1.43144,42.53948],[1.43094,42.53932],[1.43034,42.53923],[1.42958,42.53923],[1.42815,42.53918],[1.42594,42.53927],[1.42553,42.53922],[1.42529,42.53914],[1.42476,42.53901],[1.4235,42.53841],[1.42147,42.53767],[1.42047,42.53725],[1.41803,42.53594],[1.41764,42.53582],[1.4174,42.5357],[1.41719,42.53561],[1.41687,42.53549],[1.41664,42.53544],[1.41657,42.53545],[1.41617,42.53549],[1.41539,42.53547],[1.41364,42.53535],[1.41362,42.53606],[1.41361,42.53662],[1.41366,42.53705],[1.41371,42.5372],[1.41395,42.53754],[1.41417,42.53802],[1.41427,42.53829],[1.41445,42.53924],[1.41436,42.53954],[1.41432,42.53978],[1.41434,42.53997],[1.4146,42.54036],[1.41486,42.5406],[1.41541,42.54115],[1.4159,42.54155],[1.416,42.54169],[1.41623,42.54226],[1.41646,42.54255],[1.41676,42.54285],[1.41692,42.54306],[1.41713,42.54322],[1.41754,42.54347],[1.41823,42.54377],[1.41872,42.54392],[1.41893,42.54407],[1.41908,42.54429],[1.41935,42.54475],[1.41943,42.54498],[1.41949,42.54523],[1.41948,42.54552],[1.41947,42.5457],[1.41954,42.54653],[1.41893,42.5474],[1.41889,42.5476],[1.41888,42.54787],[1.41884,42.54826],[1.41883,42.54841],[1.41895,42.54879],[1.4189,42.54911],[1.41895,42.54929],[1.42009,42.54947],[1.42034,42.54959],[1.42069,42.54987],[1.42078,42.55004],[1.42089,42.55046],[1.42117,42.55065],[1.42131,42.55089],[1.42142,42.55102],[1.42203,42.55209],[1.42218,42.55255],[1.42256,42.55308],[1.42268,42.55333],[1.42275,42.55377],[1.42278,42.5543],[1.4228,42.55472],[1.42276,42.55496],[1.42271,42.55512],[1.42272,42.55528],[1.42277,42.55538],[1.4229,42.55555],[1.42318,42.55576],[1.42339,42.55589],[1.42363,42.55613],[1.42377,42.55633],[1.42394,42.55675],[1.42409,42.55694],[1.42423,42.55708],[1.42455,42.55731],[1.42628,42.55863],[1.42708,42.55887],[1.42746,42.559],[1.42807,42.55913],[1.42822,42.5592],[1.42839,42.55935],[1.4288,42.5596],[1.42906,42.55977],[1.42951,42.55999],[1.42979,42.56025],[1.43008,42.56035],[1.43122,42.56074],[1.43227,42.56106],[1.43485,42.56212],[1.43573,42.56238],[1.43604,42.56251],[1.43626,42.56265],[1.43715,42.56307],[1.43776,42.56326],[1.43884,42.56349],[1.4395,42.56363],[1.43993,42.5637],[1.44033,42.56371],[1.44054,42.56379],[1.44092,42.56398],[1.44124,42.56419],[1.44182,42.56446],[1.44194,42.56462],[1.44208,42.56499],[1.44224,42.5654],[1.44244,42.56567],[1.44352,42.56706],[1.44357,42.56715],[1.44416,42.56725],[1.44445,42.56737],[1.44457,42.56756],[1.44495,42.56801],[1.44495,42.56817],[1.44473,42.56839],[1.44448,42.56862],[1.44429,42.56888],[1.44404,42.56927],[1.44388,42.56965],[1.44362,42.57014],[1.44354,42.57035],[1.44342,42.57072],[1.44343,42.57164],[1.44343,42.57192],[1.44341,42.57192],[1.44325,42.57194],[1.44292,42.57204],[1.44251,42.57222],[1.4414,42.5726],[1.44117,42.57268],[1.44096,42.57272],[1.44076,42.57274],[1.44047,42.57274],[1.44016,42.57276],[1.43984,42.57279],[1.43937,42.57285],[1.43851,42.57293],[1.43789,42.57297],[1.43752,42.57303],[1.43661,42.57323],[1.43609,42.57336],[1.4358,42.57346],[1.43559,42.57359],[1.43532,42.5738],[1.43513,42.57391],[1.43489,42.57401],[1.43468,42.57405],[1.43435,42.57412],[1.43409,42.5742],[1.43388,42.57431],[1.43364,42.57448],[1.43329,42.57465],[1.43305,42.57479],[1.43292,42.57494],[1.43277,42.57504],[1.43257,42.57514],[1.43231,42.57525],[1.43214,42.57535],[1.43202,42.57547],[1.43193,42.57556],[1.43186,42.57564],[1.43176,42.57579],[1.43167,42.57604],[1.43157,42.57637],[1.43157,42.5765],[1.43158,42.57664],[1.4316,42.57675],[1.43157,42.57683],[1.43139,42.57695],[1.43101,42.57712],[1.43068,42.57727],[1.43052,42.5774],[1.43042,42.57758],[1.43009,42.57802],[1.42994,42.57813],[1.42968,42.57829],[1.42957,42.5784],[1.4294,42.5786],[1.42933,42.57877],[1.42907,42.57912],[1.42899,42.57937],[1.42892,42.57946],[1.42884,42.5795],[1.42825,42.57961],[1.42818,42.57967],[1.42817,42.57983],[1.42822,42.58012],[1.42821,42.5803],[1.42804,42.58053],[1.42782,42.58075],[1.42769,42.58095],[1.42754,42.58126],[1.42748,42.58154],[1.42744,42.58166],[1.42695,42.58223],[1.4266,42.58256],[1.42652,42.58269],[1.42648,42.5828],[1.42649,42.58292],[1.42657,42.58324],[1.42657,42.58341],[1.42666,42.58365],[1.42676,42.58382],[1.42706,42.5842],[1.42719,42.58437],[1.4274,42.58473],[1.42755,42.58497],[1.42758,42.58523],[1.4275,42.58544],[1.42747,42.58576],[1.42742,42.58605],[1.42737,42.58624],[1.42735,42.58667],[1.4274,42.58693],[1.42752,42.58732],[1.42767,42.58748],[1.42783,42.58757],[1.42806,42.58764],[1.42849,42.58774],[1.42907,42.5878],[1.43031,42.58782],[1.43073,42.58793],[1.43092,42.58803],[1.43189,42.58856],[1.43241,42.58911],[1.43295,42.58952],[1.43324,42.58968],[1.43416,42.59025],[1.43469,42.59075],[1.43482,42.59095],[1.43497,42.59131],[1.43542,42.59172],[1.43569,42.59179],[1.43581,42.5918],[1.43595,42.59178],[1.43618,42.59175],[1.43639,42.59175],[1.43684,42.59179],[1.43705,42.59182],[1.43735,42.5919],[1.43772,42.59201],[1.43795,42.59211],[1.4381,42.59222],[1.43832,42.59236],[1.43854,42.59256],[1.43862,42.59269],[1.43864,42.59296],[1.43865,42.59316],[1.43871,42.59331],[1.43955,42.59387],[1.43986,42.59417],[1.44006,42.59426],[1.44054,42.5944],[1.44043,42.59477],[1.44043,42.59495],[1.44049,42.59516],[1.44074,42.59549],[1.44086,42.59564],[1.44092,42.59577],[1.44102,42.59637],[1.44121,42.59668],[1.44122,42.59684],[1.44125,42.597],[1.44125,42.59715],[1.44127,42.59735],[1.44138,42.59754],[1.44144,42.59765],[1.44151,42.59776],[1.44157,42.59783],[1.44175,42.59795],[1.44185,42.59807],[1.44196,42.59826],[1.44205,42.59835],[1.4424,42.59848],[1.44264,42.59858],[1.4427,42.59864],[1.44278,42.59875],[1.44283,42.59893],[1.44283,42.59904],[1.44276,42.59924],[1.44269,42.59951],[1.4427,42.59977],[1.44271,42.59988],[1.44266,42.60009],[1.44266,42.60025],[1.44267,42.60043],[1.44284,42.60102],[1.44286,42.60139],[1.44292,42.60182],[1.44303,42.60219],[1.44306,42.6024],[1.44307,42.60258],[1.44302,42.60276],[1.44228,42.60372],[1.44311,42.60348]]]},"properties":{"geometry_id":"geom-territoire-ad-andorre-1945-01-01","date_validite":"1945-01-01","statut":"provisoire_ohm","sources":[{"source_id":"src-openhistoricalmap","locator":"relation 2739874 — Andorra","usage":"tracé de la frontière"},{"source_id":"src-natural-earth-10m","locator":"ne_10m_land + ne_10m_minor_islands","usage":"trait de côte"}],"method":"extraction_ohm_puis_decoupage_trait_de_cote","operations":["OHM r2739874","∩ terres Natural Earth"],"precision":"frontières terrestres : celles d’OHM ; côtes : Natural Earth 1:10m (~1 km)","zone_incertitude_km":null,"surface_km2":466,"logiciel":"Python — Shapely/GEOS, SciPy","script":"outils/geo/deriver_snapshot0_lot04.py","date_creation":"2026-09-29","auteur":"Claude","licence":"CC0 (OpenHistoricalMap) + segments sous licence d’origine listés dans licences_segments : à créditer","licences_segments":[{"relation":2739874,"licence":"CC-BY-4.0","source":"https://centrodedescargas.cnig.es/CentroDescargas/catalogo.do?Serie=LILIM","segments":3}],"points_a_verifier":[]}}