{"type":"Feature","geometry":{"type":"MultiPolygon","coordinates":[[[[14.31387,44.89593],[14.31389,44.89767],[14.31415,44.8994],[14.31464,44.90111],[14.31536,44.90278],[14.3163,44.90439],[14.31746,44.90592],[14.31882,44.90737],[14.32037,44.90871],[14.32209,44.90995],[14.32398,44.91105],[14.32601,44.91203],[14.32816,44.91285],[14.33041,44.91353],[14.33274,44.91405],[14.33514,44.9144],[14.33757,44.91459],[14.34002,44.91461],[14.34246,44.91446],[14.34486,44.91414],[14.34722,44.91366],[14.3495,44.91302],[14.35168,44.91222],[14.35215,44.91203],[14.3532,44.91157],[14.35963,44.90864],[14.37713,44.90815],[14.38738,44.909],[14.39324,44.91478],[14.39723,44.9291],[14.39709,44.92931],[14.39692,44.92965],[14.39672,44.93006],[14.39603,44.93175],[14.39558,44.93349],[14.39536,44.93525],[14.39539,44.93702],[14.39566,44.93878],[14.39618,44.9405],[14.39692,44.94219],[14.3979,44.94381],[14.39909,44.94535],[14.4005,44.94681],[14.40209,44.94816],[14.40221,44.94825],[14.40336,44.94907],[14.40404,44.94954],[14.40404,44.94955],[14.40406,44.94953],[14.41139,44.95637],[14.41093,44.95667],[14.40715,44.95914],[14.40642,44.95962],[14.40552,44.96024],[14.40516,44.9605],[14.40349,44.96184],[14.40201,44.96328],[14.40074,44.96482],[14.39969,44.96644],[14.39887,44.96813],[14.39829,44.96987],[14.39795,44.97164],[14.39786,44.97342],[14.39801,44.9752],[14.39842,44.97696],[14.39906,44.97868],[14.39994,44.98035],[14.40105,44.98195],[14.40238,44.98346],[14.40391,44.98487],[14.40563,44.98616],[14.40752,44.98733],[14.40956,44.98836],[14.41174,44.98924],[14.41403,44.98996],[14.41641,44.99051],[14.41885,44.9909],[14.42134,44.99111],[14.42385,44.99115],[14.42635,44.99101],[14.42882,44.99069],[14.42932,44.99061],[14.43054,44.99038],[14.43079,44.99033],[14.43084,44.9903],[14.44921,44.98845],[14.45053,44.98829],[14.45117,44.9882],[14.45376,44.98774],[14.45627,44.98708],[14.45632,44.98707],[14.45861,44.98627],[14.45869,44.98624],[14.46088,44.98527],[14.46293,44.98415],[14.46481,44.98288],[14.46649,44.98149],[14.46797,44.97998],[14.46922,44.97837],[14.4695,44.97798],[14.47003,44.97715],[14.47065,44.97611],[14.47113,44.97527],[14.47135,44.97485],[14.47211,44.97311],[14.47263,44.97133],[14.47289,44.96952],[14.4729,44.9677],[14.47287,44.96725],[14.47277,44.96635],[14.47139,44.95645],[14.47121,44.95545],[14.4711,44.95495],[14.47051,44.95297],[14.47032,44.95249],[14.4699,44.95152],[14.4635,44.93794],[14.4631,44.93716],[14.4629,44.93678],[14.46196,44.93527],[14.46171,44.93491],[14.46117,44.93418],[14.45268,44.92329],[14.45221,44.92269],[14.45221,44.92268],[14.45191,44.92231],[14.45203,44.9222],[14.45223,44.92194],[14.45227,44.92189],[14.45331,44.92053],[14.45332,44.92052],[14.45429,44.91893],[14.45504,44.91727],[14.45556,44.91557],[14.45585,44.91385],[14.45591,44.91211],[14.45573,44.91038],[14.45532,44.90866],[14.45468,44.90699],[14.45449,44.90658],[14.45409,44.90576],[14.45048,44.89899],[14.45018,44.89842],[14.44996,44.89802],[14.44992,44.89758],[14.44856,44.8844],[14.4485,44.88373],[14.45191,44.8509],[14.46376,44.82392],[14.46416,44.82292],[14.46433,44.82243],[14.46488,44.82038],[14.46497,44.81987],[14.46512,44.81884],[14.46536,44.81653],[14.46542,44.81561],[14.46544,44.81517],[14.46536,44.81334],[14.46503,44.81153],[14.46444,44.80975],[14.46361,44.80802],[14.46253,44.80636],[14.46122,44.80479],[14.4597,44.80332],[14.45797,44.80198],[14.45607,44.80076],[14.45399,44.79969],[14.45347,44.79945],[14.45251,44.79903],[14.45245,44.79899],[14.45191,44.79877],[14.45704,44.78775],[14.46749,44.77521],[14.46816,44.77435],[14.46848,44.77392],[14.46962,44.77214],[14.46986,44.77169],[14.47033,44.77077],[14.47172,44.76776],[14.47204,44.76703],[14.47219,44.76666],[14.47269,44.76517],[14.47301,44.76365],[14.47307,44.76328],[14.47307,44.76327],[14.47316,44.76252],[14.4735,44.75876],[14.47355,44.75783],[14.47356,44.75738],[14.47346,44.75552],[14.4731,44.75369],[14.47248,44.75189],[14.47229,44.75145],[14.47188,44.75057],[14.46808,44.74303],[14.4678,44.7425],[14.4678,44.74249],[14.46762,44.74213],[14.46757,44.74175],[14.46613,44.73023],[14.46608,44.7298],[14.47218,44.70795],[14.48561,44.69208],[14.49968,44.67962],[14.50031,44.67903],[14.50062,44.67873],[14.50179,44.6775],[14.50206,44.67718],[14.5026,44.67654],[14.50722,44.67068],[14.50778,44.66992],[14.50804,44.66956],[14.50902,44.66798],[14.50978,44.66635],[14.51033,44.66467],[14.51065,44.66296],[14.51073,44.66124],[14.51059,44.65952],[14.51022,44.65782],[14.50963,44.65615],[14.50881,44.65453],[14.50859,44.65414],[14.50835,44.65374],[14.50833,44.6537],[14.50807,44.65331],[14.50856,44.64533],[14.5086,44.64531],[14.50861,44.64529],[14.5088,44.64488],[14.50887,44.64475],[14.50965,44.64305],[14.51019,44.6413],[14.51049,44.63953],[14.51054,44.63774],[14.51035,44.63595],[14.5099,44.63419],[14.50922,44.63247],[14.5083,44.63081],[14.50716,44.62922],[14.5058,44.62773],[14.50424,44.62633],[14.50249,44.62505],[14.50058,44.62391],[14.49851,44.62291],[14.49632,44.62205],[14.49402,44.62136],[14.49164,44.62084],[14.48919,44.62049],[14.4867,44.62031],[14.48615,44.62029],[14.48491,44.62027],[14.48372,44.62029],[14.48314,44.62031],[14.48079,44.62047],[14.47847,44.62078],[14.4762,44.62125],[14.47399,44.62187],[14.47188,44.62264],[14.46988,44.62355],[14.46801,44.62458],[14.46628,44.62574],[14.46587,44.62603],[14.46506,44.62665],[14.43077,44.65426],[14.42998,44.65493],[14.4296,44.65527],[14.42816,44.65668],[14.42691,44.65818],[14.42663,44.65857],[14.42609,44.65935],[14.39743,44.70318],[14.39694,44.70397],[14.39671,44.70437],[14.3959,44.70601],[14.39531,44.70769],[14.39495,44.70941],[14.39482,44.71115],[14.39481,44.71157],[14.39484,44.71244],[14.39723,44.75161],[14.39698,44.75166],[14.39637,44.75182],[14.39577,44.75199],[14.39339,44.75276],[14.39114,44.75369],[14.38903,44.75479],[14.38853,44.75508],[14.38765,44.75562],[14.38738,44.75581],[14.38699,44.756],[14.38405,44.7575],[14.38404,44.75751],[14.38356,44.75776],[14.38352,44.75774],[14.38323,44.75781],[14.38221,44.75804],[14.38169,44.75817],[14.37937,44.75883],[14.37716,44.75965],[14.37507,44.76062],[14.37313,44.76173],[14.37135,44.76298],[14.36974,44.76434],[14.36833,44.76581],[14.36714,44.76737],[14.36616,44.76901],[14.36541,44.77071],[14.36526,44.77113],[14.36497,44.77199],[14.36485,44.77242],[14.36464,44.77321],[14.36455,44.77361],[14.36429,44.77521],[14.36425,44.77562],[14.36419,44.77642],[14.36313,44.80442],[14.36306,44.80617],[14.36305,44.80654],[14.36299,44.80692],[14.36165,44.81557],[14.36158,44.81598],[14.36119,44.81629],[14.35707,44.81943],[14.35662,44.81977],[14.35597,44.81981],[14.35536,44.81988],[14.35532,44.81988],[14.35533,44.81989],[14.3548,44.81994],[14.35463,44.81996],[14.35232,44.82031],[14.35005,44.8208],[14.34786,44.82145],[14.34577,44.82224],[14.34379,44.82316],[14.34193,44.82421],[14.34023,44.82539],[14.33982,44.82569],[14.33901,44.82633],[14.33473,44.82988],[14.33389,44.83062],[14.33349,44.83099],[14.33197,44.83255],[14.33069,44.83422],[14.32966,44.83597],[14.3289,44.83779],[14.32875,44.83825],[14.32847,44.83918],[14.31436,44.89294],[14.31416,44.8938],[14.31409,44.89419],[14.31387,44.89593]]],[[[12.3555,46.30726],[12.35625,46.30916],[12.35729,46.31099],[12.3605,46.31583],[12.3616,46.3173],[12.36289,46.3187],[12.36437,46.32001],[12.36601,46.32122],[12.36779,46.32231],[12.37619,46.32699],[12.37834,46.32806],[12.38065,46.32899],[12.38308,46.32974],[12.38562,46.33031],[12.38823,46.33071],[12.39086,46.33091],[12.4118,46.33176],[12.41754,46.34205],[12.41857,46.34366],[12.41984,46.34521],[12.42132,46.34666],[12.423,46.348],[12.42486,46.34922],[12.42685,46.35029],[12.45815,46.36541],[12.4602,46.38094],[12.46054,46.38265],[12.46113,46.38433],[12.46194,46.38597],[12.46297,46.38754],[12.46422,46.38904],[12.46566,46.39043],[12.47978,46.40283],[12.48783,46.41455],[12.4881,46.41493],[12.48813,46.41498],[12.50334,46.43711],[12.5045,46.43861],[12.50587,46.44004],[12.50744,46.44137],[12.50918,46.44259],[12.51107,46.44369],[12.52476,46.45087],[12.52476,46.4509],[12.52491,46.45099],[12.52686,46.45201],[12.52894,46.45291],[12.53114,46.45366],[12.53342,46.45427],[12.53578,46.45473],[12.53819,46.45503],[12.53918,46.45508],[12.53984,46.45515],[12.53986,46.45513],[12.55172,46.46515],[12.55335,46.4664],[12.55519,46.46757],[12.55718,46.4686],[12.5593,46.4695],[12.56154,46.47026],[12.56388,46.47086],[12.56628,46.4713],[12.56874,46.47159],[12.57123,46.4717],[12.57372,46.47166],[12.57619,46.47145],[12.57863,46.47107],[12.581,46.47054],[12.58323,46.46987],[12.60218,46.4634],[12.61309,46.46784],[12.61535,46.46866],[12.61773,46.46932],[12.62019,46.46982],[12.62399,46.47045],[12.62663,46.47079],[12.62932,46.47093],[12.63202,46.47089],[12.63469,46.47064],[12.63732,46.47021],[12.63987,46.4696],[12.6423,46.46881],[12.64921,46.46624],[12.66123,46.46849],[12.66105,46.46892],[12.65538,46.48275],[12.65522,46.48315],[12.65478,46.48343],[12.64526,46.48953],[12.6435,46.49077],[12.64192,46.49212],[12.64053,46.49357],[12.63936,46.49511],[12.6384,46.49672],[12.63767,46.49839],[12.63718,46.50009],[12.63693,46.50182],[12.63692,46.50356],[12.63715,46.50529],[12.63763,46.507],[12.63833,46.50867],[12.63927,46.51028],[12.64043,46.51182],[12.6418,46.51328],[12.64336,46.51464],[12.64511,46.51589],[12.64703,46.51701],[12.64909,46.518],[12.65128,46.51885],[12.65185,46.51905],[12.65208,46.5191],[12.65914,46.52188],[12.65949,46.52202],[12.66412,46.52378],[12.66664,46.52461],[12.66927,46.52526],[12.672,46.52571],[12.6747,46.52594],[12.67532,46.52595],[12.68231,46.52967],[12.68233,46.52974],[12.68246,46.52992],[12.68315,46.53103],[12.68439,46.53257],[12.68585,46.53403],[12.6875,46.53537],[12.68934,46.5366],[12.69134,46.5377],[12.69349,46.53866],[12.69576,46.53946],[12.69814,46.54011],[12.69936,46.5404],[12.6994,46.54037],[12.69958,46.54045],[12.69999,46.54059],[12.70238,46.54125],[12.70484,46.54175],[12.70737,46.54208],[12.70993,46.54224],[12.7125,46.54222],[12.71505,46.54203],[12.71757,46.54166],[12.72002,46.54112],[12.72238,46.54042],[12.72464,46.53956],[12.72508,46.53935],[12.72592,46.53899],[12.72594,46.53895],[12.7297,46.54026],[12.73218,46.54102],[12.73477,46.54159],[12.73743,46.54197],[12.74013,46.54216],[12.74284,46.54216],[12.74436,46.54204],[12.74491,46.54202],[12.74499,46.542],[12.74862,46.54328],[12.74913,46.54365],[12.74917,46.54369],[12.74961,46.544],[12.74912,46.54428],[12.74897,46.54437],[12.74704,46.54557],[12.74531,46.5469],[12.74502,46.54714],[12.74493,46.54723],[12.74491,46.54723],[12.74486,46.54727],[12.74302,46.54903],[12.7415,46.55094],[12.74107,46.55156],[12.74104,46.55165],[12.74096,46.55168],[12.74074,46.55188],[12.73937,46.55327],[12.73819,46.55473],[12.73721,46.55626],[12.73644,46.55785],[12.73588,46.55949],[12.73555,46.56115],[12.73545,46.56282],[12.73557,46.56449],[12.73591,46.56615],[12.73594,46.56626],[12.73598,46.5663],[12.73597,46.56638],[12.73609,46.5668],[12.73623,46.56748],[12.73681,46.56913],[12.73761,46.57075],[12.73863,46.5723],[12.73985,46.57378],[12.74074,46.57464],[12.74093,46.57484],[12.741,46.57488],[12.74195,46.57639],[12.74188,46.57684],[12.74141,46.58009],[12.74134,46.58053],[12.74109,46.58095],[12.74087,46.58137],[12.74089,46.58137],[12.74043,46.58225],[12.7398,46.58393],[12.73941,46.58566],[12.73926,46.5874],[12.73935,46.58914],[12.73969,46.59087],[12.74027,46.59257],[12.74109,46.59422],[12.74207,46.59594],[12.74199,46.59597],[12.74187,46.59606],[12.74029,46.59732],[12.73888,46.59868],[12.73766,46.60012],[12.73665,46.60163],[12.73583,46.60321],[12.73546,46.60421],[12.73539,46.60437],[12.73536,46.60451],[12.73529,46.60454],[12.73426,46.60572],[12.73333,46.60698],[12.73328,46.60712],[12.73324,46.60712],[12.73291,46.60751],[12.73173,46.60909],[12.73079,46.61075],[12.73008,46.61246],[12.72963,46.61422],[12.72942,46.61599],[12.72947,46.61777],[12.72978,46.61954],[12.73033,46.62127],[12.73114,46.62296],[12.73212,46.62451],[12.73238,46.62482],[12.73235,46.62484],[12.73254,46.62562],[12.73312,46.62739],[12.73395,46.62911],[12.73503,46.63077],[12.73634,46.63234],[12.73788,46.63381],[12.73962,46.63516],[12.74156,46.63639],[12.74366,46.63748],[12.74533,46.63817],[12.74545,46.63823],[12.74564,46.63829],[12.74565,46.63834],[12.74615,46.63884],[12.74667,46.63935],[12.74689,46.63955],[12.7485,46.64092],[12.75031,46.64217],[12.75228,46.64329],[12.7544,46.64428],[12.75666,46.64511],[12.75902,46.64579],[12.76146,46.64631],[12.76397,46.64666],[12.76652,46.64684],[12.76908,46.64684],[12.77163,46.64667],[12.77223,46.64661],[12.77349,46.64646],[12.77948,46.64565],[12.78082,46.64544],[12.78146,46.64533],[12.78408,46.64478],[12.7866,46.64403],[12.78899,46.64311],[12.79123,46.64203],[12.79329,46.64078],[12.79515,46.6394],[12.79558,46.63904],[12.79583,46.63882],[12.79598,46.63871],[12.79598,46.63868],[12.80405,46.63317],[12.80488,46.63306],[12.80542,46.63298],[12.80658,46.6328],[12.80714,46.63271],[12.80942,46.63224],[12.81162,46.63164],[12.81374,46.6309],[12.81575,46.63002],[12.81764,46.62903],[12.81804,46.6288],[12.81899,46.62822],[12.819,46.62821],[12.81904,46.62817],[12.81907,46.62818],[12.81912,46.62816],[12.81919,46.62813],[12.81928,46.62809],[12.82005,46.62781],[12.82026,46.62773],[12.82251,46.62677],[12.82461,46.62565],[12.82654,46.62439],[12.82827,46.62301],[12.82979,46.62151],[12.83108,46.61991],[12.83213,46.61823],[12.83292,46.61648],[12.83346,46.61469],[12.83373,46.61287],[12.83373,46.61104],[12.8337,46.61063],[12.83367,46.61037],[12.83364,46.61022],[12.84774,46.60542],[12.86086,46.60644],[12.86091,46.60648],[12.86096,46.60649],[12.86103,46.6065],[12.86152,46.6066],[12.86188,46.60668],[12.86469,46.60722],[12.86757,46.60753],[12.87048,46.60762],[12.87112,46.60762],[12.87249,46.60758],[12.87281,46.60757],[12.87283,46.60757],[12.87293,46.60756],[12.87302,46.60753],[12.87308,46.60756],[12.87365,46.60757],[12.87368,46.60758],[12.87436,46.6076],[12.87436,46.60759],[12.87599,46.60764],[12.87844,46.60756],[12.88088,46.60731],[12.88148,46.60723],[12.88189,46.60717],[12.88203,46.60716],[12.88209,46.60713],[12.88854,46.60669],[12.88871,46.60675],[12.88912,46.60685],[12.88914,46.60685],[12.89117,46.60734],[12.89119,46.60735],[12.89356,46.60776],[12.89598,46.60801],[12.89842,46.60811],[12.90086,46.60805],[12.90329,46.60784],[12.90385,46.60777],[12.90494,46.60761],[12.90504,46.60758],[12.9052,46.60765],[12.90623,46.60792],[12.90624,46.60792],[12.90674,46.60806],[12.90714,46.60816],[12.9095,46.60868],[12.91192,46.60904],[12.91439,46.60924],[12.91686,46.60928],[12.91743,46.60927],[12.91864,46.60922],[12.92424,46.60894],[12.9243,46.60895],[12.92467,46.60894],[12.92515,46.60894],[12.92753,46.60885],[12.92755,46.60885],[12.9302,46.60857],[12.9328,46.60811],[12.93531,46.60746],[12.93772,46.60664],[12.93829,46.60642],[12.93944,46.60595],[12.94489,46.60358],[12.94884,46.60226],[12.94895,46.60231],[12.9494,46.60245],[12.94944,46.60247],[12.95005,46.60266],[12.95006,46.60265],[12.95159,46.60313],[12.95395,46.60369],[12.95639,46.60409],[12.95887,46.60433],[12.96137,46.6044],[12.96387,46.6043],[12.96634,46.60404],[12.96877,46.60362],[12.97113,46.60304],[12.9734,46.6023],[12.97393,46.60211],[12.97502,46.60169],[12.97751,46.60067],[12.97762,46.60072],[12.97766,46.60073],[12.97811,46.60082],[12.97822,46.60085],[12.98049,46.60134],[12.98281,46.60169],[12.98517,46.60189],[12.98755,46.60194],[12.98808,46.60193],[12.98923,46.6019],[12.99024,46.60186],[12.9915,46.60179],[12.99211,46.60174],[12.99459,46.60148],[12.9952,46.60139],[12.99642,46.60119],[13.00739,46.59925],[13.00761,46.59929],[13.00818,46.59938],[13.0082,46.59939],[13.0088,46.59947],[13.01131,46.59974],[13.01385,46.59983],[13.0164,46.59976],[13.01892,46.59951],[13.02139,46.5991],[13.0238,46.59852],[13.02611,46.59778],[13.02666,46.59758],[13.02755,46.59724],[13.0276,46.5972],[13.03379,46.59722],[13.03521,46.5972],[13.03591,46.59718],[13.03874,46.59698],[13.04153,46.59656],[13.04423,46.59594],[13.04489,46.59576],[13.04594,46.59545],[13.04642,46.59528],[13.04971,46.59585],[13.04975,46.59588],[13.05008,46.59595],[13.0512,46.59616],[13.05168,46.59625],[13.05421,46.5966],[13.05677,46.59678],[13.05688,46.59678],[13.05852,46.5968],[13.05868,46.5968],[13.05904,46.59679],[13.05967,46.59679],[13.0598,46.59677],[13.06043,46.59693],[13.0606,46.59698],[13.06071,46.59701],[13.0613,46.59716],[13.0613,46.59718],[13.06209,46.59741],[13.06293,46.59762],[13.06555,46.5982],[13.06825,46.59858],[13.07099,46.59877],[13.07131,46.59878],[13.0718,46.59878],[13.07245,46.5988],[13.07249,46.59878],[13.07254,46.59881],[13.07367,46.59893],[13.07368,46.59892],[13.07403,46.59897],[13.07418,46.59898],[13.07693,46.59914],[13.07758,46.59915],[13.07882,46.59915],[13.07887,46.59916],[13.07893,46.59914],[13.079,46.59917],[13.0795,46.59922],[13.08044,46.59932],[13.08092,46.59936],[13.08334,46.59949],[13.08577,46.59946],[13.08819,46.59928],[13.09057,46.59894],[13.09289,46.59845],[13.09515,46.59782],[13.09569,46.59764],[13.0966,46.59733],[13.09665,46.59729],[13.10266,46.59536],[13.10272,46.59536],[13.10314,46.59524],[13.1034,46.59517],[13.10437,46.59492],[13.10579,46.59452],[13.10595,46.59447],[13.10613,46.59439],[13.10616,46.59441],[13.10745,46.5944],[13.10899,46.5944],[13.109,46.5944],[13.11143,46.59423],[13.11164,46.59421],[13.11415,46.59387],[13.11443,46.59383],[13.11697,46.5933],[13.11942,46.59259],[13.11974,46.59249],[13.12078,46.59213],[13.12158,46.59183],[13.12167,46.59178],[13.12179,46.59177],[13.12224,46.59167],[13.12392,46.59136],[13.12564,46.591],[13.12575,46.59095],[13.1258,46.59097],[13.12702,46.59094],[13.12836,46.59091],[13.12893,46.59088],[13.1303,46.59078],[13.13034,46.59076],[13.13034,46.59078],[13.13048,46.59077],[13.13097,46.59073],[13.13104,46.59072],[13.13324,46.59053],[13.13332,46.59052],[13.13591,46.59012],[13.13843,46.58954],[13.14086,46.58878],[13.1428,46.588],[13.14281,46.58801],[13.14302,46.58792],[13.1431,46.58789],[13.14316,46.58786],[13.14339,46.58776],[13.14378,46.5876],[13.14381,46.58756],[13.14632,46.58709],[13.14638,46.58712],[13.14699,46.58721],[13.14733,46.58728],[13.14988,46.58766],[13.15248,46.58787],[13.15509,46.58789],[13.1577,46.58773],[13.16027,46.5874],[13.16278,46.58689],[13.1652,46.5862],[13.16751,46.58536],[13.16969,46.58435],[13.17017,46.58411],[13.17029,46.58405],[13.17074,46.58381],[13.17126,46.58352],[13.17135,46.58349],[13.17219,46.58306],[13.17302,46.58261],[13.17321,46.5825],[13.17522,46.58125],[13.17702,46.57986],[13.17714,46.57976],[13.17852,46.57847],[13.17882,46.57815],[13.17907,46.57789],[13.17913,46.57783],[13.17914,46.57779],[13.19467,46.57188],[13.19498,46.57189],[13.19577,46.57189],[13.19644,46.57187],[13.19912,46.57171],[13.20176,46.57136],[13.20433,46.57083],[13.20681,46.57011],[13.20715,46.57],[13.20819,46.56964],[13.20892,46.56936],[13.20909,46.56928],[13.20916,46.56929],[13.21033,46.56918],[13.21094,46.56911],[13.21346,46.56872],[13.21591,46.56817],[13.21828,46.56746],[13.22052,46.56658],[13.22264,46.56556],[13.22459,46.5644],[13.22637,46.56311],[13.22796,46.5617],[13.22934,46.56019],[13.2305,46.5586],[13.23142,46.55694],[13.2321,46.55522],[13.23224,46.5548],[13.23248,46.55392],[13.23253,46.55374],[13.23253,46.55359],[13.23979,46.55171],[13.23981,46.55175],[13.24017,46.55199],[13.24088,46.55245],[13.24124,46.55268],[13.24313,46.55375],[13.24515,46.55469],[13.24729,46.5555],[13.24953,46.55616],[13.25185,46.55668],[13.25423,46.55705],[13.25665,46.55726],[13.25909,46.55731],[13.2595,46.5573],[13.26059,46.55726],[13.26093,46.55726],[13.26098,46.55724],[13.26109,46.55729],[13.26141,46.55738],[13.26222,46.55764],[13.26257,46.55774],[13.26505,46.55836],[13.2676,46.55881],[13.27021,46.55907],[13.27284,46.55915],[13.27547,46.55904],[13.27807,46.55875],[13.28062,46.55829],[13.28122,46.55815],[13.28247,46.55785],[13.2855,46.55706],[13.28553,46.55709],[13.28585,46.55715],[13.28656,46.55732],[13.28687,46.55738],[13.28946,46.55785],[13.29211,46.55812],[13.29479,46.55821],[13.29747,46.5581],[13.30011,46.55781],[13.3027,46.55732],[13.30521,46.55666],[13.3076,46.55583],[13.30812,46.55562],[13.30916,46.55519],[13.31271,46.55362],[13.32059,46.55119],[13.32151,46.55237],[13.32221,46.55321],[13.32257,46.55362],[13.32415,46.55521],[13.32456,46.55558],[13.32637,46.55704],[13.32683,46.55738],[13.32885,46.55869],[13.32938,46.559],[13.33046,46.5596],[13.33627,46.56263],[13.33734,46.56317],[13.33788,46.56342],[13.34013,46.56436],[13.34251,46.56515],[13.34499,46.56576],[13.34755,46.5662],[13.35016,46.56645],[13.35081,46.5665],[13.35212,46.56655],[13.35218,46.56656],[13.35236,46.56656],[13.3524,46.56654],[13.35256,46.5666],[13.35297,46.56669],[13.3532,46.56675],[13.35552,46.56726],[13.35553,46.56726],[13.35817,46.56766],[13.36085,46.56786],[13.36356,46.56786],[13.36625,46.56768],[13.36889,46.5673],[13.36902,46.56728],[13.36935,46.56722],[13.37033,46.56703],[13.37047,46.56698],[13.37054,46.56703],[13.37101,46.56722],[13.37131,46.56734],[13.37359,46.56824],[13.376,46.56897],[13.3785,46.56952],[13.38107,46.5699],[13.38368,46.5701],[13.38631,46.57012],[13.38893,46.56995],[13.39151,46.56961],[13.39403,46.56908],[13.39646,46.56838],[13.39877,46.56752],[13.40095,46.5665],[13.40297,46.56533],[13.40481,46.56403],[13.40644,46.56261],[13.40679,46.56227],[13.40749,46.56156],[13.4075,46.56151],[13.42723,46.55753],[13.42742,46.55757],[13.42807,46.55765],[13.42873,46.55773],[13.43132,46.55792],[13.43392,46.55794],[13.43651,46.55778],[13.43906,46.55745],[13.44156,46.55694],[13.44179,46.55688],[13.4418,46.55688],[13.44209,46.5568],[13.44265,46.55668],[13.44275,46.55663],[13.44591,46.55756],[13.44717,46.55791],[13.44781,46.55807],[13.45041,46.55862],[13.45309,46.55898],[13.4558,46.55915],[13.45648,46.55916],[13.45784,46.55917],[13.45874,46.55916],[13.45969,46.55915],[13.46067,46.55913],[13.46101,46.55912],[13.46115,46.55911],[13.4631,46.55899],[13.46326,46.55897],[13.46358,46.55894],[13.46454,46.55884],[13.47526,46.5576],[13.47529,46.55763],[13.47538,46.55766],[13.47541,46.55767],[13.47581,46.55781],[13.47607,46.5579],[13.47843,46.55869],[13.48089,46.55931],[13.48343,46.55976],[13.48602,46.56003],[13.48864,46.56011],[13.49125,46.56002],[13.49385,46.55974],[13.49638,46.55928],[13.49884,46.55865],[13.5012,46.55786],[13.50343,46.5569],[13.50393,46.55666],[13.50498,46.55613],[13.50516,46.55603],[13.50534,46.55594],[13.50534,46.55591],[13.50541,46.5559],[13.50631,46.5555],[13.5069,46.55523],[13.50707,46.55515],[13.50885,46.55423],[13.5105,46.55322],[13.5109,46.55295],[13.51167,46.55241],[13.51196,46.5522],[13.51197,46.55216],[13.51997,46.5469],[13.53498,46.54967],[13.53502,46.5497],[13.53514,46.54972],[13.53528,46.54976],[13.53562,46.54983],[13.53575,46.54987],[13.53814,46.55041],[13.54059,46.55079],[13.54309,46.551],[13.54561,46.55104],[13.54812,46.55092],[13.5506,46.55063],[13.55303,46.55018],[13.55539,46.54956],[13.55765,46.5488],[13.55979,46.54788],[13.56179,46.54683],[13.56364,46.54565],[13.56532,46.54435],[13.56681,46.54294],[13.56809,46.54144],[13.56813,46.54139],[13.56891,46.54027],[13.56898,46.54015],[13.56911,46.53996],[13.56931,46.53968],[13.56931,46.53963],[13.57628,46.53801],[13.58296,46.53972],[13.58299,46.53976],[13.58393,46.54019],[13.58394,46.54018],[13.58466,46.54051],[13.58486,46.54059],[13.58705,46.54142],[13.58934,46.5421],[13.59172,46.54262],[13.59416,46.54299],[13.59664,46.54319],[13.59913,46.54323],[13.59975,46.54321],[13.60098,46.54317],[13.60099,46.54317],[13.601,46.54317],[13.60103,46.54315],[13.60675,46.54341],[13.60784,46.54345],[13.60838,46.54345],[13.61056,46.54343],[13.61272,46.54328],[13.61325,46.54323],[13.61432,46.5431],[13.62084,46.54226],[13.62211,46.54208],[13.62272,46.54198],[13.62521,46.54148],[13.62761,46.54081],[13.6299,46.53998],[13.63207,46.539],[13.63258,46.53874],[13.6336,46.53819],[13.63804,46.53571],[13.63823,46.53565],[13.63879,46.53536],[13.63941,46.53501],[13.64117,46.53396],[13.64129,46.53388],[13.64237,46.53312],[13.64253,46.533],[13.64278,46.53282],[13.64287,46.53275],[13.643,46.53263],[13.64304,46.53265],[13.6432,46.53264],[13.6443,46.53254],[13.64486,46.53248],[13.6472,46.53216],[13.64949,46.5317],[13.65171,46.53109],[13.65384,46.53034],[13.65586,46.52946],[13.65775,46.52846],[13.6582,46.5282],[13.65899,46.52772],[13.659,46.52769],[13.65927,46.52764],[13.66015,46.52745],[13.66048,46.52738],[13.66147,46.52714],[13.66148,46.52714],[13.66158,46.52712],[13.66215,46.52698],[13.66219,46.52697],[13.66218,46.52697],[13.66228,46.52695],[13.66272,46.52683],[13.66281,46.52682],[13.66283,46.52682],[13.66302,46.52678],[13.66338,46.52669],[13.66351,46.52667],[13.6658,46.52613],[13.66802,46.52544],[13.67013,46.52462],[13.67212,46.52366],[13.67256,46.52343],[13.67296,46.52321],[13.67302,46.52318],[13.67307,46.52313],[13.68038,46.52167],[13.68051,46.52167],[13.68136,46.52157],[13.68135,46.52156],[13.68232,46.52145],[13.68261,46.52141],[13.68504,46.52098],[13.6874,46.52039],[13.68967,46.51965],[13.69183,46.51876],[13.69386,46.51773],[13.69573,46.51657],[13.69743,46.51529],[13.69895,46.51391],[13.70026,46.51243],[13.70137,46.51087],[13.70225,46.50924],[13.7029,46.50756],[13.70331,46.50585],[13.70349,46.50412],[13.70342,46.50238],[13.70312,46.50066],[13.70309,46.50057],[13.70278,46.49951],[13.70277,46.49949],[13.70269,46.49929],[13.70257,46.49889],[13.70249,46.49875],[13.70253,46.49873],[13.70253,46.49871],[13.7026,46.49828],[13.70266,46.49803],[13.7029,46.49667],[13.7029,46.49664],[13.7029,46.49661],[13.70292,46.49637],[13.70297,46.49607],[13.70295,46.49601],[13.70298,46.496],[13.70299,46.49597],[13.70297,46.49594],[13.703,46.49579],[13.70305,46.49575],[13.70313,46.49548],[13.70325,46.49517],[13.7034,46.49473],[13.70339,46.49472],[13.70373,46.49363],[13.70403,46.49193],[13.70409,46.49022],[13.70392,46.48851],[13.70352,46.48682],[13.70351,46.4868],[13.70349,46.48674],[13.70337,46.48634],[13.70337,46.48633],[13.70316,46.48566],[13.70311,46.48552],[13.70308,46.48541],[13.70306,46.48535],[13.70305,46.48531],[13.70306,46.48531],[13.70305,46.48529],[13.70301,46.48528],[13.70303,46.48512],[13.70314,46.48481],[13.70315,46.48475],[13.70324,46.48422],[13.70342,46.48243],[13.70333,46.48063],[13.70299,46.47885],[13.70239,46.4771],[13.70154,46.4754],[13.70152,46.47536],[13.70072,46.47413],[13.70061,46.47398],[13.69942,46.47249],[13.69938,46.47244],[13.69796,46.471],[13.69634,46.46967],[13.69454,46.46845],[13.69399,46.46811],[13.69398,46.4681],[13.69379,46.46799],[13.69375,46.46796],[13.69367,46.46794],[13.69364,46.46789],[13.69367,46.46781],[13.69366,46.46772],[13.69366,46.46771],[13.69366,46.46746],[13.6937,46.46624],[13.69369,46.46538],[13.69367,46.46532],[13.69368,46.46526],[13.6937,46.46524],[13.69373,46.46489],[13.69373,46.4648],[13.69373,46.4647],[13.69381,46.46457],[13.69384,46.46456],[13.69395,46.46435],[13.69422,46.46391],[13.69512,46.46223],[13.69578,46.4605],[13.69618,46.45873],[13.69633,46.45694],[13.69622,46.45515],[13.69585,46.45337],[13.69523,46.45163],[13.69523,46.45161],[13.6952,46.45155],[13.69508,46.45127],[13.69505,46.45121],[13.69502,46.45113],[13.69494,46.45095],[13.6947,46.4504],[13.69451,46.45002],[13.69446,46.44992],[13.69435,46.44968],[13.69431,46.4496],[13.69429,46.44959],[13.69423,46.44951],[13.6942,46.44944],[13.6942,46.44938],[13.69404,46.44903],[13.69396,46.44882],[13.6932,46.44719],[13.69319,46.44718],[13.69214,46.4455],[13.69084,46.4439],[13.68931,46.44241],[13.68758,46.44103],[13.68751,46.44098],[13.68628,46.44015],[13.68617,46.44008],[13.686,46.43998],[13.68533,46.43956],[13.68525,46.43953],[13.68501,46.43933],[13.685,46.43924],[13.68497,46.43917],[13.68458,46.43843],[13.68417,46.43769],[13.68414,46.43766],[13.68405,46.43749],[13.68402,46.43747],[13.68385,46.43717],[13.68386,46.43714],[13.6837,46.4368],[13.68364,46.43667],[13.68289,46.43513],[13.68285,46.43506],[13.68168,46.43328],[13.6813,46.43278],[13.68098,46.43237],[13.68095,46.43237],[13.68083,46.43193],[13.68055,46.43089],[13.68053,46.43083],[13.68043,46.43046],[13.68045,46.43045],[13.68033,46.42989],[13.68018,46.42925],[13.68014,46.42908],[13.67964,46.42757],[13.67896,46.4261],[13.6781,46.42467],[13.67798,46.42449],[13.67794,46.42443],[13.67778,46.42419],[13.67772,46.4241],[13.67744,46.42373],[13.67782,46.42339],[13.6781,46.42311],[13.67855,46.42268],[13.67899,46.42224],[13.68058,46.4204],[13.68069,46.42026],[13.68069,46.42025],[13.68082,46.42007],[13.68103,46.41982],[13.68111,46.41968],[13.68476,46.42057],[13.68489,46.42065],[13.6854,46.42085],[13.68573,46.421],[13.6881,46.42193],[13.6906,46.42269],[13.69085,46.42275],[13.69193,46.42301],[13.69286,46.42323],[13.693,46.42323],[13.69343,46.42342],[13.69413,46.4237],[13.69489,46.42397],[13.69737,46.42476],[13.69994,46.42536],[13.7026,46.42577],[13.70279,46.42579],[13.70432,46.42594],[13.70437,46.42594],[13.70447,46.42595],[13.70538,46.42602],[13.70559,46.42601],[13.70613,46.42624],[13.70615,46.42625],[13.70737,46.42674],[13.70799,46.42697],[13.71056,46.42781],[13.71324,46.42845],[13.71341,46.42848],[13.71516,46.42878],[13.71517,46.42878],[13.71524,46.42879],[13.71523,46.42879],[13.71641,46.42896],[13.71645,46.42895],[13.7172,46.42926],[13.71818,46.42967],[13.71845,46.42978],[13.71959,46.43023],[13.72015,46.43044],[13.72252,46.43121],[13.72498,46.43181],[13.72752,46.43224],[13.73012,46.43249],[13.73273,46.43256],[13.73535,46.43245],[13.73793,46.43215],[13.74046,46.43167],[13.7429,46.43103],[13.74525,46.43021],[13.74746,46.42923],[13.74951,46.42811],[13.74999,46.42782],[13.75031,46.42762],[13.75045,46.42754],[13.75047,46.4275],[13.75913,46.42397],[13.76223,46.42363],[13.76227,46.42365],[13.76234,46.42365],[13.76259,46.42363],[13.76329,46.42362],[13.7639,46.42359],[13.76645,46.42339],[13.76896,46.42302],[13.7714,46.42248],[13.77152,46.42245],[13.77211,46.4223],[13.7721,46.4223],[13.77221,46.42227],[13.77235,46.42223],[13.77237,46.42224],[13.77293,46.42216],[13.77354,46.42209],[13.7764,46.42166],[13.77917,46.42101],[13.78182,46.42015],[13.78218,46.42002],[13.78239,46.41994],[13.78258,46.41987],[13.78258,46.41986],[13.78375,46.41942],[13.78379,46.4194],[13.78495,46.41893],[13.78556,46.41867],[13.78791,46.41753],[13.79007,46.41622],[13.79012,46.41618],[13.79167,46.41503],[13.79177,46.41495],[13.79242,46.41444],[13.79243,46.41444],[13.79242,46.41441],[13.79249,46.41441],[13.79256,46.41438],[13.79365,46.41399],[13.79422,46.41376],[13.79649,46.41278],[13.7986,46.41164],[13.7991,46.41134],[13.8,46.41077],[13.80001,46.41074],[13.80053,46.41053],[13.80064,46.41048],[13.80103,46.4103],[13.80102,46.41029],[13.80136,46.41014],[13.80173,46.40996],[13.80207,46.40979],[13.80206,46.40978],[13.80325,46.40917],[13.80514,46.40801],[13.80686,46.40673],[13.80839,46.40533],[13.80971,46.40384],[13.81083,46.40227],[13.81171,46.40064],[13.81237,46.39895],[13.81247,46.39862],[13.81254,46.39841],[13.81255,46.39835],[13.81258,46.39816],[13.8127,46.39803],[13.81278,46.39787],[13.81295,46.39762],[13.81317,46.39725],[13.81315,46.39724],[13.81367,46.39638],[13.81442,46.39466],[13.81493,46.3929],[13.81518,46.39112],[13.81517,46.38933],[13.81514,46.38894],[13.81507,46.3883],[13.815,46.38796],[13.81532,46.38775],[13.81587,46.38735],[13.81631,46.38701],[13.81789,46.38565],[13.81929,46.3842],[13.82047,46.38266],[13.82143,46.38105],[13.82216,46.37938],[13.82266,46.37767],[13.82292,46.37594],[13.82293,46.3742],[13.8227,46.37246],[13.82223,46.37075],[13.82153,46.36908],[13.82059,46.36747],[13.81944,46.36592],[13.81807,46.36446],[13.81651,46.3631],[13.81476,46.36185],[13.81285,46.36072],[13.81079,46.35973],[13.8086,46.35888],[13.8063,46.35818],[13.80392,46.35763],[13.80147,46.35725],[13.79898,46.35704],[13.79647,46.35699],[13.79591,46.357],[13.79466,46.35704],[13.79446,46.35705],[13.79424,46.35709],[13.79374,46.3568],[13.78859,46.3539],[13.78489,46.35182],[13.78385,46.35127],[13.78333,46.351],[13.78115,46.35001],[13.78059,46.34978],[13.77945,46.34935],[13.77201,46.34666],[13.77101,46.34629],[13.77021,46.346],[13.76947,46.34564],[13.76941,46.34561],[13.76849,46.34518],[13.76794,46.34494],[13.76568,46.34404],[13.7633,46.3433],[13.76083,46.34274],[13.75829,46.34235],[13.75827,46.34234],[13.75632,46.34217],[13.75611,46.34215],[13.75579,46.34214],[13.75547,46.34211],[13.75546,46.34211],[13.7553,46.3421],[13.75509,46.3421],[13.75499,46.342],[13.75491,46.34195],[13.75448,46.34165],[13.75406,46.34137],[13.75222,46.34025],[13.75024,46.33926],[13.74814,46.3384],[13.74592,46.33768],[13.74573,46.33763],[13.74536,46.33754],[13.74475,46.33736],[13.74464,46.33735],[13.74434,46.33696],[13.74128,46.33299],[13.74098,46.3326],[13.7425,46.32162],[13.74253,46.32155],[13.74266,46.3208],[13.74271,46.32038],[13.74282,46.31866],[13.74269,46.31694],[13.74232,46.31524],[13.74172,46.31356],[13.74089,46.31194],[13.73984,46.31038],[13.73858,46.30889],[13.73713,46.3075],[13.73548,46.30621],[13.73523,46.30603],[13.73516,46.30598],[13.7351,46.30594],[13.73507,46.30591],[13.73496,46.30584],[13.73491,46.3058],[13.7348,46.30575],[13.73436,46.30536],[13.72528,46.29715],[13.72527,46.29715],[13.72488,46.2968],[13.72497,46.29674],[13.72561,46.29606],[13.7261,46.29555],[13.72624,46.2954],[13.72739,46.29396],[13.72836,46.29246],[13.72912,46.29089],[13.72967,46.28929],[13.73001,46.28766],[13.73014,46.28602],[13.73014,46.28586],[13.73013,46.28561],[13.73015,46.28533],[13.73012,46.28524],[13.73056,46.28493],[13.7308,46.28473],[13.73121,46.28442],[13.73164,46.28407],[13.73326,46.28262],[13.73466,46.28106],[13.73582,46.27941],[13.73674,46.27769],[13.7369,46.27732],[13.7372,46.27662],[13.7372,46.27661],[13.73731,46.27625],[13.73743,46.27623],[13.73746,46.27622],[13.73785,46.27606],[13.73788,46.27605],[13.73845,46.27583],[13.73844,46.27583],[13.73987,46.27527],[13.74187,46.27432],[13.74372,46.27324],[13.74543,46.27204],[13.74697,46.27074],[13.74832,46.26935],[13.74863,46.269],[13.74924,46.26827],[13.75062,46.26653],[13.75072,46.26648],[13.75074,46.26646],[13.75105,46.26623],[13.75123,46.2661],[13.75288,46.26483],[13.75435,46.26347],[13.75463,46.26318],[13.75526,46.2625],[13.75695,46.26059],[13.75755,46.26041],[13.75775,46.26034],[13.75827,46.26018],[13.75884,46.26012],[13.7591,46.2601],[13.75921,46.26008],[13.75982,46.26002],[13.75998,46.26004],[13.7607,46.26003],[13.76134,46.26003],[13.76147,46.26002],[13.76409,46.25987],[13.76667,46.25954],[13.76918,46.25902],[13.77161,46.25833],[13.77393,46.25748],[13.77612,46.25646],[13.77814,46.2553],[13.77999,46.254],[13.78041,46.25367],[13.78126,46.25297],[13.78258,46.25184],[13.79047,46.24923],[13.79126,46.24895],[13.79205,46.24867],[13.79283,46.24838],[13.79718,46.24667],[13.79862,46.24611],[13.79979,46.24565],[13.80066,46.24531],[13.80162,46.24492],[13.80208,46.24472],[13.80391,46.24385],[13.80562,46.24288],[13.80603,46.24263],[13.80684,46.24211],[13.81252,46.23829],[13.81454,46.23861],[13.81599,46.23881],[13.81671,46.2389],[13.81965,46.23912],[13.82038,46.23915],[13.82185,46.23917],[13.82295,46.23917],[13.82391,46.23917],[13.82512,46.23914],[13.82571,46.23912],[13.82813,46.23896],[13.83051,46.23863],[13.83284,46.23816],[13.8351,46.23753],[13.83726,46.23676],[13.83777,46.23656],[13.83881,46.23612],[13.84591,46.23298],[13.8463,46.23299],[13.84723,46.23295],[13.84795,46.23291],[13.85072,46.23264],[13.85344,46.23217],[13.85606,46.23149],[13.85857,46.23062],[13.85916,46.23039],[13.86035,46.22989],[13.86526,46.2277],[13.87535,46.22591],[13.87548,46.22596],[13.87651,46.22615],[13.8768,46.22621],[13.87915,46.22657],[13.88154,46.22676],[13.88395,46.22681],[13.88635,46.22669],[13.88873,46.22642],[13.89106,46.226],[13.89163,46.22588],[13.89197,46.2258],[13.89209,46.22578],[13.89216,46.22575],[13.89715,46.22639],[13.89723,46.22644],[13.8976,46.22659],[13.89843,46.22689],[13.89885,46.22704],[13.90098,46.22771],[13.90318,46.22824],[13.90545,46.22863],[13.90776,46.22888],[13.9101,46.22898],[13.91067,46.22899],[13.91184,46.22898],[13.91233,46.22897],[13.91241,46.22897],[13.91248,46.22895],[13.91259,46.22899],[13.91369,46.22919],[13.91426,46.22929],[13.91657,46.22959],[13.91891,46.22974],[13.9195,46.22976],[13.92001,46.22977],[13.92009,46.22978],[13.92016,46.22976],[13.92047,46.22981],[13.92102,46.22988],[13.92113,46.2299],[13.92164,46.22995],[13.92412,46.23014],[13.92662,46.23016],[13.92694,46.23016],[13.92742,46.23014],[13.92761,46.23014],[13.92766,46.23014],[13.92775,46.23012],[13.92793,46.23017],[13.9281,46.23019],[13.92841,46.23023],[13.9286,46.23026],[13.9313,46.23058],[13.93197,46.23064],[13.93328,46.23073],[13.93336,46.23073],[13.93401,46.23074],[13.93407,46.23077],[13.93454,46.23082],[13.93465,46.23084],[13.93529,46.23091],[13.93669,46.23108],[13.93901,46.23122],[13.93957,46.23123],[13.94071,46.23125],[13.94156,46.23124],[13.94209,46.23124],[13.94223,46.23127],[13.94315,46.23135],[13.94315,46.23133],[13.94407,46.23141],[13.94454,46.23144],[13.94585,46.23149],[13.94607,46.2315],[13.94613,46.2315],[13.94685,46.23152],[13.94689,46.23152],[13.94698,46.23152],[13.94711,46.2315],[13.94714,46.23154],[13.94797,46.2318],[13.94949,46.2323],[13.94953,46.23232],[13.95181,46.2329],[13.95415,46.23334],[13.95654,46.23362],[13.95896,46.23374],[13.96139,46.23371],[13.9638,46.23351],[13.96439,46.23345],[13.96558,46.23329],[13.96575,46.23327],[13.96584,46.23325],[13.96587,46.23325],[13.96593,46.23322],[13.96612,46.23327],[13.96626,46.23328],[13.96733,46.2334],[13.96785,46.23346],[13.97036,46.23362],[13.97289,46.2336],[13.97539,46.23342],[13.97787,46.23307],[13.98028,46.23256],[13.98261,46.23188],[13.98483,46.23105],[13.98693,46.23007],[13.98888,46.22896],[13.99066,46.22772],[13.99227,46.22636],[13.99368,46.22491],[13.99487,46.22336],[13.99585,46.22174],[13.99659,46.22007],[13.9971,46.21835],[13.99737,46.21661],[13.99739,46.21485],[13.99716,46.21311],[13.99669,46.21138],[13.99599,46.2097],[13.99505,46.20808],[13.99479,46.20768],[13.99459,46.20739],[13.99453,46.20735],[13.99448,46.20724],[13.99431,46.20699],[13.99426,46.20694],[13.99425,46.20691],[13.99392,46.20648],[13.99359,46.20602],[13.9935,46.2059],[13.99286,46.20513],[13.99281,46.20507],[13.99274,46.205],[13.99256,46.20479],[13.99252,46.20473],[13.99246,46.20467],[13.99235,46.20457],[13.99234,46.20452],[13.99213,46.20422],[13.99125,46.20281],[13.99035,46.20151],[13.99008,46.20116],[13.98995,46.20078],[13.98913,46.1983],[13.98894,46.19772],[13.98886,46.19713],[13.98852,46.19473],[13.98841,46.19389],[13.9883,46.19324],[13.98818,46.19259],[13.98804,46.19194],[13.98599,46.18356],[13.98584,46.18293],[13.98583,46.18292],[13.98573,46.1825],[13.98577,46.18248],[13.98593,46.18206],[13.98618,46.18134],[13.9863,46.18098],[13.98676,46.17909],[13.98693,46.17718],[13.98693,46.17656],[13.98694,46.17643],[13.98692,46.17639],[13.98696,46.17639],[13.98751,46.17596],[13.98811,46.17549],[13.98835,46.17528],[13.98985,46.17393],[13.98988,46.17391],[13.99014,46.17364],[13.9902,46.17359],[13.99035,46.17345],[13.99034,46.17343],[13.99825,46.16981],[13.99833,46.16982],[13.99886,46.16972],[13.99914,46.16969],[13.99919,46.16968],[13.9992,46.16968],[13.99932,46.16966],[13.99935,46.16966],[14.00137,46.16932],[14.00252,46.16911],[14.00253,46.16911],[14.00261,46.16907],[14.00265,46.1691],[14.00267,46.1691],[14.00323,46.1692],[14.00373,46.1693],[14.00383,46.16932],[14.00388,46.16933],[14.00402,46.16936],[14.00459,46.16949],[14.00507,46.16959],[14.00509,46.16958],[14.00513,46.1696],[14.00549,46.16968],[14.00616,46.16981],[14.00743,46.17007],[14.00762,46.1701],[14.01008,46.17044],[14.01258,46.17061],[14.01509,46.17062],[14.0176,46.17045],[14.02006,46.17012],[14.02247,46.16962],[14.02306,46.16947],[14.02423,46.16917],[14.02429,46.16912],[14.02752,46.16901],[14.02814,46.16917],[14.02868,46.16929],[14.02878,46.16931],[14.02878,46.1693],[14.0293,46.16942],[14.02956,46.16947],[14.03185,46.16987],[14.03418,46.17012],[14.03654,46.17022],[14.03891,46.17017],[14.04125,46.16997],[14.04356,46.16962],[14.04582,46.16913],[14.04588,46.16911],[14.04607,46.16906],[14.04749,46.16867],[14.0479,46.16854],[14.048,46.16851],[14.05027,46.16773],[14.05242,46.16679],[14.05442,46.16571],[14.05626,46.1645],[14.05793,46.16317],[14.0594,46.16174],[14.06067,46.16021],[14.06171,46.1586],[14.06252,46.15693],[14.0631,46.15522],[14.06343,46.15347],[14.06351,46.15171],[14.06335,46.14995],[14.06294,46.14821],[14.06229,46.14651],[14.0614,46.14486],[14.06029,46.14328],[14.05896,46.14179],[14.05743,46.14039],[14.05739,46.14036],[14.05711,46.14012],[14.0571,46.14012],[14.0566,46.1397],[14.05634,46.13919],[14.05635,46.13905],[14.05625,46.13843],[14.05612,46.13746],[14.0561,46.13738],[14.05575,46.13596],[14.05568,46.13573],[14.05509,46.13419],[14.05432,46.13268],[14.05335,46.13124],[14.05311,46.13091],[14.05267,46.13035],[14.05263,46.13034],[14.05233,46.12994],[14.05201,46.12955],[14.05195,46.12948],[14.05178,46.12927],[14.05167,46.12914],[14.05112,46.12852],[14.05096,46.12835],[14.05053,46.12791],[14.0505,46.12787],[14.0497,46.12704],[14.04965,46.12699],[14.04961,46.12695],[14.04952,46.12685],[14.04926,46.12656],[14.04904,46.12632],[14.04893,46.12623],[14.04892,46.12618],[14.04861,46.12566],[14.04819,46.12501],[14.04799,46.12472],[14.04664,46.12299],[14.04627,46.12258],[14.0455,46.12175],[14.04469,46.12094],[14.04425,46.1205],[14.04386,46.12011],[14.04376,46.11972],[14.04349,46.11902],[14.04331,46.11859],[14.04246,46.11688],[14.04137,46.11524],[14.04005,46.11369],[14.03851,46.11224],[14.03677,46.1109],[14.03484,46.10969],[14.03435,46.10941],[14.03332,46.10885],[14.0313,46.10782],[14.03046,46.10739],[14.03001,46.10716],[14.02941,46.10654],[14.02941,46.10647],[14.02914,46.10584],[14.0288,46.10501],[14.02874,46.10489],[14.02792,46.10336],[14.02689,46.10189],[14.02568,46.10049],[14.0243,46.09918],[14.02394,46.09887],[14.02393,46.09886],[14.02318,46.09824],[14.02186,46.0972],[14.02126,46.09673],[14.02084,46.0964],[14.02086,46.09636],[14.02075,46.0961],[14.02068,46.09588],[14.02054,46.0955],[14.02051,46.0955],[14.02022,46.0947],[14.0194,46.09314],[14.0192,46.0928],[14.0192,46.09279],[14.01876,46.0921],[14.0187,46.09202],[14.01864,46.09192],[14.0186,46.09191],[14.01848,46.09147],[14.01797,46.0896],[14.01796,46.08958],[14.01785,46.08916],[14.0179,46.0891],[14.01817,46.08834],[14.01815,46.08834],[14.01842,46.08759],[14.0185,46.08731],[14.01893,46.08525],[14.019,46.0847],[14.01904,46.08419],[14.01904,46.08404],[14.01911,46.08399],[14.0192,46.08388],[14.01964,46.08341],[14.01988,46.08313],[14.02098,46.08171],[14.0219,46.08024],[14.02263,46.07871],[14.02275,46.07841],[14.02299,46.07778],[14.02316,46.07728],[14.02318,46.07723],[14.02317,46.07718],[14.02325,46.07714],[14.02357,46.07683],[14.0238,46.07664],[14.02532,46.07521],[14.02663,46.07367],[14.02692,46.0733],[14.02709,46.07306],[14.02722,46.07284],[14.02738,46.0728],[14.02837,46.0724],[14.02855,46.07234],[14.02898,46.07216],[14.03063,46.07143],[14.03065,46.07143],[14.03073,46.07139],[14.03169,46.07093],[14.03178,46.07086],[14.03192,46.07082],[14.03238,46.07061],[14.03284,46.07042],[14.03535,46.06924],[14.03764,46.06786],[14.03783,46.06773],[14.03868,46.06713],[14.03943,46.06658],[14.03945,46.06653],[14.04172,46.06552],[14.04175,46.06553],[14.04183,46.06552],[14.0422,46.06541],[14.04283,46.06526],[14.0433,46.06513],[14.04569,46.06439],[14.04584,46.06433],[14.04588,46.06432],[14.04631,46.06416],[14.04659,46.06408],[14.04658,46.06406],[14.0467,46.06404],[14.04708,46.06392],[14.04796,46.06362],[14.04841,46.06346],[14.05055,46.06262],[14.05255,46.06163],[14.05442,46.06052],[14.05486,46.06023],[14.05515,46.06004],[14.05527,46.05996],[14.05528,46.05993],[14.05773,46.0586],[14.05777,46.05861],[14.05806,46.05847],[14.0588,46.05814],[14.05912,46.05799],[14.06093,46.05706],[14.06262,46.05602],[14.06417,46.05488],[14.06424,46.05483],[14.06508,46.05412],[14.0653,46.05393],[14.06556,46.05367],[14.06586,46.05341],[14.06597,46.05327],[14.07153,46.05151],[14.07171,46.05149],[14.07209,46.05141],[14.07221,46.05139],[14.07457,46.0509],[14.07688,46.05023],[14.0791,46.04941],[14.08119,46.04845],[14.08313,46.04735],[14.08492,46.04613],[14.08652,46.04479],[14.08794,46.04334],[14.08915,46.04181],[14.09014,46.04021],[14.09035,46.03981],[14.09076,46.03898],[14.09092,46.03864],[14.09089,46.03862],[14.09137,46.03833],[14.09151,46.03824],[14.09177,46.03806],[14.09183,46.03802],[14.09266,46.03746],[14.0927,46.03743],[14.0935,46.03687],[14.09372,46.0367],[14.09453,46.03607],[14.09493,46.03574],[14.09643,46.0344],[14.09774,46.03296],[14.09782,46.03286],[14.09851,46.03196],[14.09854,46.03191],[14.09865,46.03174],[14.09902,46.03125],[14.099,46.03122],[14.09905,46.0312],[14.09931,46.03085],[14.09932,46.03084],[14.0996,46.03045],[14.10033,46.02947],[14.10121,46.02797],[14.10189,46.02643],[14.10237,46.02485],[14.10265,46.02324],[14.10269,46.02284],[14.10275,46.02204],[14.10276,46.02189],[14.10278,46.02149],[14.10282,46.02146],[14.10318,46.02074],[14.1035,46.02013],[14.1036,46.01991],[14.10423,46.01832],[14.10465,46.01669],[14.10485,46.01504],[14.10484,46.01339],[14.10483,46.01328],[14.1048,46.013],[14.1048,46.01273],[14.10477,46.01267],[14.10576,46.0117],[14.10582,46.0117],[14.1059,46.01167],[14.10686,46.01133],[14.10701,46.01128],[14.10706,46.01126],[14.10904,46.01048],[14.11091,46.00957],[14.11267,46.00855],[14.11428,46.00743],[14.11439,46.00735],[14.1147,46.00712],[14.11476,46.00707],[14.11477,46.00706],[14.1149,46.00697],[14.11496,46.00693],[14.11498,46.00688],[14.11501,46.0069],[14.11556,46.0067],[14.11587,46.0066],[14.11812,46.00577],[14.12024,46.0048],[14.12063,46.0046],[14.12161,46.00408],[14.12165,46.00402],[14.12167,46.00404],[14.12245,46.00394],[14.12338,46.0038],[14.12381,46.00373],[14.12632,46.00324],[14.12874,46.00257],[14.13106,46.00173],[14.13324,46.00073],[14.13526,45.99959],[14.13712,45.9983],[14.13877,45.9969],[14.13902,45.99667],[14.13934,45.99634],[14.13964,45.99608],[14.13962,45.99606],[14.13971,45.99601],[14.14042,45.99537],[14.14091,45.99495],[14.14111,45.99477],[14.14249,45.99334],[14.14368,45.99183],[14.14465,45.99024],[14.14541,45.9886],[14.14593,45.98691],[14.14622,45.9852],[14.14628,45.98348],[14.1461,45.98176],[14.14569,45.98006],[14.14504,45.9784],[14.14417,45.97679],[14.14309,45.97524],[14.14281,45.97489],[14.14235,45.97434],[14.14233,45.97432],[14.14228,45.97429],[14.14231,45.97425],[14.14232,45.97386],[14.14232,45.97383],[14.14236,45.97214],[14.14217,45.97044],[14.14176,45.96877],[14.14112,45.96714],[14.14027,45.96555],[14.1392,45.96403],[14.13793,45.96258],[14.13648,45.96122],[14.13485,45.95997],[14.13305,45.95883],[14.13259,45.95856],[14.13163,45.95804],[14.12919,45.95676],[14.12831,45.95629],[14.1278,45.95602],[14.13242,45.95094],[14.13306,45.9502],[14.13335,45.94985],[14.13447,45.94831],[14.13537,45.94671],[14.13605,45.94505],[14.1365,45.94336],[14.13672,45.94165],[14.13671,45.93992],[14.13645,45.93821],[14.13597,45.93652],[14.13526,45.93488],[14.13432,45.93329],[14.13318,45.93177],[14.13299,45.93154],[14.13294,45.93148],[14.13278,45.93129],[14.13266,45.93114],[14.13233,45.93079],[14.13235,45.93077],[14.13204,45.93014],[14.132,45.93008],[14.13165,45.92937],[14.13148,45.92907],[14.13137,45.92891],[14.13264,45.92256],[14.13627,45.92055],[14.13715,45.92004],[14.13758,45.91979],[14.13924,45.91869],[14.14075,45.9175],[14.14211,45.91622],[14.14242,45.91589],[14.14304,45.91522],[14.14612,45.9117],[14.15873,45.9069],[14.15972,45.9065],[14.16021,45.9063],[14.16212,45.90541],[14.16258,45.90518],[14.16348,45.90469],[14.16713,45.90265],[14.17054,45.90164],[14.17179,45.90125],[14.17239,45.90104],[14.17479,45.90011],[14.17704,45.89901],[14.1791,45.89774],[14.18096,45.89634],[14.1814,45.89597],[14.18214,45.89532],[14.18216,45.8953],[14.1822,45.89526],[14.1822,45.89522],[14.18226,45.89521],[14.18232,45.89516],[14.18236,45.89514],[14.18267,45.8949],[14.18286,45.89477],[14.18468,45.8934],[14.18628,45.8919],[14.18766,45.8903],[14.18879,45.88861],[14.18966,45.88684],[14.19027,45.88502],[14.19061,45.88317],[14.19065,45.88274],[14.19072,45.88182],[14.19081,45.87911],[14.19254,45.87549],[14.20273,45.87099],[14.20321,45.87077],[14.20369,45.87055],[14.20416,45.87033],[14.20913,45.86791],[14.20917,45.86792],[14.20926,45.86789],[14.20981,45.86766],[14.21016,45.86752],[14.21248,45.86655],[14.21464,45.86541],[14.21661,45.86412],[14.21838,45.86269],[14.21993,45.86114],[14.22025,45.86079],[14.22056,45.86041],[14.22055,45.86041],[14.22243,45.85829],[14.22249,45.85831],[14.22277,45.85825],[14.22357,45.85815],[14.224,45.85808],[14.22629,45.85764],[14.22851,45.85705],[14.23064,45.85632],[14.23267,45.85546],[14.23458,45.85447],[14.23635,45.85336],[14.23796,45.85215],[14.23832,45.85185],[14.23906,45.85121],[14.23916,45.85112],[14.23989,45.85043],[14.24021,45.8501],[14.24153,45.84863],[14.24264,45.84708],[14.24354,45.84546],[14.2442,45.84379],[14.24464,45.84209],[14.24484,45.84036],[14.2448,45.83862],[14.24452,45.8369],[14.24401,45.83521],[14.24327,45.83355],[14.2423,45.83196],[14.24112,45.83044],[14.24081,45.83008],[14.24014,45.82935],[14.24002,45.82923],[14.23995,45.82919],[14.24361,45.82487],[14.24363,45.82489],[14.24419,45.82484],[14.24512,45.82474],[14.2456,45.82468],[14.24796,45.82431],[14.25027,45.82379],[14.25249,45.82312],[14.25462,45.8223],[14.25492,45.82217],[14.25511,45.82209],[14.25535,45.82199],[14.25545,45.82195],[14.25549,45.82191],[14.25552,45.82193],[14.25645,45.8219],[14.25811,45.82185],[14.2583,45.82184],[14.26088,45.82161],[14.26343,45.82119],[14.26589,45.82059],[14.26826,45.81982],[14.27051,45.81888],[14.27226,45.81797],[14.27226,45.81798],[14.27257,45.81781],[14.27336,45.81736],[14.27346,45.81731],[14.27347,45.81727],[14.2873,45.81078],[14.28796,45.8106],[14.28809,45.81056],[14.28859,45.81039],[14.28859,45.81038],[14.28916,45.8102],[14.28973,45.80999],[14.28971,45.80997],[14.29097,45.80952],[14.29319,45.8085],[14.29526,45.80732],[14.29714,45.806],[14.29867,45.80468],[14.29868,45.80469],[14.29881,45.80456],[14.29882,45.80455],[14.29884,45.80454],[14.299,45.80439],[14.29916,45.80424],[14.29923,45.80418],[14.29933,45.80406],[14.30199,45.8026],[14.30235,45.8024],[14.30254,45.80229],[14.30283,45.80213],[14.30311,45.80197],[14.30501,45.80079],[14.30673,45.79949],[14.30826,45.79807],[14.30959,45.79656],[14.3107,45.79496],[14.31157,45.7933],[14.31221,45.79158],[14.31261,45.78983],[14.31276,45.78806],[14.31266,45.78628],[14.31231,45.78453],[14.31227,45.78436],[14.3122,45.78414],[14.31214,45.78386],[14.31207,45.78372],[14.32503,45.76016],[14.32508,45.76017],[14.32547,45.76007],[14.32645,45.7598],[14.32696,45.75965],[14.32927,45.75888],[14.33146,45.75795],[14.33351,45.75687],[14.3354,45.75565],[14.3371,45.75431],[14.33736,45.75408],[14.33749,45.75397],[14.33762,45.75386],[14.33762,45.75384],[14.39004,45.70827],[14.39449,45.70604],[14.39547,45.70553],[14.39594,45.70527],[14.39778,45.70414],[14.39947,45.7029],[14.40098,45.70155],[14.4023,45.7001],[14.40342,45.69858],[14.40365,45.69822],[14.40413,45.69744],[14.43043,45.6512],[14.44918,45.64684],[14.45039,45.64654],[14.45096,45.64638],[14.45333,45.64564],[14.45558,45.64473],[14.45769,45.64366],[14.45963,45.64245],[14.46139,45.64111],[14.46295,45.63966],[14.4643,45.63809],[14.46541,45.63645],[14.46628,45.63473],[14.4669,45.63296],[14.46726,45.63115],[14.46736,45.62933],[14.4672,45.62751],[14.46678,45.62571],[14.46664,45.62529],[14.46651,45.62491],[14.46643,45.62473],[14.46675,45.62351],[14.4702,45.62195],[14.48108,45.61994],[14.48219,45.61972],[14.48273,45.6196],[14.48466,45.61912],[14.48652,45.61853],[14.48675,45.61845],[14.48707,45.61834],[14.48713,45.61832],[14.4875,45.61818],[14.4875,45.61817],[14.48751,45.61817],[14.4876,45.61814],[14.48839,45.61786],[14.49046,45.61703],[14.49241,45.61607],[14.49422,45.61498],[14.49589,45.61378],[14.49739,45.61248],[14.49872,45.61109],[14.49985,45.60962],[14.50079,45.60808],[14.50151,45.60648],[14.50166,45.60609],[14.5019,45.60541],[14.50197,45.60513],[14.50216,45.60476],[14.50217,45.60474],[14.50227,45.60455],[14.50241,45.60429],[14.5024,45.60429],[14.50273,45.60366],[14.50311,45.60286],[14.50346,45.602],[14.50347,45.602],[14.50369,45.60148],[14.50383,45.60107],[14.50405,45.60064],[14.50409,45.60054],[14.50415,45.60041],[14.50416,45.60038],[14.50416,45.60037],[14.50426,45.60015],[14.50452,45.59954],[14.50474,45.59899],[14.50495,45.59842],[14.50508,45.59805],[14.50516,45.59787],[14.5053,45.5975],[14.50538,45.59732],[14.5055,45.5969],[14.50571,45.59649],[14.50605,45.59561],[14.50615,45.59529],[14.5066,45.59353],[14.5068,45.59174],[14.50674,45.58994],[14.50644,45.58816],[14.50588,45.58641],[14.50578,45.58615],[14.50539,45.58531],[14.50537,45.58528],[14.50533,45.58518],[14.50533,45.58515],[14.50521,45.5849],[14.50518,45.58484],[14.50515,45.58477],[14.50462,45.58367],[14.50453,45.5835],[14.50369,45.58209],[14.50268,45.58074],[14.50234,45.58033],[14.50161,45.57951],[14.50126,45.57913],[14.50119,45.57911],[14.50112,45.57902],[14.50108,45.57891],[14.50087,45.57856],[14.50064,45.57818],[14.50061,45.57812],[14.50045,45.57788],[14.50029,45.57763],[14.50016,45.57743],[14.5001,45.57735],[14.50003,45.57728],[14.49998,45.57717],[14.49998,45.57716],[14.49979,45.57688],[14.49947,45.57632],[14.49925,45.57597],[14.49924,45.57596],[14.49907,45.57567],[14.49907,45.57551],[14.49911,45.57536],[14.49913,45.57532],[14.4992,45.57495],[14.49934,45.57395],[14.49936,45.57376],[14.49939,45.57327],[14.49943,45.57266],[14.49943,45.57243],[14.49942,45.57243],[14.49944,45.57209],[14.49944,45.57169],[14.49944,45.57156],[14.49943,45.57154],[14.49943,45.57141],[14.49943,45.57134],[14.49943,45.57104],[14.49943,45.5708],[14.49926,45.56898],[14.49884,45.56717],[14.4982,45.56552],[14.49819,45.56549],[14.49816,45.56541],[14.49813,45.56536],[14.49802,45.56511],[14.49793,45.56487],[14.49791,45.56484],[14.49787,45.56482],[14.4979,45.56477],[14.49786,45.56437],[14.49785,45.56367],[14.49771,45.56208],[14.49771,45.56207],[14.4977,45.56201],[14.49761,45.56133],[14.49756,45.5612],[14.49753,45.56092],[14.49747,45.56058],[14.49746,45.5605],[14.49741,45.56041],[14.4974,45.56037],[14.4974,45.5599],[14.4974,45.55989],[14.49741,45.55945],[14.49745,45.55941],[14.4975,45.55916],[14.4976,45.55886],[14.4977,45.55846],[14.49767,45.55846],[14.49786,45.55777],[14.49808,45.55611],[14.49809,45.556],[14.4981,45.55562],[14.49809,45.55557],[14.4981,45.55556],[14.49811,45.5551],[14.49811,45.55483],[14.49812,45.55454],[14.49811,45.55414],[14.49797,45.55248],[14.49792,45.55211],[14.49786,45.55181],[14.49784,45.55181],[14.49784,45.55176],[14.49785,45.55172],[14.49781,45.55155],[14.49779,45.55133],[14.49749,45.54965],[14.49697,45.548],[14.49623,45.54639],[14.49609,45.54613],[14.49538,45.54494],[14.49526,45.54477],[14.49505,45.54443],[14.495,45.5444],[14.49482,45.54407],[14.49438,45.54339],[14.49397,45.54281],[14.49274,45.54127],[14.49242,45.54091],[14.49238,45.54086],[14.49231,45.54078],[14.49213,45.54056],[14.4921,45.54053],[14.49198,45.54039],[14.49196,45.54038],[14.49189,45.54032],[14.49186,45.54024],[14.49176,45.54012],[14.4912,45.53948],[14.49092,45.53917],[14.48956,45.53782],[14.48927,45.53756],[14.48861,45.53702],[14.4884,45.53682],[14.48835,45.53681],[14.48834,45.53668],[14.48823,45.53637],[14.48815,45.53609],[14.48813,45.536],[14.48811,45.53595],[14.48807,45.5358],[14.48797,45.53531],[14.48795,45.53523],[14.48793,45.53515],[14.48785,45.535],[14.48782,45.53473],[14.48777,45.53453],[14.48776,45.53452],[14.48765,45.53411],[14.48705,45.53243],[14.48622,45.5308],[14.48518,45.52923],[14.48392,45.52774],[14.48247,45.52634],[14.48208,45.52601],[14.48141,45.52544],[14.48135,45.52539],[14.48134,45.52539],[14.48128,45.52534],[14.48014,45.52443],[14.47921,45.52372],[14.47873,45.52338],[14.47671,45.52207],[14.4745,45.52093],[14.47212,45.51996],[14.46961,45.51917],[14.46908,45.51903],[14.46874,45.51893],[14.46867,45.51893],[14.46831,45.51857],[14.46589,45.51618],[14.46553,45.51581],[14.46551,45.51537],[14.4654,45.51175],[14.46537,45.51077],[14.46531,45.5099],[14.46527,45.50946],[14.46497,45.50773],[14.46444,45.50602],[14.46367,45.50435],[14.46268,45.50275],[14.46147,45.50122],[14.46114,45.50085],[14.46046,45.50012],[14.46021,45.49987],[14.46017,45.49987],[14.46013,45.49942],[14.45978,45.4954],[14.45957,45.49293],[14.45944,45.49196],[14.45937,45.49148],[14.4589,45.48955],[14.45813,45.48768],[14.45709,45.48587],[14.45679,45.48543],[14.45617,45.48456],[14.45357,45.48117],[14.4532,45.4807],[14.45292,45.48033],[14.45285,45.47991],[14.45203,45.47522],[14.45163,45.47292],[14.45146,45.47208],[14.45136,45.47167],[14.45084,45.47],[14.4501,45.46838],[14.44915,45.46682],[14.44799,45.46533],[14.44664,45.46392],[14.44511,45.46261],[14.44471,45.4623],[14.44387,45.46168],[14.43909,45.4583],[14.43835,45.45778],[14.43791,45.45747],[14.43751,45.45712],[14.43342,45.4536],[14.43306,45.45329],[14.43292,45.45308],[14.43251,45.45254],[14.43217,45.45211],[14.43077,45.45055],[14.42914,45.4491],[14.42731,45.44777],[14.4253,45.44659],[14.42312,45.44556],[14.42257,45.44532],[14.42143,45.44487],[14.41911,45.444],[14.41849,45.44377],[14.41836,45.44372],[14.41823,45.44366],[14.4182,45.44365],[14.41469,45.44226],[14.40736,45.43935],[14.40684,45.43914],[14.40634,45.4389],[14.40634,45.43889],[14.40474,45.43811],[14.4046,45.43804],[14.40357,45.43756],[14.40306,45.43733],[14.40092,45.43649],[14.39867,45.43579],[14.39634,45.43524],[14.39394,45.43486],[14.39375,45.43484],[14.39213,45.43468],[14.39209,45.43468],[14.39177,45.43465],[14.39167,45.43464],[14.39162,45.43464],[14.39135,45.43461],[14.39127,45.4346],[14.3912,45.43462],[14.39118,45.43459],[14.39098,45.43456],[14.3908,45.43452],[14.39052,45.43447],[14.38954,45.43428],[14.3888,45.43414],[14.3886,45.43413],[14.38854,45.43402],[14.38825,45.4337],[14.38801,45.43343],[14.38778,45.43319],[14.38629,45.43174],[14.38461,45.43041],[14.38274,45.4292],[14.38072,45.42813],[14.37855,45.4272],[14.37626,45.42643],[14.37388,45.42583],[14.37371,45.42579],[14.37334,45.42572],[14.37283,45.4256],[14.3728,45.42561],[14.37224,45.42541],[14.36731,45.42362],[14.36687,45.42346],[14.36647,45.42325],[14.36646,45.42325],[14.34152,45.41035],[14.34102,45.41009],[14.34168,45.39845],[14.34169,45.39722],[14.34164,45.39603],[14.34153,45.39482],[14.34152,45.3948],[14.34144,45.39439],[14.34147,45.39435],[14.34135,45.39347],[14.34116,45.3921],[14.34064,45.39029],[14.33987,45.38853],[14.33884,45.38683],[14.33758,45.38522],[14.33608,45.38371],[14.33438,45.38231],[14.33403,45.38205],[14.33334,45.38158],[14.33317,45.38144],[14.33312,45.38144],[14.33312,45.38141],[14.33284,45.38119],[14.33279,45.38113],[14.33277,45.38112],[14.3324,45.38082],[14.33234,45.38076],[14.3322,45.38066],[14.33221,45.38063],[14.33187,45.3803],[14.33176,45.38021],[14.33168,45.38012],[14.33166,45.3801],[14.33162,45.38006],[14.33161,45.38005],[14.32974,45.37834],[14.3293,45.37799],[14.32812,45.3771],[14.32786,45.37692],[14.32778,45.37689],[14.32779,45.37685],[14.32751,45.37637],[14.32737,45.37614],[14.32722,45.3759],[14.32689,45.37538],[14.32673,45.37515],[14.32663,45.37501],[14.32635,45.37458],[14.32632,45.37459],[14.32624,45.37439],[14.32624,45.37436],[14.32614,45.37416],[14.32577,45.37327],[14.32532,45.37232],[14.32509,45.37187],[14.32506,45.37187],[14.32503,45.37168],[14.3249,45.37117],[14.32474,45.37063],[14.32465,45.37031],[14.3246,45.37012],[14.32459,45.37008],[14.32455,45.37003],[14.32463,45.36996],[14.32507,45.36924],[14.32569,45.36827],[14.32571,45.36823],[14.3265,45.36661],[14.32706,45.36493],[14.3274,45.36323],[14.32751,45.36152],[14.32738,45.3598],[14.32703,45.3581],[14.32645,45.35644],[14.32564,45.35482],[14.32463,45.35326],[14.3234,45.35178],[14.32199,45.35039],[14.32039,45.3491],[14.31862,45.34792],[14.31819,45.34766],[14.31725,45.34712],[14.31288,45.34472],[14.31197,45.34422],[14.31153,45.34398],[14.31124,45.34365],[14.29127,45.32106],[14.29078,45.3205],[14.29041,45.3199],[14.27234,45.29069],[14.27234,45.29068],[14.27198,45.29011],[14.27174,45.2895],[14.25861,45.25612],[14.25861,45.25611],[14.25847,45.25576],[14.25842,45.2554],[14.25333,45.2226],[14.24803,45.1884],[14.24789,45.18763],[14.24781,45.18725],[14.24738,45.18573],[14.24725,45.18535],[14.24697,45.1846],[14.23479,45.15477],[14.23474,45.15464],[14.23468,45.1545],[14.23462,45.15436],[14.23406,45.15306],[14.23402,45.15296],[14.23396,45.15281],[14.23364,45.15205],[14.23346,45.15168],[14.23268,45.15021],[14.23171,45.14879],[14.23058,45.14743],[14.23027,45.1471],[14.22964,45.14645],[14.22102,45.13797],[14.22025,45.13725],[14.21986,45.13691],[14.21816,45.13555],[14.21628,45.13432],[14.21424,45.13323],[14.21204,45.1323],[14.20973,45.13152],[14.20732,45.13092],[14.20483,45.13049],[14.2023,45.13024],[14.19974,45.13017],[14.19719,45.13029],[14.19466,45.13059],[14.19219,45.13107],[14.1916,45.1312],[14.19039,45.13151],[14.18122,45.134],[14.17995,45.13435],[14.17937,45.13451],[14.18827,45.12674],[14.18904,45.12604],[14.18939,45.1257],[14.19077,45.12422],[14.19194,45.12265],[14.19289,45.12101],[14.1936,45.1193],[14.19408,45.11756],[14.19431,45.1158],[14.1943,45.11402],[14.19426,45.11359],[14.19417,45.1127],[14.19381,45.11025],[14.19366,45.10943],[14.19357,45.10902],[14.19311,45.10738],[14.19244,45.10578],[14.19157,45.10424],[14.1905,45.10276],[14.19021,45.1024],[14.1896,45.10169],[14.18428,45.09575],[14.18358,45.09501],[14.18322,45.09465],[14.18169,45.09327],[14.17997,45.09199],[14.17808,45.09084],[14.17604,45.08983],[14.17387,45.08897],[14.17159,45.08826],[14.16922,45.08771],[14.16679,45.08733],[14.16432,45.08712],[14.16183,45.08709],[14.15935,45.08723],[14.15915,45.08725],[14.15871,45.08729],[14.15858,45.0873],[14.15851,45.08731],[14.15823,45.08732],[14.15821,45.08735],[14.15802,45.08692],[14.1545,45.07934],[14.15431,45.07892],[14.15429,45.07848],[14.15419,45.07572],[14.15413,45.07382],[14.15406,45.07291],[14.15402,45.07247],[14.15369,45.07066],[14.15312,45.06889],[14.15229,45.06716],[14.15123,45.06551],[14.14993,45.06394],[14.14842,45.06247],[14.1467,45.06112],[14.14481,45.0599],[14.14475,45.05987],[14.14399,45.05943],[14.14392,45.05938],[14.14389,45.05939],[14.14389,45.05895],[14.14389,45.05367],[14.14389,45.05321],[14.1549,45.0441],[14.15569,45.04342],[14.15606,45.04308],[14.15749,45.04163],[14.15871,45.04009],[14.15971,45.03848],[14.16049,45.0368],[14.16066,45.03638],[14.16096,45.03553],[14.16523,45.022],[14.16547,45.02113],[14.16557,45.0207],[14.16588,45.01893],[14.16594,45.01716],[14.16592,45.01672],[14.16586,45.01583],[14.16415,44.99957],[14.16403,44.99874],[14.16396,44.99832],[14.16357,44.99666],[14.16295,44.99503],[14.16213,44.99346],[14.1619,44.99307],[14.16141,44.99231],[14.1563,44.98476],[14.15575,44.98399],[14.15547,44.98362],[14.15421,44.98215],[14.15276,44.98077],[14.15113,44.97949],[14.14934,44.97833],[14.1474,44.9773],[14.14533,44.9764],[14.14314,44.97565],[14.14087,44.97506],[14.13852,44.97462],[14.13613,44.97434],[14.13371,44.97423],[14.13129,44.97428],[14.12888,44.9745],[14.12651,44.97488],[14.12633,44.97492],[14.12535,44.97512],[14.12431,44.97536],[14.1242,44.97541],[14.1235,44.97554],[14.11393,44.97736],[14.1139,44.97737],[14.11329,44.97748],[14.11312,44.97744],[14.11218,44.97731],[14.11089,44.97712],[14.11075,44.97711],[14.10827,44.97691],[14.10578,44.97689],[14.10329,44.97704],[14.10084,44.97737],[14.09844,44.97786],[14.09612,44.97852],[14.0939,44.97934],[14.09181,44.98032],[14.08986,44.98143],[14.08807,44.98267],[14.08647,44.98404],[14.08506,44.9855],[14.08386,44.98706],[14.08288,44.9887],[14.08267,44.9891],[14.08227,44.98994],[14.07616,45.00377],[14.0759,45.00437],[14.07569,45.00483],[14.0752,45.00515],[14.07519,45.00515],[14.06641,45.01081],[14.06107,45.01425],[14.06016,45.01487],[14.05972,45.01518],[14.05804,45.0165],[14.05654,45.01793],[14.05526,45.01947],[14.05419,45.02108],[14.05335,45.02276],[14.05275,45.02449],[14.05239,45.02626],[14.05227,45.02804],[14.05241,45.02982],[14.05247,45.03025],[14.05263,45.03114],[14.05307,45.03315],[14.05296,45.03362],[14.05203,45.03759],[14.05193,45.03803],[14.0513,45.03808],[14.04093,45.03892],[14.04029,45.03897],[14.04284,45.03111],[14.04309,45.03024],[14.0432,45.02981],[14.04352,45.02804],[14.04359,45.02627],[14.04342,45.02449],[14.04335,45.02406],[14.04317,45.02318],[14.04011,45.01035],[14.03998,45.00983],[14.03989,45.00943],[14.04428,45.00141],[14.05371,44.99699],[14.05472,44.99649],[14.0552,44.99624],[14.05712,44.99514],[14.05888,44.99391],[14.06046,44.99256],[14.06185,44.99112],[14.06304,44.98958],[14.06401,44.98797],[14.06476,44.9863],[14.06528,44.98458],[14.06556,44.98284],[14.0656,44.98109],[14.06541,44.97934],[14.06497,44.97762],[14.06431,44.97593],[14.06341,44.9743],[14.06317,44.97392],[14.06264,44.97313],[14.058,44.96661],[14.0574,44.96582],[14.05709,44.96544],[14.05573,44.96392],[14.05416,44.96251],[14.05241,44.96122],[14.05047,44.96006],[14.04839,44.95904],[14.04617,44.95818],[14.04385,44.95748],[14.04143,44.95695],[14.03896,44.95659],[14.03644,44.95641],[14.03592,44.95639],[14.03539,44.95637],[14.03529,44.95637],[14.03468,44.95637],[14.0372,44.95205],[14.03762,44.95129],[14.03781,44.95091],[14.0385,44.94936],[14.03898,44.94777],[14.03908,44.94737],[14.03925,44.94657],[14.03979,44.94344],[14.03993,44.94249],[14.03997,44.94202],[14.04002,44.94011],[14.04002,44.94003],[14.03981,44.93829],[14.03981,44.93826],[14.03938,44.93657],[14.03873,44.93492],[14.03786,44.93332],[14.03678,44.93179],[14.0355,44.93034],[14.03403,44.92898],[14.03239,44.92773],[14.03059,44.9266],[14.02864,44.92559],[14.02657,44.92472],[14.02439,44.92399],[14.02386,44.92384],[14.02274,44.92353],[14.02268,44.92352],[14.02247,44.92349],[14.02253,44.92242],[14.02255,44.92157],[14.02255,44.92115],[14.02241,44.91944],[14.02205,44.91775],[14.02147,44.91608],[14.02067,44.91447],[14.01965,44.91292],[14.01843,44.91144],[14.01702,44.91005],[14.01543,44.90877],[14.01368,44.9076],[14.01178,44.90655],[14.00975,44.90564],[14.0076,44.90487],[14.00536,44.90425],[14.00481,44.90411],[14.00366,44.90386],[13.99281,44.90167],[13.99157,44.90144],[13.99094,44.90134],[13.98841,44.90102],[13.98585,44.90088],[13.98521,44.90087],[13.98392,44.90088],[13.97483,44.90106],[13.9733,44.9011],[13.97267,44.90111],[13.97653,44.89892],[13.97746,44.89837],[13.9779,44.8981],[13.97963,44.89691],[13.98121,44.8956],[13.9826,44.8942],[13.9838,44.89271],[13.98479,44.89114],[13.98557,44.88951],[13.98613,44.88784],[13.98646,44.88614],[13.98657,44.88442],[13.98644,44.88271],[13.98638,44.88229],[13.98624,44.88144],[13.98621,44.88129],[13.98618,44.88129],[13.98618,44.88085],[13.98618,44.87562],[13.98618,44.87552],[13.98618,44.87551],[13.98618,44.87507],[13.98621,44.87507],[13.98629,44.87467],[13.9863,44.87462],[13.98631,44.8746],[13.98635,44.87441],[13.9864,44.87417],[13.98667,44.87285],[13.9868,44.87107],[13.98667,44.8693],[13.9863,44.86755],[13.9857,44.86583],[13.98486,44.86416],[13.98379,44.86256],[13.98251,44.86104],[13.98217,44.86068],[13.98185,44.86037],[13.98165,44.86015],[13.98129,44.85981],[13.98103,44.85943],[13.97296,44.84758],[13.97267,44.84715],[13.97462,44.83967],[13.97463,44.83962],[13.97481,44.839],[13.9752,44.83703],[13.97528,44.83504],[13.97505,44.83306],[13.97453,44.8311],[13.97437,44.83067],[13.97401,44.82973],[13.97362,44.82885],[13.97323,44.82802],[13.97304,44.82764],[13.97209,44.82603],[13.97093,44.82449],[13.96957,44.82305],[13.96802,44.8217],[13.9663,44.82047],[13.96441,44.81936],[13.96239,44.81839],[13.96024,44.81756],[13.95798,44.81689],[13.95565,44.81637],[13.95326,44.81602],[13.95083,44.81584],[13.94839,44.81582],[13.94595,44.81597],[13.94355,44.81629],[13.9412,44.81677],[13.93892,44.81742],[13.93675,44.81822],[13.93625,44.81842],[13.9352,44.81887],[13.93328,44.81976],[13.93219,44.82026],[13.93218,44.82026],[13.93165,44.8205],[13.93164,44.82048],[13.93152,44.82052],[13.93038,44.82091],[13.92983,44.82111],[13.92752,44.82207],[13.92536,44.82319],[13.92338,44.82447],[13.9216,44.82589],[13.92004,44.82744],[13.91971,44.8278],[13.91904,44.82859],[13.91875,44.82896],[13.91871,44.82905],[13.9181,44.82918],[13.91809,44.82918],[13.91023,44.83084],[13.90968,44.83096],[13.90942,44.83091],[13.90886,44.83083],[13.90859,44.8308],[13.90829,44.83076],[13.90595,44.83056],[13.90359,44.83052],[13.90124,44.83063],[13.89892,44.8309],[13.89663,44.83132],[13.89442,44.83189],[13.89228,44.8326],[13.89179,44.83279],[13.89078,44.83319],[13.89068,44.83323],[13.89015,44.83348],[13.8901,44.83344],[13.88904,44.83306],[13.88851,44.83289],[13.88625,44.83224],[13.88392,44.83174],[13.88153,44.83141],[13.8791,44.83124],[13.87667,44.83124],[13.87424,44.83141],[13.87185,44.83175],[13.86951,44.83225],[13.86725,44.8329],[13.86509,44.83371],[13.86305,44.83466],[13.86115,44.83575],[13.8594,44.83697],[13.85782,44.8383],[13.85643,44.83973],[13.85641,44.83975],[13.8561,44.8401],[13.85595,44.84025],[13.85597,44.84028],[13.85591,44.84029],[13.85506,44.84089],[13.85507,44.84089],[13.8545,44.84129],[13.85434,44.84141],[13.85276,44.84271],[13.85136,44.84412],[13.85015,44.84561],[13.84988,44.84599],[13.84935,44.84676],[13.84911,44.84713],[13.84913,44.84715],[13.84879,44.84753],[13.84262,44.85428],[13.84261,44.8543],[13.8423,44.85464],[13.84227,44.85464],[13.84186,44.85491],[13.84173,44.855],[13.83992,44.85624],[13.8383,44.85761],[13.83687,44.85909],[13.83566,44.86066],[13.83467,44.86231],[13.83391,44.86402],[13.8334,44.86578],[13.83313,44.86756],[13.83311,44.86935],[13.83334,44.87114],[13.83382,44.87289],[13.83454,44.87461],[13.83474,44.87502],[13.8352,44.87586],[13.8423,44.88813],[13.84168,44.88802],[13.83579,44.88702],[13.83457,44.88681],[13.83337,44.88663],[13.83284,44.88656],[13.83043,44.88632],[13.828,44.88625],[13.82557,44.88635],[13.82316,44.88661],[13.82079,44.88704],[13.8185,44.88762],[13.81629,44.88836],[13.8142,44.88925],[13.81223,44.89028],[13.81041,44.89144],[13.80876,44.89271],[13.80728,44.8941],[13.806,44.89558],[13.80492,44.89714],[13.80406,44.89876],[13.80342,44.90044],[13.80301,44.90215],[13.80283,44.90389],[13.80289,44.90562],[13.80318,44.90735],[13.80371,44.90904],[13.80446,44.91069],[13.80543,44.91229],[13.80661,44.9138],[13.80689,44.91413],[13.80756,44.91486],[13.80812,44.91543],[13.8077,44.91578],[13.80306,44.91962],[13.79982,44.92231],[13.79897,44.92305],[13.79856,44.92343],[13.79703,44.92501],[13.79574,44.92669],[13.79546,44.92712],[13.79491,44.928],[13.77462,44.96291],[13.77432,44.96343],[13.7741,44.96381],[13.7737,44.96411],[13.75806,44.97589],[13.73459,44.99356],[13.73342,44.99451],[13.73229,44.99548],[13.73121,44.99649],[13.68204,45.04566],[13.68164,45.04606],[13.68133,45.04637],[13.68091,45.04662],[13.67725,45.04878],[13.67525,45.04997],[13.67451,45.05043],[13.67414,45.05066],[13.67272,45.05164],[13.67238,45.0519],[13.67171,45.05242],[13.66209,45.0602],[13.66123,45.06089],[13.66082,45.06123],[13.66033,45.06149],[13.64475,45.06999],[13.64422,45.07028],[13.64382,45.07051],[13.64382,45.07052],[13.64346,45.07072],[13.64322,45.07085],[13.64286,45.07107],[13.64287,45.07108],[13.6418,45.07173],[13.64007,45.073],[13.63853,45.07439],[13.63718,45.07587],[13.63604,45.07744],[13.63513,45.07908],[13.63444,45.08078],[13.63399,45.08251],[13.63378,45.08427],[13.63382,45.08603],[13.63409,45.08779],[13.63461,45.08951],[13.63536,45.09119],[13.63634,45.09281],[13.63641,45.09291],[13.63643,45.09294],[13.63659,45.09316],[13.63678,45.09345],[13.63689,45.09357],[13.63653,45.09394],[13.63652,45.09394],[13.63051,45.09995],[13.62873,45.10172],[13.62805,45.10244],[13.62774,45.10278],[13.62653,45.10428],[13.62552,45.10586],[13.62472,45.1075],[13.62416,45.10918],[13.62382,45.1109],[13.62372,45.11263],[13.62385,45.11436],[13.62421,45.11607],[13.62481,45.11775],[13.62563,45.11938],[13.62666,45.12095],[13.6279,45.12244],[13.62934,45.12383],[13.63096,45.12513],[13.63275,45.1263],[13.63469,45.12735],[13.63677,45.12826],[13.63895,45.12902],[13.64123,45.12963],[13.64359,45.13009],[13.64599,45.13038],[13.64646,45.13042],[13.64766,45.1305],[13.72625,45.13451],[13.72569,45.1347],[13.7073,45.1409],[13.70672,45.1411],[13.70608,45.14116],[13.70607,45.14116],[13.68416,45.14332],[13.6836,45.14338],[13.68304,45.14336],[13.63742,45.14205],[13.63741,45.14205],[13.63689,45.14203],[13.63639,45.14193],[13.63296,45.14121],[13.63253,45.14112],[13.63131,45.14088],[13.63075,45.14079],[13.62829,45.14045],[13.62579,45.14029],[13.62327,45.1403],[13.62078,45.14049],[13.61832,45.14086],[13.61592,45.1414],[13.61361,45.1421],[13.6114,45.14296],[13.60933,45.14397],[13.60741,45.14512],[13.60565,45.14639],[13.60409,45.14779],[13.60272,45.14929],[13.60157,45.15087],[13.60064,45.15253],[13.59995,45.15425],[13.5995,45.156],[13.5993,45.15778],[13.59935,45.15956],[13.59964,45.16133],[13.59974,45.16174],[13.59998,45.16261],[13.6006,45.16462],[13.60053,45.165],[13.59946,45.17083],[13.59938,45.17129],[13.59931,45.17132],[13.59904,45.1716],[13.59896,45.17168],[13.5986,45.17205],[13.59861,45.17206],[13.59768,45.17302],[13.59648,45.17458],[13.59549,45.17622],[13.59474,45.17792],[13.59423,45.17967],[13.59396,45.18144],[13.59394,45.18323],[13.59397,45.18366],[13.59405,45.18454],[13.59441,45.18732],[13.59406,45.18773],[13.59282,45.18919],[13.59245,45.18962],[13.59183,45.19039],[13.59154,45.19076],[13.59047,45.19235],[13.58962,45.19401],[13.589,45.19571],[13.58861,45.19745],[13.58847,45.1992],[13.58857,45.20096],[13.58891,45.2027],[13.58949,45.20441],[13.5903,45.20607],[13.59053,45.20647],[13.59102,45.20728],[13.59449,45.21263],[13.59448,45.21304],[13.59426,45.22028],[13.59425,45.22077],[13.59401,45.22124],[13.59312,45.22296],[13.593,45.22318],[13.5926,45.22403],[13.59242,45.22445],[13.59179,45.22618],[13.5914,45.22795],[13.59127,45.22973],[13.59138,45.23152],[13.59175,45.23328],[13.59236,45.23502],[13.59321,45.2367],[13.59344,45.2371],[13.59395,45.23792],[13.59571,45.24055],[13.59569,45.24098],[13.59525,45.25037],[13.59522,45.2508],[13.59492,45.25118],[13.59318,45.25337],[13.59271,45.25396],[13.59213,45.25473],[13.59187,45.2551],[13.59087,45.2567],[13.59009,45.25836],[13.58955,45.26006],[13.58924,45.26179],[13.58916,45.26354],[13.58933,45.26528],[13.58973,45.267],[13.59037,45.26868],[13.59123,45.27032],[13.59232,45.27188],[13.59361,45.27337],[13.5951,45.27476],[13.59677,45.27604],[13.59861,45.2772],[13.6006,45.27822],[13.6008,45.27832],[13.60169,45.27871],[13.60265,45.27912],[13.60271,45.27912],[13.60271,45.28535],[13.60254,45.28541],[13.60202,45.28566],[13.6013,45.28604],[13.601,45.2862],[13.59911,45.28732],[13.59738,45.28856],[13.59583,45.28992],[13.59447,45.29137],[13.59332,45.29291],[13.59238,45.29453],[13.59167,45.29619],[13.59118,45.2979],[13.59093,45.29964],[13.59092,45.30138],[13.59115,45.30311],[13.59161,45.30482],[13.59231,45.3065],[13.59322,45.30811],[13.59436,45.30965],[13.5957,45.31111],[13.59723,45.31247],[13.59895,45.31372],[13.59936,45.314],[13.60028,45.31457],[13.60955,45.32014],[13.60899,45.32034],[13.59854,45.32414],[13.59853,45.32414],[13.59791,45.32437],[13.59721,45.32438],[13.59721,45.32439],[13.58373,45.32471],[13.57411,45.32495],[13.57291,45.32499],[13.57232,45.32503],[13.56993,45.32525],[13.56759,45.32562],[13.5653,45.32615],[13.56309,45.32684],[13.56099,45.32766],[13.559,45.32862],[13.55715,45.32971],[13.55671,45.32999],[13.55584,45.33058],[13.55351,45.33225],[13.55271,45.33284],[13.55232,45.33314],[13.55084,45.33441],[13.54953,45.33577],[13.54923,45.33611],[13.54922,45.33612],[13.54863,45.33682],[13.54815,45.33744],[13.54758,45.3382],[13.54732,45.33857],[13.54633,45.34015],[13.54557,45.34179],[13.54503,45.34347],[13.54472,45.34518],[13.54464,45.3469],[13.5448,45.34862],[13.54519,45.35032],[13.5458,45.35199],[13.54664,45.35361],[13.54769,45.35516],[13.54895,45.35663],[13.5504,45.35802],[13.55203,45.35929],[13.55383,45.36046],[13.55431,45.36074],[13.55486,45.36104],[13.55494,45.36107],[13.55494,45.36734],[13.55453,45.36765],[13.55015,45.37092],[13.54735,45.37302],[13.54645,45.37373],[13.54602,45.37408],[13.54439,45.37559],[13.543,45.37721],[13.54185,45.37893],[13.5416,45.37936],[13.54112,45.38025],[13.51813,45.4266],[13.51776,45.42742],[13.51759,45.42783],[13.517,45.4295],[13.51665,45.43121],[13.51652,45.43293],[13.51663,45.43465],[13.51698,45.43635],[13.51755,45.43803],[13.51834,45.43965],[13.51936,45.44122],[13.51963,45.44159],[13.52021,45.44235],[13.52076,45.44302],[13.52071,45.44307],[13.52059,45.44332],[13.52049,45.44352],[13.52048,45.44355],[13.52032,45.44387],[13.52033,45.44387],[13.51973,45.44518],[13.51921,45.44688],[13.51892,45.44861],[13.51886,45.45036],[13.51905,45.4521],[13.51947,45.45381],[13.51961,45.45423],[13.51991,45.45508],[13.52076,45.45726],[13.52052,45.45766],[13.51404,45.46831],[13.50969,45.47546],[13.50923,45.47627],[13.50904,45.47664],[13.50828,45.4783],[13.50776,45.48001],[13.50748,45.48174],[13.50743,45.48349],[13.50763,45.48523],[13.50806,45.48695],[13.50873,45.48863],[13.50962,45.49026],[13.51074,45.49181],[13.51206,45.49329],[13.51358,45.49467],[13.51528,45.49593],[13.51715,45.49708],[13.51916,45.49809],[13.52131,45.49895],[13.52357,45.49967],[13.52591,45.50023],[13.52832,45.50063],[13.53078,45.50086],[13.53325,45.50092],[13.53572,45.50081],[13.53817,45.50054],[13.54057,45.50009],[13.54289,45.49949],[13.54332,45.49937],[13.54444,45.49901],[13.56861,45.49079],[13.58953,45.48884],[13.59164,45.49311],[13.59153,45.49351],[13.59106,45.49509],[13.59099,45.49532],[13.59077,45.49614],[13.59068,45.49654],[13.59041,45.49819],[13.59036,45.49985],[13.59052,45.5015],[13.5909,45.50314],[13.59149,45.50474],[13.59229,45.5063],[13.59251,45.50667],[13.59298,45.50742],[13.59596,45.51191],[13.59596,45.51813],[13.59593,45.51814],[13.59591,45.51821],[13.59588,45.51864],[13.59584,45.51886],[13.59568,45.52064],[13.59576,45.52243],[13.5961,45.52419],[13.59669,45.52593],[13.59751,45.52761],[13.59857,45.52923],[13.59985,45.53077],[13.60134,45.53221],[13.60302,45.53354],[13.60488,45.53474],[13.60691,45.53581],[13.60907,45.53674],[13.61136,45.5375],[13.61374,45.53811],[13.61619,45.53854],[13.61654,45.53859],[13.61776,45.53874],[13.67467,45.5447],[13.67513,45.54474],[13.67578,45.54481],[13.75294,45.55288],[13.75294,45.55907],[13.75257,45.55944],[13.74286,45.56926],[13.74236,45.56977],[13.74177,45.57022],[13.72763,45.58102],[13.72744,45.58116],[13.72739,45.5812],[13.72566,45.58253],[13.72481,45.58322],[13.72442,45.58355],[13.72287,45.58501],[13.72154,45.58658],[13.72044,45.58823],[13.71958,45.58994],[13.71897,45.59172],[13.71862,45.59352],[13.71853,45.59534],[13.7187,45.59716],[13.71913,45.59895],[13.71981,45.6007],[13.72075,45.6024],[13.72192,45.60402],[13.72207,45.60421],[13.72344,45.6057],[13.72359,45.60586],[13.72513,45.60722],[13.72684,45.60848],[13.72872,45.60961],[13.73074,45.61061],[13.7329,45.61146],[13.73516,45.61217],[13.7375,45.61272],[13.73992,45.6131],[13.74237,45.61332],[13.74295,45.61336],[13.74418,45.6134],[13.75463,45.61362],[13.75558,45.61363],[13.75605,45.61363],[13.75796,45.61357],[13.75842,45.61354],[13.75937,45.61347],[13.78688,45.61115],[13.80812,45.61433],[13.80752,45.61445],[13.804,45.61521],[13.80316,45.61539],[13.80204,45.61565],[13.80148,45.61579],[13.79928,45.61642],[13.79717,45.6172],[13.79517,45.6181],[13.7933,45.61914],[13.79157,45.62029],[13.79117,45.62059],[13.79036,45.62121],[13.78842,45.62277],[13.78766,45.6234],[13.7873,45.62373],[13.78591,45.62508],[13.78558,45.62542],[13.78496,45.62613],[13.7779,45.6345],[13.77742,45.63508],[13.77711,45.63544],[13.77658,45.63563],[13.77658,45.63564],[13.77247,45.63712],[13.77206,45.63727],[13.77095,45.6377],[13.77042,45.63791],[13.76828,45.63888],[13.7663,45.63999],[13.76448,45.64124],[13.76284,45.6426],[13.7614,45.64407],[13.76018,45.64564],[13.75918,45.64728],[13.75842,45.64898],[13.75789,45.65073],[13.75762,45.6525],[13.7576,45.65428],[13.75762,45.6546],[13.75763,45.6548],[13.75764,45.65479],[13.75763,45.65497],[13.75766,45.65498],[13.75756,45.65542],[13.75378,45.67182],[13.75367,45.67231],[13.75335,45.67274],[13.75334,45.67274],[13.73933,45.6913],[13.73911,45.6916],[13.73882,45.69187],[13.72671,45.70332],[13.72625,45.70376],[13.72572,45.70415],[13.72571,45.70416],[13.64786,45.76163],[13.64785,45.76163],[13.64731,45.76203],[13.6467,45.76238],[13.62936,45.77235],[13.62892,45.77261],[13.62839,45.77277],[13.57495,45.78939],[13.57494,45.7894],[13.57423,45.78962],[13.57346,45.78971],[13.55191,45.79235],[13.55128,45.79243],[13.5508,45.79213],[13.53495,45.78237],[13.53443,45.78205],[13.53422,45.7816],[13.53422,45.78159],[13.52437,45.76047],[13.52418,45.76008],[13.52798,45.74218],[13.52814,45.74127],[13.5282,45.74083],[13.52833,45.739],[13.52818,45.73718],[13.52778,45.73537],[13.52711,45.7336],[13.5262,45.73189],[13.52504,45.73026],[13.52365,45.72871],[13.52204,45.72728],[13.52024,45.72596],[13.51978,45.72566],[13.5188,45.72505],[13.51852,45.72488],[13.5184,45.72484],[13.51798,45.7245],[13.51371,45.72105],[13.51336,45.72077],[13.51324,45.72063],[13.5128,45.7202],[13.51243,45.71985],[13.51083,45.71848],[13.50904,45.71724],[13.50708,45.71612],[13.50498,45.71514],[13.50275,45.71431],[13.50041,45.71364],[13.49799,45.71313],[13.49739,45.71303],[13.49616,45.71284],[13.4822,45.71095],[13.4808,45.71076],[13.48024,45.71068],[13.47972,45.7105],[13.46976,45.70703],[13.46975,45.70703],[13.46973,45.70702],[13.46925,45.70685],[13.46914,45.70678],[13.46885,45.70661],[13.46863,45.70648],[13.46662,45.70539],[13.46446,45.70444],[13.46218,45.70364],[13.4598,45.70301],[13.45734,45.70254],[13.45483,45.70225],[13.45229,45.70214],[13.44974,45.7022],[13.44722,45.70245],[13.44474,45.70286],[13.44233,45.70345],[13.44002,45.7042],[13.43782,45.70511],[13.43576,45.70617],[13.43386,45.70736],[13.43214,45.70868],[13.43061,45.71012],[13.42929,45.71165],[13.4282,45.71327],[13.42797,45.71365],[13.42751,45.71449],[13.42312,45.72309],[13.42284,45.72363],[13.42262,45.72407],[13.42198,45.72416],[13.40522,45.72661],[13.39345,45.72833],[13.39215,45.72854],[13.39152,45.72866],[13.38897,45.72923],[13.38653,45.72998],[13.3842,45.73091],[13.38203,45.732],[13.38003,45.73325],[13.37822,45.73463],[13.37663,45.73613],[13.37627,45.73652],[13.37556,45.73731],[13.37015,45.74373],[13.36972,45.74423],[13.36972,45.74424],[13.3694,45.74462],[13.3688,45.74447],[13.36237,45.74289],[13.35941,45.74216],[13.35826,45.7419],[13.35769,45.74179],[13.35535,45.74138],[13.35296,45.74113],[13.35055,45.74104],[13.34814,45.74111],[13.34575,45.74133],[13.34516,45.74141],[13.34398,45.74158],[13.25805,45.75554],[13.2568,45.75576],[13.25618,45.75589],[13.25373,45.75647],[13.25313,45.75664],[13.25195,45.75699],[13.25074,45.75738],[13.24967,45.75774],[13.24915,45.75793],[13.24711,45.75875],[13.24518,45.7597],[13.24338,45.76076],[13.24295,45.76104],[13.2421,45.76162],[13.22316,45.77514],[13.2224,45.77567],[13.2224,45.77568],[13.22185,45.77607],[13.22118,45.77636],[13.21605,45.77856],[13.21551,45.7788],[13.21488,45.77873],[13.20558,45.7778],[13.20493,45.77774],[13.20431,45.77758],[13.17004,45.7689],[13.17002,45.76889],[13.16944,45.76874],[13.16939,45.76867],[13.16879,45.76826],[13.16814,45.76782],[13.16788,45.76765],[13.1659,45.7665],[13.16376,45.76548],[13.16149,45.76463],[13.15911,45.76394],[13.15665,45.76341],[13.15412,45.76307],[13.15155,45.7629],[13.14897,45.76292],[13.14641,45.76312],[13.14388,45.76349],[13.14143,45.76405],[13.13906,45.76477],[13.13681,45.76565],[13.1347,45.76669],[13.13274,45.76787],[13.1323,45.76817],[13.1314,45.7688],[13.13136,45.76887],[13.13074,45.76902],[13.1199,45.77181],[13.11931,45.77196],[13.11881,45.7717],[13.11133,45.76789],[13.11085,45.76765],[13.11073,45.76724],[13.10828,45.75862],[13.10816,45.7582],[13.10916,45.75566],[13.10947,45.7548],[13.1096,45.75438],[13.11003,45.75262],[13.11021,45.75084],[13.11013,45.74906],[13.10981,45.74729],[13.10924,45.74555],[13.10842,45.74386],[13.10737,45.74224],[13.1061,45.74069],[13.10462,45.73925],[13.10294,45.73791],[13.10108,45.7367],[13.09906,45.73562],[13.09855,45.73538],[13.09749,45.73489],[13.08212,45.72827],[13.08114,45.72785],[13.08058,45.72761],[13.08026,45.7272],[13.0801,45.727],[13.07997,45.72684],[13.07862,45.72531],[13.07706,45.72389],[13.0753,45.72259],[13.07337,45.72141],[13.07128,45.72037],[13.06906,45.71949],[13.06672,45.71876],[13.06429,45.71821],[13.06179,45.71782],[13.05925,45.71762],[13.05669,45.71759],[13.05414,45.71774],[13.05162,45.71807],[13.04916,45.71857],[13.04679,45.71924],[13.04452,45.72008],[13.04238,45.72107],[13.04039,45.7222],[13.03857,45.72347],[13.03694,45.72486],[13.03552,45.72635],[13.03431,45.72794],[13.03334,45.7296],[12.98879,45.8176],[12.98879,45.81761],[12.98854,45.8181],[12.98821,45.81857],[12.97068,45.84345],[12.97039,45.84387],[12.96978,45.84405],[12.95862,45.84729],[12.95803,45.84746],[12.95754,45.84717],[12.95029,45.84296],[12.94979,45.84267],[12.9504,45.84091],[12.95087,45.83915],[12.95109,45.83737],[12.95106,45.83558],[12.95077,45.83381],[12.95024,45.83206],[12.94946,45.83036],[12.94844,45.82872],[12.9472,45.82716],[12.94574,45.82569],[12.94409,45.82434],[12.94224,45.8231],[12.94024,45.822],[12.93808,45.82104],[12.93581,45.82024],[12.93343,45.8196],[12.93097,45.81913],[12.92845,45.81884],[12.92591,45.81871],[12.92336,45.81877],[12.90674,45.81971],[12.90416,45.81995],[12.90162,45.82037],[12.89916,45.82097],[12.8968,45.82174],[12.89456,45.82267],[12.89247,45.82376],[12.89054,45.82499],[12.8888,45.82635],[12.88726,45.82782],[12.86825,45.84817],[12.86791,45.84853],[12.86729,45.8485],[12.86728,45.8485],[12.84246,45.84713],[12.84182,45.8471],[12.84141,45.84675],[12.83643,45.8425],[12.83472,45.84117],[12.83282,45.83997],[12.83077,45.83891],[12.82858,45.838],[12.82627,45.83724],[12.82386,45.83665],[12.82138,45.83623],[12.81885,45.83599],[12.8163,45.83592],[12.81375,45.83602],[12.81123,45.83631],[12.80877,45.83676],[12.80637,45.83739],[12.80408,45.83818],[12.80191,45.83912],[12.79989,45.84022],[12.79803,45.84144],[12.79635,45.84279],[12.79487,45.84425],[12.7936,45.8458],[12.79256,45.84743],[12.78694,45.85757],[12.78671,45.85798],[12.78625,45.85769],[12.78625,45.85768],[12.75609,45.8385],[12.75408,45.83735],[12.68725,45.80271],[12.68518,45.80174],[12.683,45.80092],[12.68071,45.80025],[12.67834,45.79974],[12.67591,45.79939],[12.67345,45.79921],[12.67097,45.79919],[12.6685,45.79934],[12.66606,45.79966],[12.66367,45.80014],[12.66136,45.80079],[12.65915,45.80158],[12.65706,45.80252],[12.65511,45.80359],[12.65332,45.8048],[12.6517,45.80611],[12.65026,45.80753],[12.64903,45.80905],[12.64352,45.81664],[12.6432,45.81708],[12.64282,45.81749],[12.63396,45.82697],[12.63359,45.82736],[12.633,45.82758],[12.63299,45.82758],[12.60603,45.8372],[12.60544,45.83741],[12.60478,45.83734],[12.59917,45.83676],[12.59857,45.83669],[12.59856,45.83665],[12.59799,45.83619],[12.59627,45.83493],[12.59439,45.83379],[12.59237,45.83279],[12.59021,45.83193],[12.58794,45.83121],[12.58559,45.83066],[12.58316,45.83026],[12.5807,45.83004],[12.57822,45.82998],[12.57573,45.83008],[12.57328,45.83036],[12.57087,45.8308],[12.56854,45.8314],[12.5663,45.83216],[12.56417,45.83306],[12.56218,45.83411],[12.56034,45.83528],[12.55867,45.83657],[12.55718,45.83797],[12.5559,45.83946],[12.55483,45.84104],[12.55397,45.84267],[12.55335,45.84436],[12.55297,45.84608],[12.55161,45.85489],[12.55154,45.85535],[12.55105,45.85566],[12.54122,45.86201],[12.53951,45.86322],[12.53798,45.86454],[12.53662,45.86595],[12.53547,45.86745],[12.53452,45.86902],[12.53378,45.87064],[12.53327,45.8723],[12.53298,45.87399],[12.53293,45.87569],[12.53334,45.8881],[12.53329,45.8881],[12.53256,45.88843],[12.53048,45.88948],[12.52856,45.89068],[12.52683,45.892],[12.52528,45.89343],[12.52395,45.89497],[12.52284,45.89659],[12.52197,45.89828],[12.52135,45.90002],[12.52097,45.9018],[12.52095,45.90194],[12.52098,45.90196],[12.52065,45.90234],[12.50553,45.91972],[12.50519,45.92011],[12.50462,45.92034],[12.47153,45.93342],[12.46891,45.93461],[12.44941,45.94467],[12.44888,45.94494],[12.44825,45.94505],[12.44602,45.94541],[12.4436,45.9459],[12.44125,45.94655],[12.43901,45.94735],[12.43689,45.9483],[12.43492,45.9494],[12.4331,45.95062],[12.43147,45.95196],[12.43003,45.95341],[12.42879,45.95494],[12.42778,45.95656],[12.427,45.95823],[12.42646,45.95995],[12.42615,45.9617],[12.4261,45.96346],[12.42725,45.99362],[12.42711,45.99412],[12.41845,46.02395],[12.41833,46.02438],[12.41792,46.02472],[12.41792,46.02473],[12.41072,46.03075],[12.40913,46.03222],[12.40777,46.03379],[12.40665,46.03546],[12.40577,46.03719],[12.40516,46.03898],[12.4048,46.04081],[12.40472,46.04265],[12.4049,46.04448],[12.40535,46.04629],[12.40607,46.04806],[12.40704,46.04977],[12.40824,46.05139],[12.41279,46.05681],[12.41361,46.05772],[12.43547,46.08047],[12.43712,46.082],[12.439,46.08341],[12.44109,46.08466],[12.44334,46.08575],[12.48081,46.1018],[12.48768,46.11133],[12.49832,46.12965],[12.49823,46.13011],[12.49429,46.15085],[12.4942,46.1513],[12.49372,46.1516],[12.49371,46.1516],[12.48078,46.15969],[12.47951,46.16054],[12.45563,46.17764],[12.45389,46.17902],[12.45235,46.18052],[12.45105,46.18213],[12.44998,46.18381],[12.44917,46.18557],[12.44862,46.18737],[12.44418,46.20673],[12.44408,46.20716],[12.44345,46.20718],[12.44344,46.20718],[12.42813,46.20764],[12.42557,46.2078],[12.42304,46.20815],[12.42058,46.20866],[12.4182,46.20934],[12.41593,46.21018],[12.41379,46.21118],[12.4118,46.21231],[12.40998,46.21358],[12.40835,46.21497],[12.40693,46.21646],[12.40573,46.21805],[12.40476,46.21971],[12.40403,46.22142],[12.40355,46.22318],[12.40333,46.22496],[12.40325,46.22643],[12.40322,46.22688],[12.40259,46.22681],[12.38477,46.22486],[12.38217,46.22467],[12.37955,46.22467],[12.37694,46.22484],[12.37438,46.2252],[12.37187,46.22574],[12.36946,46.22645],[12.36716,46.22732],[12.365,46.22836],[12.363,46.22954],[12.36119,46.23085],[12.33357,46.25293],[12.33208,46.25423],[12.33077,46.25563],[12.32965,46.2571],[12.32873,46.25864],[12.32803,46.26023],[12.32753,46.26186],[12.32666,46.26558],[12.32638,46.26727],[12.32633,46.26898],[12.32651,46.27068],[12.32692,46.27236],[12.32757,46.27401],[12.32843,46.2756],[12.32951,46.27714],[12.33079,46.27859],[12.33226,46.27995],[12.33391,46.28121],[12.33572,46.28236],[12.33833,46.28385],[12.35344,46.29453],[12.35506,46.30532],[12.3555,46.30726]]],[[[14.34143,44.68289],[14.3415,44.68468],[14.34181,44.68645],[14.34237,44.68819],[14.34317,44.68988],[14.3442,44.69151],[14.34545,44.69305],[14.3469,44.6945],[14.34855,44.69584],[14.35038,44.69705],[14.35237,44.69813],[14.35449,44.69906],[14.35674,44.69984],[14.35908,44.70045],[14.3615,44.7009],[14.36396,44.70117],[14.36646,44.70126],[14.36895,44.70118],[14.37142,44.70092],[14.37385,44.70048],[14.3762,44.69988],[14.37846,44.69911],[14.3806,44.69819],[14.38261,44.69712],[14.38445,44.69592],[14.38482,44.69565],[14.38568,44.695],[14.38845,44.69279],[14.38923,44.69215],[14.38958,44.69183],[14.391,44.69046],[14.39224,44.689],[14.39327,44.68746],[14.3941,44.68586],[14.39472,44.68421],[14.39511,44.68253],[14.39528,44.68083],[14.39522,44.67912],[14.39494,44.67743],[14.39485,44.67702],[14.39462,44.67618],[14.39327,44.6717],[14.39298,44.67084],[14.39285,44.6705],[14.39209,44.66881],[14.3911,44.66719],[14.38989,44.66564],[14.38848,44.66418],[14.38687,44.66283],[14.38509,44.66161],[14.38314,44.66051],[14.38105,44.65956],[14.37884,44.65875],[14.37653,44.65811],[14.37415,44.65764],[14.37171,44.65733],[14.36923,44.6572],[14.36676,44.65724],[14.36429,44.65746],[14.36187,44.65785],[14.35952,44.65841],[14.35725,44.65913],[14.35509,44.66],[14.35306,44.66103],[14.35118,44.66219],[14.34947,44.66348],[14.34794,44.66488],[14.34662,44.66638],[14.3455,44.66797],[14.34461,44.66963],[14.34395,44.67134],[14.34384,44.67169],[14.3436,44.67256],[14.34185,44.67985],[14.34167,44.68073],[14.34161,44.68111],[14.34143,44.68289]]],[[[14.27804,45.12706],[14.27843,45.12881],[14.27907,45.13053],[14.27925,45.13094],[14.27966,45.13178],[14.28766,45.14707],[14.28805,45.14777],[14.28825,45.14811],[14.28916,45.14947],[14.2894,45.1498],[14.28991,45.15046],[14.29767,45.16001],[14.29823,45.16066],[14.29852,45.16098],[14.29976,45.16224],[14.30115,45.16342],[14.3015,45.1637],[14.30224,45.16425],[14.30834,45.16862],[14.30931,45.16928],[14.30979,45.16959],[14.31188,45.1708],[14.31413,45.17184],[14.31653,45.17271],[14.31905,45.17339],[14.31967,45.17353],[14.32096,45.1738],[14.32335,45.17425],[14.32463,45.17446],[14.32525,45.17456],[14.32786,45.17484],[14.33049,45.17494],[14.33313,45.17484],[14.33573,45.17455],[14.33828,45.17406],[14.33888,45.17393],[14.34013,45.17361],[14.3462,45.17197],[14.34731,45.17165],[14.34783,45.17148],[14.34999,45.17073],[14.35205,45.16982],[14.35397,45.16879],[14.35574,45.16763],[14.35736,45.16636],[14.3588,45.16498],[14.36004,45.16352],[14.36032,45.16315],[14.36087,45.16239],[14.36094,45.16229],[14.36147,45.16145],[14.36172,45.16103],[14.3626,45.15929],[14.36323,45.1575],[14.3636,45.15567],[14.3637,45.15383],[14.36369,45.15337],[14.36364,45.15245],[14.36062,45.11867],[14.36058,45.11824],[14.36053,45.11762],[14.36305,45.09357],[14.36469,45.08908],[14.36498,45.0882],[14.36508,45.08785],[14.36547,45.08606],[14.3656,45.08427],[14.36549,45.08247],[14.36512,45.08069],[14.3645,45.07894],[14.36364,45.07725],[14.36255,45.07562],[14.36123,45.07409],[14.35971,45.07265],[14.35799,45.07133],[14.35609,45.07014],[14.35403,45.06909],[14.35184,45.06819],[14.34953,45.06746],[14.34713,45.06688],[14.34466,45.06649],[14.34215,45.06627],[14.33961,45.06623],[14.33709,45.06637],[14.33459,45.06668],[14.33215,45.06718],[14.32979,45.06784],[14.32754,45.06867],[14.32541,45.06965],[14.32343,45.07078],[14.32162,45.07204],[14.32127,45.07231],[14.32043,45.07299],[14.28968,45.09916],[14.28882,45.09993],[14.28841,45.10033],[14.28687,45.10197],[14.28652,45.1024],[14.28584,45.10326],[14.28142,45.10934],[14.28081,45.11023],[14.28053,45.11067],[14.27953,45.11252],[14.27881,45.11443],[14.2784,45.11638],[14.27834,45.11687],[14.27824,45.11786],[14.2779,45.12395],[14.27789,45.12484],[14.27789,45.12528],[14.27804,45.12706]]]]},"properties":{"geometry_id":"geom-territoire-it-ozak-1945-01-01","date_validite":"1945-01-01","statut":"provisoire_ohm","sources":[{"source_id":"src-openhistoricalmap","locator":"relation 2961565 — Operationszone Adriatisches Küstenland 1943-09-10 → 1945-05","usage":"tracé de la frontière"},{"source_id":"src-westpoint-italy-jun-dec1944","locator":"carte 51, tireté rouge « 31 Dec. »","usage":"front d’Italie au 31/12/1944"}],"method":"extraction_ohm_puis_decoupage_trait_de_cote","operations":["OHM r2961565 ∩ Italie du Nord (partie italienne d’avant-guerre)"],"precision":"frontières terrestres : celles d’OHM ; côtes : Natural Earth 1:10m (~1 km)","zone_incertitude_km":null,"surface_km2":15478,"logiciel":"Python — Shapely/GEOS, SciPy","script":"outils/geo/deriver_snapshot0_lot04.py","date_creation":"2026-09-29","auteur":"Claude","licence":"CC0 (OpenHistoricalMap) + segments sous licence d’origine listés dans licences_segments : à créditer","licences_segments":[{"relation":2961565,"licence":"CC-BY 4.0","source":"https://ipi.eprostor.gov.si/jgp/data","segments":15}],"points_a_verifier":["La partie slovène (province de Ljubljana) est dans la zone allemande de Yougoslavie."]}}