{"type":"Feature","geometry":{"type":"MultiPolygon","coordinates":[[[[27.74648,58.99552],[27.74651,58.99435],[27.74723,58.99304],[27.74696,58.98947],[27.74556,58.98777],[27.74448,58.98364],[27.73918,58.98112],[27.73832,58.97778],[27.73337,58.9764],[27.73088,58.97497],[27.72899,58.9713],[27.72178,58.96776],[27.35665,58.78805],[27.55508,58.3686],[27.48642,58.3066],[27.49054,58.2192],[27.60246,58.11752],[27.63542,58.10038],[27.60555,58.05427],[27.62066,58.00555],[27.64229,58.00155],[27.64881,57.99736],[27.65379,57.99582],[27.65825,57.99855],[27.64984,57.99918],[27.64864,58.0031],[27.65568,58.00619],[27.64881,58.01528],[27.64933,58.02019],[27.6622,58.01837],[27.66546,58.01037],[27.69224,58.00501],[27.69464,58.00346],[27.68967,58.00119],[27.69035,58.0],[27.6967,57.99982],[27.69876,57.99864],[27.69619,57.99664],[27.69825,57.99509],[27.69447,57.99409],[27.69636,57.98936],[27.69035,57.98681],[27.67799,57.9748],[27.6804,57.97134],[27.68555,57.97125],[27.68417,57.96742],[27.68641,57.96606],[27.68452,57.96005],[27.67336,57.95813],[27.66718,57.95786],[27.65963,57.95731],[27.65602,57.95504],[27.6598,57.9524],[27.66409,57.95112],[27.66924,57.94629],[27.66666,57.9421],[27.67525,57.93499],[27.68057,57.93554],[27.68417,57.92788],[27.67902,57.92397],[27.71009,57.92287],[27.71009,57.92169],[27.71816,57.92041],[27.71576,57.91932],[27.71679,57.91412],[27.71971,57.9122],[27.70786,57.90728],[27.6955,57.90737],[27.70409,57.90026],[27.73052,57.90646],[27.74734,57.90071],[27.75146,57.90272],[27.75593,57.90327],[27.75473,57.89761],[27.76091,57.8956],[27.77155,57.89478],[27.78254,57.89752],[27.7961,57.8988],[27.80674,57.89661],[27.81361,57.89652],[27.81704,57.8956],[27.81687,57.89296],[27.81979,57.89059],[27.81807,57.88885],[27.80863,57.88703],[27.80811,57.88547],[27.81635,57.88192],[27.81412,57.87973],[27.81498,57.87708],[27.80949,57.87297],[27.81137,57.87114],[27.81326,57.87087],[27.81515,57.86941],[27.81575,57.86635],[27.81713,57.86599],[27.81661,57.86503],[27.81318,57.8643],[27.81326,57.86334],[27.81584,57.86238],[27.79507,57.85215],[27.79301,57.84973],[27.79335,57.84763],[27.79181,57.8463],[27.79841,57.84416],[27.79558,57.84123],[27.78794,57.84338],[27.78365,57.83831],[27.77876,57.83735],[27.77618,57.83306],[27.75627,57.83703],[27.7573,57.83484],[27.74082,57.82775],[27.73224,57.83086],[27.72975,57.83068],[27.7264,57.83228],[27.72632,57.8336],[27.72554,57.83497],[27.72228,57.83584],[27.71833,57.83612],[27.71636,57.8373],[27.71696,57.83886],[27.71542,57.83991],[27.70838,57.84073],[27.70709,57.84215],[27.71044,57.84717],[27.70812,57.84845],[27.70237,57.84228],[27.6967,57.83845],[27.68641,57.83552],[27.67147,57.8368],[27.66031,57.84],[27.64658,57.83918],[27.63731,57.8411],[27.61585,57.83963],[27.59894,57.83443],[27.56126,57.8313],[27.55787,57.83379],[27.55551,57.83388],[27.5562,57.83285],[27.55418,57.83228],[27.55423,57.83184],[27.55508,57.83047],[27.55414,57.82976],[27.55423,57.827],[27.5529,57.82638],[27.55234,57.82702],[27.55169,57.82705],[27.55148,57.82517],[27.55195,57.82508],[27.55118,57.82165],[27.54946,57.82213],[27.54908,57.82289],[27.5459,57.82405],[27.54148,57.82323],[27.54281,57.81685],[27.55062,57.81733],[27.55474,57.81368],[27.53929,57.81313],[27.54238,57.80855],[27.53311,57.80782],[27.53689,57.80416],[27.5362,57.79794],[27.53071,57.79081],[27.52075,57.78916],[27.51835,57.79374],[27.50496,57.78898],[27.50153,57.79172],[27.49466,57.7877],[27.50565,57.78294],[27.51294,57.77493],[27.50633,57.77246],[27.50642,57.76989],[27.50556,57.76619],[27.50942,57.76426],[27.50813,57.76358],[27.51423,57.76298],[27.51818,57.75941],[27.52659,57.75785],[27.52762,57.75401],[27.51818,57.75346],[27.51328,57.75272],[27.51131,57.75071],[27.51268,57.74993],[27.51569,57.75098],[27.52727,57.75172],[27.52916,57.74934],[27.52762,57.74814],[27.52925,57.74563],[27.52779,57.74164],[27.52942,57.73995],[27.53414,57.73903],[27.53921,57.73568],[27.54564,57.7333],[27.54255,57.73298],[27.54135,57.7311],[27.52624,57.73074],[27.52607,57.72661],[27.52316,57.7234],[27.52436,57.72042],[27.52178,57.71602],[27.52307,57.7113],[27.52564,57.70937],[27.5241,57.70896],[27.51783,57.70933],[27.51002,57.71295],[27.50685,57.71373],[27.50556,57.7119],[27.50788,57.7107],[27.50668,57.70818],[27.50092,57.70649],[27.49706,57.70823],[27.4902,57.71644],[27.4902,57.7185],[27.49277,57.72304],[27.48874,57.72175],[27.48625,57.71992],[27.4817,57.71886],[27.47887,57.71877],[27.4744,57.71685],[27.472,57.7168],[27.47191,57.71391],[27.46985,57.71249],[27.47123,57.71139],[27.47028,57.70928],[27.46196,57.70745],[27.45646,57.71171],[27.45586,57.71313],[27.452,57.71648],[27.44677,57.71731],[27.44488,57.71552],[27.43732,57.71208],[27.42883,57.70846],[27.42857,57.70529],[27.42496,57.70364],[27.42711,57.69993],[27.41132,57.70034],[27.41415,57.69589],[27.41072,57.69594],[27.40891,57.69415],[27.40668,57.69406],[27.4017,57.6891],[27.40316,57.68832],[27.40265,57.68708],[27.40067,57.68585],[27.39827,57.68663],[27.39183,57.68626],[27.38874,57.68566],[27.39226,57.67915],[27.39012,57.67745],[27.38677,57.67726],[27.38428,57.67497],[27.38153,57.67603],[27.38205,57.67446],[27.38136,57.67304],[27.37724,57.67148],[27.37613,57.66818],[27.37844,57.66551],[27.37784,57.66368],[27.38068,57.66111],[27.37776,57.66],[27.37724,57.65849],[27.38256,57.65707],[27.38497,57.65537],[27.38128,57.65358],[27.37793,57.64871],[27.38136,57.64779],[27.37862,57.64457],[27.38111,57.64274],[27.38754,57.64246],[27.3854,57.64007],[27.38771,57.63902],[27.39853,57.63658],[27.40093,57.63295],[27.39999,57.62987],[27.40145,57.62882],[27.39939,57.62716],[27.40076,57.62532],[27.39999,57.62417],[27.39647,57.62238],[27.39179,57.62185],[27.38776,57.62174],[27.3887,57.61606],[27.40123,57.61705],[27.40372,57.61606],[27.40514,57.61241],[27.39385,57.60723],[27.38789,57.60466],[27.38411,57.60365],[27.38162,57.59928],[27.38016,57.59877],[27.37776,57.59613],[27.37583,57.59622],[27.37248,57.59787],[27.35651,57.59778],[27.34059,57.59065],[27.34012,57.58578],[27.33596,57.58407],[27.33489,57.58405],[27.32832,57.58074],[27.31749,57.58003],[27.31948,57.57927],[27.32012,57.5771],[27.32141,57.57641],[27.3224,57.57501],[27.32437,57.5743],[27.32464,57.57354],[27.32522,57.57273],[27.32594,57.57231],[27.32654,57.57227],[27.32731,57.5717],[27.32844,57.57133],[27.32846,57.57097],[27.33042,57.57041],[27.33072,57.56905],[27.33012,57.56811],[27.33029,57.56714],[27.33244,57.5658],[27.33287,57.56493],[27.33059,57.56339],[27.32991,57.56102],[27.33059,57.55975],[27.33493,57.55931],[27.33592,57.55878],[27.33489,57.55689],[27.33665,57.55611],[27.33759,57.55331],[27.33663,57.55302],[27.33606,57.55103],[27.33823,57.54983],[27.33693,57.54944],[27.33671,57.54889],[27.33557,57.54854],[27.33673,57.54587],[27.33836,57.54547],[27.34029,57.54557],[27.34021,57.54428],[27.34119,57.54402],[27.3424,57.54453],[27.34325,57.54292],[27.34325,57.542],[27.34416,57.54117],[27.34351,57.53965],[27.34476,57.53886],[27.3442,57.53767],[27.34545,57.53682],[27.34604,57.53674],[27.34642,57.53629],[27.34731,57.53646],[27.34753,57.53643],[27.34743,57.53573],[27.34883,57.53525],[27.34918,57.53357],[27.34892,57.53311],[27.34851,57.53287],[27.3486,57.53256],[27.3483,57.53221],[27.34835,57.53196],[27.34872,57.53161],[27.34941,57.53113],[27.34941,57.53096],[27.34919,57.53081],[27.34734,57.53039],[27.34592,57.52989],[27.34569,57.52964],[27.34574,57.52947],[27.34622,57.52933],[27.34687,57.52947],[27.34721,57.52934],[27.34726,57.52908],[27.34751,57.52889],[27.34835,57.52872],[27.3491,57.52835],[27.34997,57.52874],[27.35027,57.52844],[27.35059,57.52832],[27.35067,57.52815],[27.35028,57.52783],[27.35047,57.52756],[27.35053,57.52687],[27.35026,57.52664],[27.3503,57.52632],[27.34948,57.52584],[27.34956,57.52566],[27.34976,57.52561],[27.35051,57.52569],[27.35246,57.52565],[27.35277,57.52563],[27.35293,57.52548],[27.35298,57.52523],[27.35264,57.52469],[27.35241,57.52408],[27.35216,57.52394],[27.35186,57.52403],[27.35167,57.52391],[27.35173,57.52355],[27.35202,57.52341],[27.35155,57.52292],[27.35096,57.52286],[27.35131,57.52244],[27.35198,57.52231],[27.35245,57.52206],[27.35231,57.52183],[27.35191,57.52179],[27.3521,57.52159],[27.35252,57.52163],[27.35285,57.52177],[27.35305,57.52167],[27.35274,57.52136],[27.35201,57.52112],[27.35156,57.52106],[27.3515,57.52081],[27.3519,57.52062],[27.35214,57.52069],[27.35219,57.52058],[27.35206,57.52044],[27.35135,57.52041],[27.35143,57.52012],[27.35183,57.52005],[27.35194,57.51981],[27.35151,57.51967],[27.35187,57.51937],[27.35189,57.51905],[27.3515,57.51856],[27.35159,57.51822],[27.35063,57.51771],[27.34713,57.52193],[27.32578,57.52348],[27.31252,57.53207],[27.29721,57.53976],[27.28077,57.53737],[27.27531,57.54391],[27.26615,57.54432],[27.26524,57.54885],[27.25796,57.55078],[27.24874,57.54869],[27.24311,57.5494],[27.22549,57.55467],[27.1942,57.55056],[27.18478,57.55343],[27.16147,57.56051],[27.11741,57.56206],[27.11745,57.56236],[27.11697,57.56259],[27.11672,57.56254],[27.11624,57.56265],[27.11549,57.56279],[27.11539,57.563],[27.11503,57.56324],[27.11464,57.56326],[27.11462,57.56343],[27.1143,57.56364],[27.1141,57.56352],[27.11386,57.56347],[27.11341,57.56389],[27.11287,57.5639],[27.11251,57.56379],[27.11179,57.56377],[27.11164,57.56384],[27.11152,57.56397],[27.11109,57.56414],[27.11054,57.56423],[27.11012,57.56423],[27.11001,57.56434],[27.11024,57.56444],[27.11026,57.56458],[27.11014,57.56462],[27.11003,57.56458],[27.10993,57.56464],[27.10984,57.56474],[27.10949,57.56487],[27.1095,57.56496],[27.10958,57.56506],[27.10944,57.56516],[27.10908,57.56524],[27.10903,57.56541],[27.10882,57.56547],[27.10859,57.56529],[27.1083,57.56521],[27.10817,57.56529],[27.10819,57.56546],[27.10809,57.56556],[27.10795,57.56562],[27.10777,57.56551],[27.10754,57.5655],[27.10744,57.5656],[27.10727,57.56566],[27.10662,57.56568],[27.10608,57.56552],[27.10568,57.56549],[27.10535,57.56531],[27.10514,57.56533],[27.10522,57.56555],[27.10504,57.5656],[27.10494,57.5657],[27.10482,57.56571],[27.1047,57.56557],[27.10452,57.56556],[27.10443,57.56577],[27.10422,57.56571],[27.10373,57.56602],[27.10356,57.56601],[27.10356,57.56591],[27.10334,57.56578],[27.10312,57.56595],[27.10285,57.566],[27.1027,57.56592],[27.10252,57.56573],[27.10224,57.56567],[27.10191,57.56583],[27.10243,57.56592],[27.10257,57.56601],[27.10213,57.56628],[27.10194,57.56631],[27.10191,57.56613],[27.10165,57.566],[27.10152,57.56606],[27.10155,57.56634],[27.1015,57.56643],[27.10161,57.56656],[27.10152,57.56664],[27.10132,57.56665],[27.10118,57.56648],[27.10083,57.56635],[27.10076,57.56645],[27.10078,57.56673],[27.1007,57.56685],[27.10082,57.56695],[27.10072,57.56734],[27.10055,57.56734],[27.10044,57.56717],[27.09975,57.56734],[27.09949,57.56771],[27.09953,57.5679],[27.09983,57.56774],[27.10005,57.56784],[27.10026,57.56778],[27.10074,57.56795],[27.10054,57.56826],[27.10051,57.56844],[27.10034,57.56853],[27.10001,57.56851],[27.09966,57.56841],[27.09952,57.56847],[27.09947,57.56867],[27.09911,57.56869],[27.09872,57.56883],[27.09878,57.56899],[27.09814,57.56921],[27.09776,57.56914],[27.09751,57.56926],[27.09713,57.56934],[27.09677,57.56932],[27.09684,57.56912],[27.09667,57.56906],[27.0962,57.56911],[27.09591,57.56941],[27.09589,57.56968],[27.09602,57.56975],[27.09633,57.56962],[27.09648,57.56971],[27.0965,57.56994],[27.09601,57.57056],[27.09569,57.57066],[27.09546,57.57067],[27.09532,57.57091],[27.09543,57.57107],[27.09539,57.57118],[27.09507,57.57115],[27.0949,57.57127],[27.09512,57.57142],[27.09486,57.57152],[27.09454,57.5715],[27.0944,57.57136],[27.09419,57.57146],[27.09367,57.57142],[27.09375,57.57151],[27.09408,57.57168],[27.09389,57.57189],[27.0935,57.57191],[27.09313,57.57192],[27.09284,57.57208],[27.09244,57.5721],[27.09191,57.57226],[27.09125,57.57236],[27.09076,57.57232],[27.09021,57.57233],[27.09008,57.57248],[27.08998,57.57283],[27.08968,57.57309],[27.08922,57.57309],[27.08886,57.57317],[27.08858,57.57332],[27.08831,57.57338],[27.08828,57.57354],[27.08858,57.57377],[27.08901,57.57447],[27.08738,57.57677],[27.07596,57.57685],[27.07312,57.57746],[27.07197,57.57989],[27.06836,57.58128],[27.05633,57.58238],[27.05584,57.58266],[27.05519,57.5822],[27.05443,57.58173],[27.05143,57.58085],[27.03461,57.58564],[27.04216,57.58803],[27.04388,57.59723],[27.03049,57.60422],[26.99547,57.60514],[26.991,57.61084],[26.97418,57.61287],[26.96972,57.60533],[26.94534,57.60293],[26.93951,57.61029],[26.95152,57.61562],[26.95049,57.62077],[26.94054,57.6204],[26.92989,57.62427],[26.92646,57.63327],[26.90929,57.63327],[26.90071,57.63107],[26.88457,57.62096],[26.86535,57.6171],[26.85745,57.61029],[26.86363,57.60882],[26.85883,57.60054],[26.86295,57.59392],[26.83651,57.58343],[26.81797,57.58196],[26.81042,57.58435],[26.79943,57.58233],[26.79153,57.5746],[26.78398,57.57607],[26.77299,57.55968],[26.75343,57.56355],[26.77265,57.57496],[26.73832,57.58766],[26.72871,57.58049],[26.73763,57.57552],[26.73042,57.56999],[26.72356,57.57257],[26.71017,57.56631],[26.69781,57.57091],[26.69609,57.56705],[26.67171,57.56557],[26.67035,57.55406],[26.64707,57.55401],[26.6428,57.54652],[26.63451,57.54354],[26.61462,57.52928],[26.61682,57.50944],[26.61656,57.50931],[26.61643,57.50939],[26.61621,57.50947],[26.616,57.50954],[26.61568,57.50962],[26.61505,57.50981],[26.61487,57.50988],[26.6147,57.50996],[26.61445,57.51012],[26.61428,57.51025],[26.61415,57.51038],[26.6139,57.51076],[26.61371,57.51102],[26.61355,57.51116],[26.61331,57.51131],[26.61307,57.51139],[26.61271,57.51143],[26.61211,57.51149],[26.61093,57.51155],[26.6104,57.51157],[26.61007,57.51156],[26.60887,57.51146],[26.60864,57.51145],[26.60841,57.51148],[26.60801,57.51154],[26.60793,57.51156],[26.60788,57.51159],[26.60776,57.51168],[26.60744,57.51178],[26.60698,57.51202],[26.60682,57.5121],[26.60668,57.5121],[26.60644,57.51205],[26.60634,57.51201],[26.60621,57.51194],[26.60611,57.51184],[26.60608,57.51156],[26.60605,57.51146],[26.606,57.51139],[26.60592,57.51133],[26.60582,57.51128],[26.60572,57.51125],[26.6056,57.51124],[26.6055,57.51124],[26.60538,57.51127],[26.60518,57.51133],[26.60498,57.51147],[26.60469,57.5117],[26.60456,57.51187],[26.60447,57.51209],[26.60442,57.51233],[26.60451,57.51278],[26.60459,57.51285],[26.60481,57.5129],[26.60496,57.51297],[26.60512,57.51309],[26.60515,57.51318],[26.60524,57.51378],[26.60527,57.51385],[26.60532,57.51395],[26.6055,57.5141],[26.60564,57.51428],[26.60562,57.51443],[26.60548,57.51455],[26.60541,57.5146],[26.60534,57.51462],[26.60522,57.51463],[26.60517,57.51463],[26.60507,57.51459],[26.60498,57.51452],[26.60492,57.51449],[26.6048,57.51445],[26.60459,57.51441],[26.60443,57.5144],[26.60405,57.51438],[26.60342,57.51437],[26.60322,57.51437],[26.60251,57.51442],[26.60206,57.51449],[26.60188,57.51454],[26.60161,57.51465],[26.60137,57.51472],[26.60113,57.51476],[26.60073,57.51479],[26.60057,57.5148],[26.60044,57.51479],[26.60028,57.51476],[26.60023,57.51471],[26.60019,57.51465],[26.60012,57.5146],[26.60003,57.51455],[26.59994,57.51453],[26.59961,57.51457],[26.59921,57.51459],[26.59873,57.51459],[26.59865,57.51459],[26.59817,57.51456],[26.5978,57.51453],[26.59755,57.51448],[26.59734,57.51443],[26.5971,57.51435],[26.59694,57.51429],[26.59677,57.51421],[26.59667,57.51411],[26.59645,57.51377],[26.59638,57.51369],[26.59622,57.51362],[26.59611,57.51361],[26.59593,57.51365],[26.59579,57.5137],[26.59563,57.51378],[26.59549,57.5139],[26.59539,57.51401],[26.59522,57.5141],[26.59513,57.51418],[26.5951,57.51427],[26.59509,57.51437],[26.59511,57.51448],[26.59522,57.51467],[26.59532,57.51493],[26.5954,57.51527],[26.5954,57.51543],[26.59535,57.51559],[26.59528,57.51567],[26.59522,57.51572],[26.59513,57.51576],[26.59488,57.51585],[26.59443,57.51598],[26.59424,57.51602],[26.5941,57.51603],[26.59397,57.51601],[26.59368,57.51595],[26.59303,57.51583],[26.59286,57.51582],[26.59264,57.51582],[26.59206,57.51586],[26.5919,57.51589],[26.59122,57.51593],[26.59094,57.51593],[26.59071,57.51591],[26.59061,57.51592],[26.59046,57.51597],[26.59006,57.51626],[26.5894,57.51666],[26.58894,57.51692],[26.58866,57.51711],[26.58859,57.51716],[26.58857,57.51722],[26.58858,57.51728],[26.58868,57.51738],[26.58872,57.51744],[26.58875,57.51752],[26.58876,57.51769],[26.58873,57.51792],[26.58873,57.51799],[26.58877,57.51811],[26.58882,57.51822],[26.58893,57.51832],[26.58924,57.51856],[26.58951,57.5187],[26.58975,57.51878],[26.5903,57.51899],[26.59054,57.51907],[26.59064,57.51907],[26.59083,57.51909],[26.59104,57.51909],[26.59141,57.51907],[26.59152,57.51908],[26.59166,57.51911],[26.59171,57.51915],[26.59178,57.51918],[26.59183,57.51923],[26.59182,57.51954],[26.59179,57.51966],[26.59184,57.51975],[26.59193,57.51984],[26.592,57.51991],[26.59213,57.51998],[26.59221,57.51999],[26.59247,57.52],[26.59258,57.52003],[26.59267,57.52009],[26.59267,57.52014],[26.59263,57.5202],[26.59253,57.52029],[26.59208,57.52061],[26.59161,57.52091],[26.59129,57.52114],[26.59089,57.52141],[26.59079,57.52154],[26.5907,57.5216],[26.59037,57.52179],[26.5902,57.52191],[26.59007,57.52207],[26.58999,57.5222],[26.58979,57.52244],[26.58974,57.52257],[26.58977,57.52263],[26.58984,57.52269],[26.59003,57.52279],[26.5903,57.52289],[26.59091,57.52303],[26.59118,57.52311],[26.59134,57.52319],[26.59144,57.52327],[26.59149,57.52336],[26.5915,57.5234],[26.59149,57.52345],[26.59135,57.52354],[26.59124,57.52359],[26.59093,57.52366],[26.59082,57.52366],[26.5907,57.52364],[26.5905,57.52367],[26.59041,57.52371],[26.59036,57.52375],[26.59036,57.52382],[26.59038,57.52386],[26.59045,57.52389],[26.59064,57.52393],[26.59079,57.52394],[26.5911,57.52393],[26.59128,57.52388],[26.59162,57.52385],[26.59176,57.52385],[26.59183,57.52388],[26.59186,57.52393],[26.59183,57.52404],[26.59179,57.52412],[26.59172,57.52444],[26.59166,57.52455],[26.59153,57.52467],[26.59139,57.52475],[26.59118,57.5249],[26.59103,57.52503],[26.5909,57.52512],[26.59077,57.52518],[26.59056,57.52525],[26.59044,57.52531],[26.59038,57.52535],[26.59025,57.5254],[26.59017,57.52541],[26.59008,57.5254],[26.58994,57.52537],[26.58972,57.52528],[26.58962,57.52524],[26.58934,57.52517],[26.58923,57.52515],[26.58899,57.52514],[26.58884,57.52515],[26.58871,57.52517],[26.58866,57.52522],[26.58867,57.52527],[26.58864,57.52533],[26.58856,57.52539],[26.58842,57.52545],[26.58826,57.52548],[26.58767,57.52574],[26.58746,57.5258],[26.58732,57.5259],[26.58726,57.52599],[26.58715,57.52619],[26.58711,57.52634],[26.5871,57.52642],[26.58712,57.52649],[26.58729,57.52666],[26.58747,57.52676],[26.58751,57.52683],[26.58775,57.52704],[26.58821,57.52741],[26.58833,57.52748],[26.5891,57.52781],[26.58913,57.52788],[26.58909,57.52798],[26.58905,57.52803],[26.58878,57.5282],[26.58836,57.52859],[26.58821,57.52869],[26.58797,57.52882],[26.58777,57.52892],[26.58685,57.52931],[26.58665,57.52937],[26.5864,57.52943],[26.58631,57.52946],[26.58624,57.5295],[26.5862,57.52955],[26.58609,57.52977],[26.58605,57.52993],[26.58615,57.53014],[26.58626,57.53024],[26.58635,57.5303],[26.58645,57.5304],[26.58645,57.53045],[26.58644,57.53056],[26.58636,57.5307],[26.58625,57.53081],[26.58624,57.53087],[26.58624,57.53093],[26.58632,57.53103],[26.5864,57.53107],[26.58648,57.53111],[26.58665,57.53116],[26.58687,57.53123],[26.58713,57.53127],[26.58728,57.53127],[26.5874,57.53123],[26.5875,57.53118],[26.58753,57.53118],[26.58756,57.5312],[26.58765,57.53137],[26.58766,57.53148],[26.58762,57.53159],[26.58751,57.53166],[26.5874,57.53171],[26.5873,57.53174],[26.58715,57.53181],[26.58704,57.53188],[26.58696,57.53194],[26.58691,57.53203],[26.5869,57.53212],[26.58692,57.53221],[26.58697,57.5323],[26.58709,57.53241],[26.58733,57.5326],[26.58769,57.53284],[26.58778,57.53287],[26.58787,57.53288],[26.5879,57.53293],[26.58795,57.53298],[26.58802,57.53314],[26.58802,57.53323],[26.58799,57.53332],[26.58793,57.5334],[26.58791,57.53348],[26.58792,57.5337],[26.58796,57.53426],[26.58794,57.53442],[26.5879,57.53456],[26.58789,57.53467],[26.58792,57.5348],[26.58798,57.53493],[26.58811,57.53516],[26.58828,57.53533],[26.58842,57.5354],[26.58854,57.53549],[26.58862,57.53552],[26.5887,57.53553],[26.5888,57.53561],[26.5889,57.53575],[26.58895,57.53612],[26.58893,57.53643],[26.58889,57.53663],[26.58882,57.53677],[26.58874,57.53687],[26.58856,57.53705],[26.58819,57.53735],[26.58806,57.53744],[26.58801,57.53745],[26.58783,57.53746],[26.58765,57.53746],[26.58727,57.53743],[26.58713,57.53741],[26.58702,57.53737],[26.58691,57.53732],[26.58682,57.5373],[26.58671,57.53729],[26.58661,57.53731],[26.58651,57.53735],[26.58642,57.53744],[26.58635,57.53755],[26.58631,57.53763],[26.5863,57.5377],[26.58635,57.53778],[26.58659,57.53802],[26.58664,57.53814],[26.58664,57.53823],[26.58662,57.53829],[26.58655,57.53837],[26.58643,57.53843],[26.58628,57.5385],[26.58602,57.53858],[26.58583,57.53862],[26.5857,57.53867],[26.5856,57.53873],[26.58554,57.53878],[26.58544,57.53898],[26.58544,57.53908],[26.58547,57.53917],[26.58547,57.5393],[26.58549,57.53939],[26.58547,57.53945],[26.58536,57.53961],[26.58531,57.53973],[26.58525,57.53978],[26.58503,57.53985],[26.58488,57.53988],[26.58474,57.53987],[26.58457,57.53983],[26.58445,57.53978],[26.58427,57.53969],[26.5841,57.53958],[26.58397,57.53953],[26.5836,57.53941],[26.58349,57.53933],[26.5833,57.53926],[26.58307,57.53921],[26.58298,57.53918],[26.58302,57.53897],[26.58301,57.53873],[26.58322,57.53857],[26.58351,57.5386],[26.5837,57.53866],[26.58379,57.53861],[26.58376,57.53838],[26.58337,57.53813],[26.5831,57.53822],[26.5827,57.53822],[26.58222,57.53801],[26.58223,57.53781],[26.58185,57.53779],[26.58169,57.53766],[26.58125,57.53775],[26.58095,57.53772],[26.58052,57.53742],[26.57967,57.53735],[26.57939,57.53707],[26.57939,57.53695],[26.5789,57.53672],[26.57859,57.53651],[26.57865,57.53641],[26.57931,57.53598],[26.57932,57.53588],[26.57905,57.53578],[26.57905,57.53562],[26.57935,57.53549],[26.57948,57.53528],[26.5796,57.53487],[26.57983,57.5346],[26.57979,57.53449],[26.57929,57.53448],[26.57923,57.53442],[26.57945,57.53435],[26.57938,57.53426],[26.57945,57.53393],[26.57926,57.53372],[26.579,57.53368],[26.57861,57.53384],[26.57839,57.53377],[26.57803,57.53379],[26.57779,57.53373],[26.57771,57.53364],[26.57774,57.53356],[26.57746,57.53343],[26.57706,57.53314],[26.57673,57.53307],[26.57644,57.53309],[26.5761,57.53338],[26.57581,57.53346],[26.57549,57.53345],[26.57541,57.53339],[26.57539,57.53323],[26.57454,57.53291],[26.57428,57.53295],[26.57384,57.53277],[26.5736,57.53254],[26.57327,57.53249],[26.57299,57.53258],[26.57279,57.53261],[26.5725,57.5325],[26.57236,57.53253],[26.5723,57.53266],[26.57212,57.53266],[26.57207,57.53278],[26.57181,57.53287],[26.57151,57.5328],[26.57135,57.53271],[26.57135,57.53257],[26.57161,57.53235],[26.57156,57.53225],[26.57133,57.53215],[26.57099,57.53218],[26.57082,57.53229],[26.57048,57.53246],[26.57038,57.53243],[26.57034,57.5322],[26.57026,57.53217],[26.56989,57.53218],[26.5695,57.5319],[26.56918,57.53186],[26.5691,57.5319],[26.56911,57.53204],[26.56886,57.53209],[26.56869,57.53203],[26.56878,57.53188],[26.56867,57.53179],[26.56816,57.53179],[26.56796,57.53184],[26.56777,57.53179],[26.56766,57.53171],[26.56781,57.53163],[26.56781,57.53152],[26.56746,57.53123],[26.56726,57.53117],[26.5669,57.53122],[26.56654,57.53121],[26.56635,57.53113],[26.56629,57.53102],[26.56618,57.53086],[26.56599,57.5309],[26.56596,57.53099],[26.56581,57.53101],[26.56514,57.53089],[26.56508,57.5308],[26.56552,57.53062],[26.56544,57.53029],[26.56529,57.53028],[26.56516,57.53034],[26.56494,57.53031],[26.56503,57.53017],[26.56482,57.53008],[26.56468,57.53007],[26.56461,57.53015],[26.56436,57.53012],[26.56409,57.53002],[26.56416,57.5298],[26.56429,57.52973],[26.56431,57.52956],[26.5639,57.52941],[26.56356,57.52945],[26.56327,57.5294],[26.56316,57.5293],[26.5632,57.52921],[26.56343,57.5291],[26.56379,57.529],[26.56386,57.52886],[26.56383,57.52877],[26.56366,57.52872],[26.5635,57.52874],[26.5634,57.52883],[26.56326,57.52883],[26.56318,57.52878],[26.56318,57.52869],[26.56297,57.52859],[26.56281,57.52857],[26.56249,57.5286],[26.56227,57.52864],[26.56203,57.52873],[26.56193,57.52869],[26.56195,57.52859],[26.56167,57.52842],[26.56132,57.52838],[26.56103,57.5278],[26.5613,57.52703],[26.56136,57.52649],[26.56193,57.52617],[26.5613,57.52502],[26.56056,57.5244],[26.56062,57.52431],[26.56099,57.52418],[26.5609,57.52362],[26.5608,57.52337],[26.56111,57.52264],[26.5621,57.52223],[26.56322,57.52227],[26.56334,57.52201],[26.56358,57.5218],[26.56393,57.52162],[26.56477,57.5212],[26.56477,57.52056],[26.56618,57.51954],[26.56543,57.51882],[26.56472,57.5188],[26.5636,57.51804],[26.5638,57.51754],[26.56328,57.51655],[26.56195,57.51569],[26.56142,57.51572],[26.55741,57.51394],[26.52493,57.51627],[26.49977,57.52455],[26.49217,57.54267],[26.49096,57.5454],[26.48872,57.54881],[26.46949,57.57556],[26.40157,57.57224],[26.34501,57.58405],[26.33558,57.57977],[26.33512,57.57962],[26.33474,57.58002],[26.3343,57.58035],[26.33391,57.58059],[26.33333,57.58072],[26.33262,57.58058],[26.33215,57.58059],[26.33096,57.58091],[26.33027,57.58095],[26.33006,57.58092],[26.32977,57.58073],[26.32875,57.5796],[26.32837,57.5794],[26.32785,57.5794],[26.3276,57.57952],[26.32752,57.57975],[26.32735,57.58019],[26.32753,57.58096],[26.32784,57.58135],[26.32779,57.58181],[26.32744,57.58224],[26.32675,57.58272],[26.32608,57.5831],[26.3253,57.58334],[26.32391,57.58368],[26.32224,57.5837],[26.32143,57.58369],[26.31873,57.58442],[26.3173,57.58463],[26.31612,57.58475],[26.31488,57.58474],[26.31418,57.58458],[26.31392,57.58433],[26.31375,57.58408],[26.31336,57.58406],[26.31234,57.58422],[26.31206,57.58439],[26.31198,57.5848],[26.31111,57.5854],[26.31106,57.58554],[26.31121,57.58572],[26.31342,57.58607],[26.31451,57.58612],[26.31506,57.58622],[26.31586,57.58644],[26.31619,57.58663],[26.31662,57.58698],[26.31681,57.5877],[26.31662,57.58805],[26.31594,57.58828],[26.31453,57.58837],[26.31359,57.5882],[26.31296,57.58797],[26.31272,57.58772],[26.31262,57.58745],[26.31294,57.58677],[26.31284,57.58653],[26.31213,57.58639],[26.31174,57.58645],[26.3114,57.58664],[26.31125,57.58692],[26.31129,57.58716],[26.31127,57.58739],[26.31072,57.58825],[26.31048,57.5888],[26.30967,57.58953],[26.30942,57.59001],[26.30946,57.59035],[26.30969,57.59061],[26.31024,57.59087],[26.3108,57.59182],[26.31143,57.59242],[26.31143,57.59287],[26.31122,57.59301],[26.31099,57.59307],[26.31046,57.59309],[26.30968,57.59312],[26.30833,57.59323],[26.30762,57.59337],[26.30706,57.59356],[26.30663,57.59365],[26.30281,57.59376],[26.30082,57.59364],[26.29846,57.59326],[26.29593,57.59264],[26.29378,57.5919],[26.29233,57.59152],[26.29073,57.59138],[26.28928,57.59138],[26.28707,57.59171],[26.28598,57.59193],[26.28515,57.59216],[26.28431,57.59249],[26.28372,57.59284],[26.28349,57.59305],[26.28337,57.59333],[26.28343,57.59377],[26.28357,57.594],[26.28426,57.59468],[26.28446,57.59533],[26.28438,57.59554],[26.2839,57.59578],[26.28196,57.5963],[26.28145,57.59635],[26.28082,57.59629],[26.28041,57.59616],[26.27953,57.59547],[26.27911,57.59531],[26.2786,57.59522],[26.27815,57.59524],[26.27778,57.59534],[26.27755,57.59549],[26.27737,57.59587],[26.27747,57.59689],[26.27738,57.59704],[26.27669,57.59739],[26.2763,57.59751],[26.27547,57.59749],[26.27478,57.59745],[26.27436,57.59748],[26.27393,57.59763],[26.27357,57.59783],[26.27302,57.5984],[26.27278,57.59875],[26.27161,57.59939],[26.27117,57.59968],[26.27097,57.59986],[26.27096,57.60017],[26.2713,57.6005],[26.27214,57.60069],[26.2728,57.60079],[26.27394,57.60082],[26.27419,57.60083],[26.27435,57.60094],[26.27436,57.60118],[26.27418,57.60134],[26.2734,57.60152],[26.27293,57.60168],[26.27239,57.60214],[26.27229,57.60241],[26.2723,57.60272],[26.27223,57.6029],[26.27177,57.60324],[26.27151,57.60354],[26.27101,57.60461],[26.27084,57.60476],[26.27008,57.60492],[26.26978,57.60505],[26.26828,57.60619],[26.26806,57.60654],[26.26772,57.60759],[26.26774,57.60808],[26.26684,57.60915],[26.26598,57.60982],[26.26473,57.61015],[26.26358,57.61028],[26.26333,57.61033],[26.26286,57.61066],[26.26239,57.61137],[26.26207,57.61223],[26.26192,57.61244],[26.26113,57.61302],[26.26086,57.61315],[26.25951,57.61336],[26.2588,57.61335],[26.25794,57.6132],[26.2576,57.61316],[26.2571,57.61318],[26.25647,57.61329],[26.25552,57.61366],[26.25501,57.61397],[26.25479,57.6143],[26.25469,57.61487],[26.25471,57.61534],[26.25487,57.61579],[26.2551,57.61594],[26.25573,57.61629],[26.25667,57.6167],[26.25688,57.6169],[26.25691,57.61722],[26.2565,57.618],[26.25612,57.61827],[26.25551,57.6184],[26.25507,57.61836],[26.25363,57.61803],[26.25281,57.61791],[26.25249,57.61791],[26.25215,57.61795],[26.25187,57.6181],[26.25174,57.61841],[26.25182,57.61857],[26.25252,57.61905],[26.25293,57.61922],[26.25384,57.61969],[26.25482,57.61991],[26.2561,57.62032],[26.25642,57.62048],[26.25658,57.62071],[26.25649,57.62104],[26.25608,57.62139],[26.2551,57.62172],[26.25433,57.62182],[26.25355,57.62178],[26.2529,57.62159],[26.25257,57.62137],[26.2524,57.62113],[26.25219,57.62058],[26.25195,57.62033],[26.25157,57.62018],[26.24968,57.61999],[26.24879,57.62003],[26.24805,57.62016],[26.24749,57.62042],[26.24715,57.62087],[26.24723,57.62121],[26.24789,57.6219],[26.24869,57.62232],[26.24965,57.62253],[26.25022,57.62302],[26.25017,57.62335],[26.24832,57.62494],[26.2482,57.62519],[26.24832,57.62551],[26.24864,57.62577],[26.24964,57.62597],[26.24999,57.62597],[26.25045,57.6259],[26.25096,57.62571],[26.25169,57.62527],[26.25224,57.6251],[26.25288,57.62511],[26.25338,57.6252],[26.2537,57.62532],[26.25392,57.62561],[26.25396,57.62578],[26.25387,57.62603],[26.25288,57.6265],[26.25236,57.62686],[26.25207,57.62699],[26.25142,57.627],[26.25021,57.62726],[26.24912,57.6278],[26.24613,57.62952],[26.24371,57.63134],[26.24174,57.63245],[26.24114,57.63289],[26.24074,57.63331],[26.24033,57.63407],[26.24042,57.63451],[26.24076,57.63482],[26.24177,57.63516],[26.24401,57.63534],[26.24523,57.63528],[26.24646,57.63496],[26.24696,57.63487],[26.24731,57.63491],[26.24769,57.63518],[26.24777,57.63546],[26.24694,57.63737],[26.24618,57.63945],[26.24407,57.6411],[26.24284,57.64278],[26.24214,57.64406],[26.24187,57.64472],[26.24114,57.64546],[26.2408,57.64596],[26.24045,57.64624],[26.24006,57.64644],[26.23896,57.64665],[26.23818,57.64669],[26.23714,57.64666],[26.23656,57.64661],[26.23521,57.64636],[26.2345,57.64632],[26.2339,57.64632],[26.23317,57.64643],[26.23266,57.64657],[26.23205,57.64692],[26.23175,57.64736],[26.23165,57.64782],[26.23169,57.64819],[26.23188,57.64858],[26.23216,57.64878],[26.23265,57.64895],[26.23329,57.64913],[26.23624,57.64974],[26.23753,57.65011],[26.23881,57.65034],[26.24093,57.6504],[26.24203,57.65057],[26.24277,57.65083],[26.24303,57.65104],[26.24324,57.65126],[26.24328,57.65152],[26.2432,57.65173],[26.24296,57.65195],[26.2424,57.65223],[26.24072,57.65404],[26.23959,57.6546],[26.23867,57.65513],[26.23808,57.65565],[26.23846,57.65609],[26.23844,57.65653],[26.23887,57.65668],[26.23921,57.65689],[26.23974,57.65763],[26.23974,57.65804],[26.2396,57.65819],[26.23929,57.65833],[26.23894,57.65831],[26.23791,57.65809],[26.23661,57.6579],[26.23564,57.65787],[26.23387,57.65794],[26.23262,57.65813],[26.23142,57.65841],[26.22951,57.65863],[26.22823,57.65885],[26.2268,57.65942],[26.22579,57.66003],[26.2237,57.66118],[26.22213,57.66178],[26.22103,57.6624],[26.22031,57.66286],[26.21804,57.66386],[26.21649,57.66436],[26.21574,57.66453],[26.21466,57.66488],[26.21354,57.6652],[26.21259,57.66554],[26.21201,57.66592],[26.21187,57.66615],[26.2119,57.66662],[26.21254,57.66715],[26.21341,57.66771],[26.21397,57.6679],[26.21427,57.66806],[26.21449,57.66837],[26.21467,57.66868],[26.2147,57.66899],[26.21464,57.66922],[26.21429,57.66955],[26.21235,57.6702],[26.21209,57.67071],[26.21184,57.67155],[26.21196,57.67283],[26.21184,57.67361],[26.21178,57.67437],[26.21092,57.67624],[26.21089,57.67655],[26.21094,57.67692],[26.21134,57.67753],[26.21242,57.67823],[26.21291,57.67871],[26.21292,57.67891],[26.21268,57.67918],[26.21198,57.67951],[26.21142,57.67962],[26.21065,57.67959],[26.20938,57.67974],[26.20793,57.68016],[26.20571,57.68053],[26.20489,57.68059],[26.20387,57.68063],[26.20266,57.68071],[26.20159,57.68099],[26.20078,57.68145],[26.20032,57.6818],[26.20003,57.68224],[26.19996,57.6825],[26.20008,57.68302],[26.20013,57.68354],[26.19998,57.68368],[26.19952,57.68392],[26.19884,57.6841],[26.1967,57.68502],[26.19565,57.68538],[26.19457,57.68544],[26.1923,57.68558],[26.19153,57.68558],[26.19048,57.68553],[26.18867,57.68533],[26.18711,57.68511],[26.18648,57.6851],[26.18493,57.68528],[26.18405,57.68562],[26.18322,57.68612],[26.18294,57.68623],[26.18126,57.68657],[26.18045,57.68683],[26.17964,57.68726],[26.17928,57.68755],[26.17919,57.68775],[26.17917,57.68797],[26.17918,57.68808],[26.17936,57.68837],[26.17963,57.68868],[26.18057,57.68919],[26.18163,57.68973],[26.18202,57.68995],[26.18239,57.6903],[26.18264,57.69062],[26.18272,57.69085],[26.18267,57.69134],[26.18255,57.69152],[26.18237,57.69164],[26.18274,57.69174],[26.18395,57.69165],[26.18846,57.69449],[26.19868,57.70916],[26.20577,57.71499],[26.20418,57.71566],[26.19761,57.72008],[26.19302,57.72193],[26.1924,57.72186],[26.19074,57.72197],[26.18617,57.72333],[26.18232,57.72522],[26.18048,57.72677],[26.17883,57.72744],[26.17351,57.72921],[26.17186,57.72951],[26.14291,57.73321],[26.14306,57.73392],[26.13647,57.74118],[26.14094,57.74466],[26.1351,57.75199],[26.10798,57.75621],[26.07931,57.76655],[26.07828,57.76509],[26.07365,57.76518],[26.06935,57.76692],[26.05888,57.76133],[26.04996,57.76234],[26.04481,57.76779],[26.03391,57.77159],[26.0285,57.7704],[26.02421,57.76866],[26.02052,57.77195],[26.02404,57.77282],[26.02617,57.77416],[26.02659,57.77434],[26.02685,57.77447],[26.02706,57.77465],[26.0271,57.77472],[26.02711,57.77476],[26.02708,57.77481],[26.02634,57.7754],[26.02615,57.77561],[26.02607,57.77578],[26.02597,57.77607],[26.02593,57.77624],[26.02594,57.77635],[26.02597,57.77642],[26.02593,57.7765],[26.02581,57.77659],[26.02578,57.77667],[26.02579,57.77678],[26.0259,57.77686],[26.02589,57.77702],[26.0259,57.77718],[26.02596,57.77734],[26.02642,57.77769],[26.02657,57.77784],[26.02665,57.77798],[26.02676,57.77803],[26.02701,57.77808],[26.0266,57.77882],[26.02664,57.77926],[26.02667,57.77953],[26.02669,57.77959],[26.02678,57.78015],[26.02738,57.78063],[26.02678,57.78123],[26.02738,57.78151],[26.02466,57.78319],[26.0273,57.78545],[26.02721,57.78674],[26.0291,57.78761],[26.02876,57.78907],[26.03262,57.78976],[26.03519,57.79991],[26.03854,57.80604],[26.03811,57.81057],[26.04893,57.82236],[26.05511,57.83104],[26.05442,57.83388],[26.0582,57.83762],[26.05717,57.84393],[26.05751,57.84722],[26.05682,57.84859],[26.03622,57.85023],[26.02112,57.84658],[26.01047,57.8579],[25.99859,57.85903],[25.99153,57.856],[25.97955,57.85121],[25.96193,57.8459],[25.93173,57.85334],[25.89602,57.85073],[25.8881,57.84685],[25.88358,57.84902],[25.88327,57.84964],[25.88674,57.85247],[25.88592,57.85636],[25.88567,57.85651],[25.87952,57.85758],[25.87642,57.85903],[25.87651,57.86435],[25.87568,57.86496],[25.86601,57.86048],[25.85885,57.85718],[25.85523,57.85777],[25.85115,57.85912],[25.84323,57.86058],[25.82024,57.86494],[25.80842,57.87628],[25.78512,57.89924],[25.78836,57.90464],[25.77287,57.91255],[25.75661,57.91666],[25.75198,57.91776],[25.73742,57.92417],[25.72689,57.92269],[25.71899,57.91175],[25.70251,57.90317],[25.67985,57.90445],[25.67814,57.91229],[25.66129,57.91539],[25.65572,57.91455],[25.64879,57.91662],[25.64989,57.9184],[25.64722,57.92254],[25.64598,57.92373],[25.63867,57.93073],[25.58044,57.94419],[25.58558,57.94753],[25.58688,57.9504],[25.58899,57.95282],[25.59205,57.95592],[25.59181,57.95786],[25.59433,57.95958],[25.57377,57.97389],[25.56519,57.9677],[25.56553,57.96223],[25.55729,57.96041],[25.5518,57.97225],[25.5257,57.97188],[25.52227,57.96678],[25.51231,57.96952],[25.52227,57.97425],[25.51849,57.98008],[25.48584,57.9748],[25.47856,57.98026],[25.47865,57.98253],[25.46122,57.98938],[25.45848,57.99154],[25.45138,57.99227],[25.44307,57.99594],[25.44334,57.99602],[25.44345,57.99597],[25.44347,57.99586],[25.44359,57.99583],[25.44385,57.99589],[25.44405,57.996],[25.4441,57.99607],[25.44401,57.99615],[25.444,57.99625],[25.44427,57.99644],[25.44435,57.99659],[25.4446,57.99671],[25.44491,57.9969],[25.44538,57.99714],[25.44545,57.99726],[25.44547,57.99743],[25.44591,57.99757],[25.44602,57.9977],[25.446,57.99789],[25.4459,57.99805],[25.44595,57.99829],[25.44603,57.99859],[25.44599,57.99878],[25.44606,57.99914],[25.44633,57.99926],[25.44648,57.99927],[25.44689,57.99925],[25.44735,57.99922],[25.44747,57.99926],[25.4475,57.99933],[25.44731,57.99938],[25.44721,57.9995],[25.44728,57.99958],[25.44759,57.99961],[25.44771,57.99968],[25.44771,57.99976],[25.44756,57.99984],[25.44745,57.99988],[25.4474,57.99997],[25.44744,58.00015],[25.4476,58.00036],[25.4476,58.0005],[25.44775,58.00058],[25.44786,58.00069],[25.44835,58.0008],[25.44849,58.00079],[25.44863,58.00074],[25.44875,58.00071],[25.4488,58.00064],[25.44876,58.00053],[25.44876,58.00038],[25.44865,58.00021],[25.4487,58.00018],[25.44893,58.00014],[25.44914,58.00007],[25.4493,58.00007],[25.44948,58.00014],[25.44989,58.00017],[25.45021,58.00024],[25.45067,58.00037],[25.45084,58.0005],[25.45087,58.00061],[25.45083,58.00074],[25.45067,58.00082],[25.45028,58.00091],[25.45016,58.00095],[25.45014,58.00107],[25.45,58.00119],[25.45004,58.00133],[25.45016,58.00144],[25.4504,58.00153],[25.45064,58.00158],[25.45114,58.00162],[25.45168,58.00166],[25.45191,58.00174],[25.45211,58.00174],[25.45234,58.00171],[25.45248,58.00166],[25.45254,58.00157],[25.45254,58.00138],[25.45266,58.0013],[25.45293,58.00124],[25.4532,58.00124],[25.45361,58.00132],[25.45383,58.00143],[25.45393,58.00155],[25.45391,58.00164],[25.45371,58.00174],[25.45341,58.00175],[25.45319,58.00181],[25.45311,58.00191],[25.45315,58.00203],[25.45336,58.00212],[25.45423,58.00221],[25.4545,58.00227],[25.45467,58.00234],[25.45482,58.00234],[25.45549,58.00223],[25.45625,58.00204],[25.45639,58.00205],[25.45647,58.0021],[25.45665,58.00244],[25.45674,58.0025],[25.45698,58.00257],[25.45708,58.00263],[25.45717,58.00266],[25.45731,58.00264],[25.45745,58.00244],[25.45775,58.00214],[25.45787,58.00206],[25.45804,58.00202],[25.4584,58.00203],[25.4585,58.00211],[25.45855,58.00222],[25.45858,58.00238],[25.4587,58.00255],[25.45898,58.00267],[25.45919,58.00274],[25.45954,58.00277],[25.45995,58.00278],[25.46018,58.00282],[25.46032,58.00289],[25.46053,58.00295],[25.46082,58.00293],[25.46107,58.00282],[25.46126,58.0028],[25.4614,58.00283],[25.46152,58.00287],[25.46174,58.00302],[25.462,58.00325],[25.46217,58.00338],[25.4624,58.00346],[25.46264,58.00349],[25.46299,58.00346],[25.46373,58.00353],[25.46393,58.00359],[25.46407,58.00366],[25.46414,58.00375],[25.46422,58.00399],[25.4643,58.00409],[25.46454,58.00426],[25.46461,58.00433],[25.46473,58.00449],[25.46492,58.00459],[25.46519,58.00458],[25.46534,58.00463],[25.46536,58.0047],[25.46527,58.00479],[25.46565,58.00498],[25.46583,58.00498],[25.46598,58.00491],[25.46605,58.00485],[25.46617,58.00484],[25.46637,58.00488],[25.46647,58.00492],[25.46656,58.00493],[25.46662,58.00499],[25.46661,58.00506],[25.46646,58.00511],[25.46643,58.00516],[25.46649,58.00519],[25.46666,58.00519],[25.46683,58.00519],[25.46504,58.00748],[25.45678,58.01138],[25.44857,58.01707],[25.43721,58.0203],[25.4307,58.02173],[25.42858,58.02359],[25.41116,58.02768],[25.40832,58.02914],[25.37618,58.02968],[25.37214,58.02876],[25.36386,58.03139],[25.35729,58.03882],[25.35338,58.04358],[25.34501,58.0469],[25.34124,58.05258],[25.33601,58.05724],[25.32952,58.05875],[25.32613,58.06391],[25.32001,58.06605],[25.31873,58.0695],[25.31471,58.07105],[25.30492,58.0772],[25.29567,58.08145],[25.28683,58.08161],[25.28119,58.07],[25.26607,58.06722],[25.26489,58.06008],[25.27954,58.05068],[25.29333,58.04642],[25.29809,58.04215],[25.30376,58.03425],[25.30346,58.02715],[25.30061,58.01538],[25.29715,58.01465],[25.3003,58.00634],[25.30158,58.00305],[25.30234,58.00045],[25.30237,57.99997],[25.29579,57.99983],[25.29588,57.99789],[25.29661,57.99705],[25.2985,57.99587],[25.30258,57.994],[25.30141,57.99311],[25.29219,57.99297],[25.28283,57.98963],[25.27695,57.99289],[25.26744,57.99459],[25.25627,57.99384],[25.25628,58.00047],[25.25644,58.00106],[25.25602,58.00295],[25.25424,58.00407],[25.25084,58.00371],[25.24586,58.00295],[25.2385,58.00931],[25.23811,58.01008],[25.23708,58.01112],[25.23603,58.01192],[25.23232,58.01401],[25.23125,58.01475],[25.23044,58.01547],[25.22839,58.01806],[25.23329,58.01764],[25.24605,58.01861],[25.24458,58.02119],[25.24085,58.0208],[25.24036,58.02229],[25.23607,58.02253],[25.23647,58.02438],[25.23121,58.02484],[25.22703,58.02446],[25.22696,58.02309],[25.2255,58.02175],[25.21981,58.02924],[25.21946,58.03022],[25.21693,58.03966],[25.21733,58.04126],[25.22185,58.04535],[25.22568,58.04696],[25.22843,58.05068],[25.2283,58.05349],[25.22191,58.05316],[25.22145,58.05034],[25.21753,58.04932],[25.21693,58.05073],[25.21699,58.05214],[25.21723,58.05294],[25.21727,58.05397],[25.21654,58.05618],[25.21625,58.05963],[25.21401,58.06124],[25.21305,58.06161],[25.21295,58.0621],[25.2118,58.0621],[25.21129,58.06238],[25.20808,58.06212],[25.20637,58.06176],[25.20549,58.0613],[25.20473,58.06339],[25.20373,58.06504],[25.21659,58.07406],[25.21217,58.0808],[25.20653,58.08329],[25.19945,58.08557],[25.19546,58.08361],[25.18942,58.07994],[25.19076,58.07872],[25.19124,58.07601],[25.1539,58.07474],[25.15179,58.07703],[25.13448,58.07975],[25.12635,58.07943],[25.10588,58.07782],[25.10462,58.06635],[25.07835,58.06626],[25.02136,58.01828],[24.9884,58.01137],[24.94652,58.00846],[24.87099,57.98226],[24.83253,57.97279],[24.80713,57.99027],[24.74327,57.98117],[24.74258,57.96515],[24.71443,57.96296],[24.68971,57.94729],[24.67478,57.95941],[24.64474,57.95895],[24.64148,57.9544],[24.6456,57.95303],[24.62894,57.94201],[24.61658,57.94301],[24.61229,57.94629],[24.61126,57.95094],[24.58431,57.96178],[24.57367,57.95476],[24.54895,57.94994],[24.5438,57.94556],[24.53093,57.94693],[24.52028,57.94365],[24.51754,57.93618],[24.51015,57.93472],[24.51393,57.93062],[24.46233,57.92496],[24.44612,57.90837],[24.45951,57.90628],[24.45213,57.89962],[24.45951,57.88],[24.41214,57.86472],[24.41134,57.86453],[24.40933,57.87168],[24.36635,57.87598],[24.36564,57.876],[24.36184,57.8747],[24.35678,57.87452],[24.35322,57.87611],[24.32498,57.88869],[24.32789,57.89814],[24.33033,57.9101],[24.33383,57.92133],[24.38111,57.98383],[24.39829,58.02326],[24.44654,58.05451],[24.46412,58.07217],[24.46412,58.12055],[24.47145,58.14248],[24.47291,58.15473],[24.46754,58.16527],[24.45981,58.17451],[24.45509,58.18525],[24.45484,58.19644],[24.46754,58.21784],[24.46811,58.22883],[24.46762,58.23981],[24.47096,58.25092],[24.49147,58.26569],[24.5215,58.27611],[24.54851,58.28929],[24.56039,58.31232],[24.55104,58.33373],[24.52882,58.35065],[24.44418,58.38614],[24.40317,58.39533],[24.36183,58.39728],[24.327,58.38813],[24.31593,58.37995],[24.30454,58.36807],[24.29575,58.35497],[24.29225,58.34309],[24.29078,58.32754],[24.28688,58.31855],[24.25587,58.28954],[24.24334,58.28022],[24.22885,58.27412],[24.21079,58.27139],[24.17416,58.2768],[24.15602,58.27684],[24.13893,58.26797],[24.12086,58.24518],[24.11166,58.24103],[24.09409,58.2447],[24.08351,58.25088],[24.05323,58.27827],[24.00709,58.30052],[23.98024,58.31843],[23.91383,58.33332],[23.87371,58.33519],[23.85467,58.33967],[23.84946,58.34276],[23.83839,58.35139],[23.83351,58.35395],[23.82447,58.35456],[23.81837,58.35175],[23.81284,58.34829],[23.80568,58.3465],[23.79664,58.34882],[23.78688,58.3531],[23.77711,58.35497],[23.76808,58.35025],[23.76206,58.34439],[23.75563,58.34003],[23.74855,58.33906],[23.74098,58.34309],[23.73487,58.35139],[23.72926,58.36286],[23.72527,58.3749],[23.72364,58.38471],[23.71892,58.39956],[23.70753,58.40738],[23.69418,58.41315],[23.68336,58.42219],[23.67742,58.43525],[23.6775,58.44554],[23.68336,58.47004],[23.68434,58.49966],[23.67897,58.52416],[23.66383,58.5362],[23.63494,58.52839],[23.62241,58.52912],[23.6032,58.53596],[23.58432,58.54487],[23.5735,58.55195],[23.56625,58.5659],[23.56511,58.57738],[23.56121,58.58316],[23.54615,58.5799],[23.53272,58.57026],[23.52475,58.55956],[23.51637,58.55463],[23.50147,58.56249],[23.49806,58.57221],[23.5044,58.58295],[23.51352,58.59382],[23.51824,58.60375],[23.51246,58.62238],[23.50099,58.64712],[23.49318,58.67341],[23.49773,58.6966],[23.50652,58.70539],[23.51482,58.70669],[23.5359,58.70279],[23.54322,58.7049],[23.54664,58.70962],[23.54623,58.7143],[23.53004,58.72285],[23.52735,58.73615],[23.53305,58.74746],[23.54615,58.74775],[23.58448,58.73794],[23.62176,58.7414],[23.65895,58.74893],[23.69703,58.75117],[23.71664,58.74702],[23.75522,58.73359],[23.77182,58.7307],[23.8025,58.7307],[23.80543,58.73387],[23.80665,58.74095],[23.80486,58.74799],[23.79908,58.75117],[23.78338,58.75585],[23.77955,58.76642],[23.78549,58.77798],[23.79949,58.78535],[23.81617,58.78461],[23.85515,58.77326],[23.87436,58.77167],[23.84742,58.78824],[23.81568,58.79995],[23.78419,58.80097],[23.75766,58.78535],[23.73951,58.798],[23.71909,58.79906],[23.67652,58.79218],[23.60336,58.79483],[23.58033,58.79218],[23.56031,58.78583],[23.55014,58.78091],[23.54274,58.77538],[23.53663,58.77448],[23.50489,58.77912],[23.48552,58.77733],[23.42945,58.76484],[23.46656,58.80073],[23.48569,58.80964],[23.51881,58.81265],[23.52613,58.81977],[23.46363,58.86416],[23.45509,58.883],[23.42237,58.90868],[23.42205,58.9287],[23.4437,58.94404],[23.5101,58.9416],[23.53191,58.95669],[23.54916,58.95083],[23.5669,58.95014],[23.58448,58.95356],[23.61671,58.96768],[23.62485,58.9726],[23.6277,58.97915],[23.6281,58.9914],[23.62159,59.01533],[23.60548,59.03266],[23.58351,59.04474],[23.55983,59.0528],[23.57228,59.03974],[23.6019,59.02448],[23.61443,59.0113],[23.60597,59.00849],[23.58758,59.00747],[23.58033,59.00507],[23.55983,58.9914],[23.55844,58.98794],[23.5586,58.982],[23.55299,58.97089],[23.54331,58.96988],[23.53712,58.97435],[23.53199,58.98054],[23.52565,58.98395],[23.46127,58.99238],[23.43483,59.00381],[23.40838,59.02558],[23.41521,59.02497],[23.42945,59.02587],[23.43629,59.02558],[23.42921,59.04361],[23.43491,59.0561],[23.48032,59.08364],[23.49073,59.08828],[23.50123,59.08543],[23.51824,59.07331],[23.51938,59.12499],[23.48618,59.17414],[23.47088,59.21214],[23.52565,59.23041],[23.53679,59.22968],[23.55779,59.22525],[23.56967,59.22419],[23.57846,59.2263],[23.59278,59.23566],[23.61549,59.24177],[23.6277,59.25007],[23.64186,59.25739],[23.66228,59.25829],[23.71551,59.23168],[23.71852,59.23143],[23.73048,59.23041],[23.7422,59.23941],[23.74293,59.25015],[23.73601,59.25959],[23.72364,59.26508],[23.73487,59.27774],[23.75685,59.28364],[23.84539,59.28465],[23.88884,59.27875],[23.93556,59.28059],[23.98764,59.29092],[24.03859,59.29328],[24.08058,59.27131],[24.10011,59.2945],[24.09205,59.31257],[24.02817,59.35765],[24.01938,59.36726],[24.02223,59.37812],[24.03484,59.38866],[24.04819,59.39509],[24.063,59.39737],[24.08058,59.39545],[24.10865,59.38483],[24.16489,59.35407],[24.19386,59.34772],[24.22193,59.35517],[24.21339,59.37226],[24.18727,59.39069],[24.1631,59.40229],[24.18287,59.40876],[24.27125,59.4121],[24.30616,59.41909],[24.31772,59.43098],[24.3296,59.46381],[24.33383,59.47061],[24.39967,59.47883],[24.42254,59.47744],[24.44215,59.46988],[24.47828,59.44839],[24.4983,59.44383],[24.51677,59.44823],[24.5324,59.45677],[24.54819,59.46296],[24.56715,59.46003],[24.62485,59.43891],[24.64259,59.43643],[24.66049,59.44062],[24.65659,59.4499],[24.64039,59.45905],[24.62184,59.46312],[24.62184,59.47061],[24.64812,59.46922],[24.65854,59.47207],[24.66277,59.48115],[24.66627,59.49209],[24.67498,59.49604],[24.68629,59.49506],[24.69752,59.49103],[24.71559,59.4759],[24.72828,59.45856],[24.7444,59.44721],[24.77263,59.4501],[24.78419,59.45478],[24.79005,59.45893],[24.81324,59.48404],[24.81577,59.48933],[24.80681,59.50471],[24.8003,59.51056],[24.79135,59.51472],[24.78354,59.51984],[24.78012,59.52896],[24.77996,59.5384],[24.77898,59.54548],[24.7767,59.55215],[24.77263,59.55996],[24.80348,59.5705],[24.84164,59.55443],[24.90919,59.51154],[24.93442,59.50804],[25.01222,59.51838],[25.03582,59.5152],[25.07716,59.50104],[25.09783,59.49787],[25.11647,59.50312],[25.10792,59.529],[25.12208,59.5395],[25.14552,59.53913],[25.1941,59.52265],[25.40772,59.49103],[25.40943,59.49103],[25.40235,59.51431],[25.41578,59.52709],[25.44011,59.53213],[25.53321,59.53205],[25.54371,59.53514],[25.54331,59.54222],[25.53614,59.5493],[25.52573,59.55248],[25.49708,59.57087],[25.48194,59.61115],[25.47853,59.65152],[25.48487,59.66983],[25.50245,59.66226],[25.53533,59.62897],[25.55372,59.62141],[25.57504,59.61689],[25.59205,59.60602],[25.62233,59.58047],[25.64454,59.57185],[25.67677,59.56607],[25.7059,59.56928],[25.71852,59.58759],[25.71079,59.60456],[25.69557,59.61591],[25.68483,59.62865],[25.69068,59.64936],[25.68434,59.65021],[25.6753,59.65412],[25.67066,59.6555],[25.69467,59.67088],[25.72535,59.66584],[25.78053,59.63569],[25.77312,59.62824],[25.78541,59.61547],[25.79371,59.59121],[25.80738,59.58047],[25.82618,59.57526],[25.83693,59.57648],[25.84449,59.57734],[25.86134,59.58613],[25.87623,59.6009],[25.86883,59.60773],[25.88307,59.63133],[25.90447,59.62401],[25.92693,59.60529],[25.94451,59.59467],[25.96502,59.59732],[25.96705,59.60383],[25.96274,59.61254],[25.96437,59.62141],[25.9769,59.63125],[25.98854,59.63435],[26.0018,59.63264],[26.03639,59.62324],[26.07447,59.60431],[26.07838,59.60029],[26.08033,59.59467],[26.08172,59.58731],[26.09099,59.58564],[26.28004,59.58731],[26.29933,59.58422],[26.3401,59.5705],[26.4017,59.56306],[26.45769,59.54588],[26.49781,59.53998],[26.51987,59.5395],[26.53647,59.54267],[26.57032,59.55679],[26.58473,59.55996],[26.62631,59.55805],[26.66505,59.55195],[26.70232,59.54141],[26.73902,59.52582],[26.78085,59.50255],[26.82691,59.47695],[26.87574,59.46772],[26.91749,59.45417],[26.93767,59.4501],[27.11622,59.44204],[27.27508,59.44697],[27.40903,59.45189],[27.56316,59.43207],[27.71705,59.42715],[27.8733,59.40762],[27.91472,59.41454],[27.95346,59.42817],[27.98316,59.44697],[28.0156,59.4784],[28.0408,59.47469],[28.04274,59.47161],[28.04599,59.46685],[28.0482,59.46453],[28.05103,59.46329],[28.05307,59.46239],[28.05861,59.46164],[28.06514,59.4618],[28.07056,59.4615],[28.07708,59.46066],[28.08416,59.45901],[28.08921,59.45697],[28.09576,59.45365],[28.10204,59.45013],[28.10862,59.44671],[28.11048,59.4457],[28.11369,59.44391],[28.115,59.44312],[28.11895,59.44076],[28.12361,59.43754],[28.12729,59.43427],[28.13037,59.43129],[28.13213,59.42913],[28.13466,59.42464],[28.13604,59.42163],[28.13788,59.41997],[28.14129,59.41824],[28.14914,59.41565],[28.15471,59.41412],[28.16318,59.412],[28.16735,59.41024],[28.17754,59.40433],[28.18114,59.40308],[28.18587,59.40189],[28.19287,59.3993],[28.19733,59.39408],[28.20169,59.39012],[28.2042,59.38745],[28.20806,59.38421],[28.20869,59.38285],[28.20876,59.38116],[28.20832,59.37948],[28.20398,59.37667],[28.20287,59.37457],[28.20853,59.37232],[28.21,59.37083],[28.2099,59.36998],[28.20891,59.36926],[28.20597,59.36708],[28.20574,59.36629],[28.2061,59.36541],[28.2062,59.36395],[28.20581,59.36353],[28.20448,59.36336],[28.20345,59.36308],[28.20269,59.36304],[28.20126,59.36228],[28.19871,59.36112],[28.19994,59.3593],[28.20074,59.35787],[28.19863,59.35592],[28.19519,59.354],[28.19114,59.35279],[28.19069,59.35189],[28.19204,59.34686],[28.18829,59.34547],[28.18621,59.34338],[28.18267,59.33923],[28.1756,59.33712],[28.16832,59.33222],[28.16395,59.32648],[28.15909,59.3181],[28.15825,59.31627],[28.15548,59.31205],[28.15374,59.31011],[28.14818,59.3053],[28.14368,59.30245],[28.14117,59.30075],[28.13691,59.29694],[28.13451,59.29398],[28.1326,59.29234],[28.12975,59.291],[28.11994,59.29051],[28.11457,59.29116],[28.10852,59.29253],[28.10064,59.29224],[28.09434,59.29218],[28.08983,59.29222],[28.0853,59.29189],[28.0612,59.29073],[28.04759,59.29049],[28.03314,59.2886],[28.02625,59.28742],[28.01939,59.28564],[28.00473,59.27786],[27.99032,59.27525],[27.98283,59.27406],[27.97372,59.27368],[27.96458,59.27343],[27.9595,59.27207],[27.95512,59.27064],[27.94595,59.26463],[27.94031,59.26272],[27.93324,59.25874],[27.92407,59.25525],[27.91678,59.2508],[27.9112,59.24551],[27.90633,59.24333],[27.90324,59.24084],[27.9047,59.23611],[27.90223,59.23155],[27.90114,59.22757],[27.89828,59.22398],[27.89474,59.21703],[27.89692,59.21432],[27.90032,59.2106],[27.90121,59.20866],[27.8985,59.20363],[27.89295,59.19859],[27.89268,59.19733],[27.8909,59.19455],[27.88984,59.19108],[27.89055,59.18674],[27.88969,59.18521],[27.88642,59.18322],[27.88117,59.17937],[27.87253,59.17281],[27.86887,59.16715],[27.86627,59.1637],[27.86296,59.1613],[27.8577,59.15777],[27.85465,59.1555],[27.84739,59.15219],[27.84445,59.14994],[27.84104,59.14887],[27.83696,59.14809],[27.83158,59.14585],[27.8276,59.14372],[27.82454,59.14151],[27.82321,59.13707],[27.82226,59.13543],[27.81901,59.13328],[27.81331,59.13104],[27.81022,59.13004],[27.80913,59.1299],[27.80603,59.1257],[27.8043,59.12146],[27.80379,59.11364],[27.80459,59.11127],[27.80964,59.10845],[27.80991,59.10758],[27.80886,59.10611],[27.80752,59.10537],[27.80593,59.10502],[27.80395,59.10427],[27.80163,59.10354],[27.8004,59.10288],[27.80019,59.10253],[27.79888,59.10167],[27.79856,59.10101],[27.79761,59.1006],[27.79395,59.09741],[27.78866,59.09147],[27.78854,59.08791],[27.78907,59.0862],[27.78885,59.0848],[27.78827,59.08254],[27.79061,59.08032],[27.79215,59.07932],[27.79322,59.07763],[27.79292,59.07569],[27.79142,59.07329],[27.79206,59.07038],[27.79004,59.0683],[27.78254,59.06589],[27.77891,59.06318],[27.77428,59.05845],[27.77296,59.05661],[27.77022,59.05198],[27.77285,59.05066],[27.77556,59.04647],[27.77485,59.04357],[27.77214,59.03894],[27.77047,59.03646],[27.7686,59.03454],[27.76663,59.03286],[27.75908,59.03228],[27.75441,59.03147],[27.74902,59.03028],[27.74491,59.02697],[27.7437,59.01587],[27.73803,59.00994],[27.73871,59.00872],[27.74048,59.00414],[27.7412,59.00273],[27.74159,59.00122],[27.74304,58.99791],[27.74486,58.99674],[27.74648,58.99552]]],[[[24.48731,59.57852],[24.5005,59.59626],[24.51588,59.59809],[24.53093,59.58397],[24.55006,59.55777],[24.54282,59.5478],[24.51629,59.54426],[24.48911,59.55964],[24.48731,59.57852]]],[[[24.00245,58.10855],[23.97071,58.0996],[23.94337,58.11319],[23.938,58.13727],[23.95533,58.1518],[23.98422,58.15713],[24.01336,58.15351],[24.02215,58.12987],[24.00245,58.10855]]],[[[23.08326,58.59052],[23.05934,58.60346],[23.06284,58.62458],[23.07545,58.62983],[23.10613,58.62421],[23.12094,58.62832],[23.12355,58.63369],[23.13038,58.65449],[23.13461,58.66181],[23.15463,58.67593],[23.17579,58.6811],[23.19777,58.68061],[23.28834,58.66649],[23.33025,58.65306],[23.34376,58.64472],[23.34913,58.63508],[23.34815,58.62519],[23.34596,58.61567],[23.3475,58.60716],[23.35564,58.59833],[23.37403,58.58637],[23.3816,58.5799],[23.39715,58.56367],[23.40024,58.55541],[23.37989,58.54755],[23.37159,58.53876],[23.36215,58.53246],[23.34693,58.53547],[23.3309,58.54149],[23.31373,58.54466],[23.27858,58.54637],[23.26466,58.54385],[23.23487,58.53465],[23.22381,58.53547],[23.13461,58.5799],[23.08326,58.59052]]],[[[23.2151,58.97736],[23.21079,58.97297],[23.17416,58.96833],[23.16326,58.96894],[23.14829,58.97403],[23.1194,59.0161],[23.11411,59.0218],[23.11891,59.03352],[23.13136,59.04072],[23.1482,59.04442],[23.17018,59.04588],[23.20802,59.04409],[23.27801,59.03238],[23.32203,59.03901],[23.34425,59.03929],[23.36402,59.02896],[23.38966,59.00751],[23.39373,58.99624],[23.38478,58.98054],[23.37428,58.97553],[23.36231,58.97748],[23.35043,58.98188],[23.3401,58.98395],[23.32944,58.98184],[23.29908,58.97089],[23.27858,58.97069],[23.2444,58.98135],[23.2234,58.98395],[23.21754,58.98188],[23.2151,58.97736]]],[[[23.19606,58.45637],[23.19223,58.46113],[23.18824,58.46821],[23.1819,58.47468],[23.17189,58.47748],[23.1565,58.47752],[23.1548,58.47549],[23.14894,58.47004],[23.14698,58.46638],[23.14161,58.45185],[23.13803,58.44611],[23.13038,58.43952],[23.12355,58.4357],[23.10865,58.42902],[23.1019,58.42959],[23.09254,58.43154],[23.08424,58.42963],[23.08058,58.41852],[23.08106,58.41242],[23.08229,58.40599],[23.08424,58.39997],[23.08676,58.39496],[23.06381,58.38544],[23.04249,58.37149],[23.02198,58.36323],[22.97755,58.38166],[22.95484,58.38105],[22.94752,58.37263],[22.96949,58.36017],[22.90268,58.31184],[22.88697,58.30736],[22.87094,58.30467],[22.85402,58.29873],[22.82488,58.2792],[22.81121,58.27342],[22.78859,58.27139],[22.74293,58.27383],[22.7212,58.27033],[22.71013,58.25776],[22.75668,58.24226],[22.72315,58.22541],[22.6692,58.2215],[22.65496,58.2447],[22.63982,58.25023],[22.62135,58.25275],[22.60255,58.2521],[22.58619,58.24779],[22.57097,58.23945],[22.56495,58.23517],[22.56031,58.23725],[22.54908,58.24779],[22.535,58.25406],[22.52613,58.24738],[22.51759,58.23041],[22.51043,58.2272],[22.50717,58.22492],[22.50416,58.22354],[22.49724,58.22305],[22.49684,58.22651],[22.49155,58.24152],[22.49098,58.2447],[22.47682,58.2451],[22.45932,58.24091],[22.44304,58.23408],[22.43238,58.22675],[22.42164,58.22163],[22.41,58.22403],[22.39845,58.22773],[22.38795,58.22675],[22.38054,58.22346],[22.3615,58.21772],[22.35377,58.21678],[22.32342,58.20661],[22.29509,58.19286],[22.28199,58.18256],[22.27475,58.17927],[22.27174,58.17426],[22.26987,58.13703],[22.26539,58.11506],[22.25685,58.09325],[22.22926,58.05219],[22.22104,58.04295],[22.20981,58.0349],[22.19988,58.02603],[22.19842,58.01634],[22.20297,57.99396],[22.18995,57.98383],[22.04835,57.91511],[22.01686,57.9145],[21.99008,57.93561],[21.9944,57.94725],[21.99073,57.95824],[21.98081,57.9665],[21.96681,57.96971],[21.96412,57.97138],[21.96266,57.97529],[21.96225,57.97997],[21.96339,57.98404],[21.98976,57.98273],[21.99757,57.98404],[22.00457,57.99095],[22.01539,58.01203],[22.02133,58.02123],[22.05893,58.05231],[22.07618,58.07339],[22.0857,58.08259],[22.0962,58.08641],[22.11069,58.08405],[22.12355,58.07953],[22.13551,58.07673],[22.14772,58.07958],[22.15317,58.08625],[22.15903,58.10712],[22.16505,58.11689],[22.20297,58.14789],[22.18035,58.16083],[22.14186,58.1695],[22.07228,58.17585],[22.05299,58.18659],[22.01686,58.23387],[21.99383,58.2447],[21.92888,58.2451],[21.8965,58.25072],[21.86785,58.26459],[21.85133,58.28189],[21.84376,58.29361],[21.84327,58.30215],[21.85564,58.30687],[21.90821,58.29873],[21.89666,58.31391],[21.87957,58.32953],[21.8733,58.34162],[21.89454,58.3465],[21.91236,58.33975],[21.9284,58.32681],[21.94459,58.31875],[21.96339,58.32661],[21.95493,58.34406],[21.96803,58.35456],[21.99049,58.35786],[22.01124,58.35395],[22.00221,58.36542],[21.99008,58.38695],[21.94597,58.43228],[21.92449,58.44697],[21.90113,58.46841],[21.88771,58.47748],[21.85939,58.49189],[21.83237,58.51097],[21.88502,58.4982],[21.90138,58.49799],[21.91627,58.50117],[21.91847,58.50471],[21.91896,58.50995],[21.92848,58.51838],[21.96664,58.51756],[21.99562,58.51252],[22.02076,58.49925],[22.06422,58.45669],[22.06984,58.44648],[22.07203,58.43281],[22.07358,58.42691],[22.07781,58.42377],[22.08334,58.42251],[22.08937,58.42219],[22.09848,58.42609],[22.09864,58.43476],[22.09311,58.44953],[22.09881,58.47577],[22.10369,58.48721],[22.11362,58.49799],[22.1268,58.50462],[22.15895,58.51362],[22.17189,58.52155],[22.18328,58.53547],[22.18775,58.54287],[22.19459,58.54584],[22.2129,58.54637],[22.21559,58.54418],[22.219,58.53901],[22.22218,58.53303],[22.22348,58.52839],[22.22486,58.51642],[22.22885,58.51056],[22.24334,58.50483],[22.2732,58.50202],[22.28289,58.52204],[22.28395,58.54955],[22.28834,58.56932],[22.32195,58.58478],[22.46306,58.59292],[22.5503,58.62958],[22.58318,58.63451],[22.59409,58.62914],[22.61264,58.6057],[22.62379,58.60033],[22.63014,58.59821],[22.6408,58.58885],[22.64812,58.58674],[22.65821,58.58885],[22.67579,58.59829],[22.68214,58.60033],[22.70265,58.59711],[22.71925,58.59121],[22.73634,58.58808],[22.75799,58.59292],[22.7907,58.61481],[22.81137,58.62295],[22.84636,58.61343],[22.89967,58.62027],[22.92205,58.61742],[22.94402,58.61017],[22.98976,58.60175],[23.03647,58.58417],[23.09108,58.57095],[23.11134,58.55573],[23.12582,58.5351],[23.13356,58.529],[23.14829,58.52155],[23.18865,58.5104],[23.23064,58.50483],[23.25514,58.50007],[23.28859,58.48819],[23.31837,58.47248],[23.33326,58.45637],[23.32496,58.44229],[23.2614,58.46589],[23.23764,58.45637],[23.25025,58.45453],[23.26173,58.45161],[23.27133,58.44599],[23.27801,58.43651],[23.23487,58.43989],[23.21567,58.44587],[23.19606,58.45637]]],[[[23.27019,57.78563],[23.25025,57.78437],[23.2295,57.79169],[23.21778,57.80093],[23.2186,57.80952],[23.22055,57.81769],[23.22429,57.82372],[23.23959,57.82258],[23.26051,57.81354],[23.27068,57.80781],[23.27508,57.79873],[23.27019,57.78563]]],[[[22.48756,59.01642],[22.50424,59.02558],[22.52687,59.02635],[22.54444,59.0301],[22.55926,59.0384],[22.57293,59.0528],[22.57643,59.06171],[22.57643,59.07014],[22.5783,59.07844],[22.58717,59.08698],[22.59767,59.0895],[22.64047,59.08706],[22.64112,59.08698],[22.66668,59.08491],[22.69654,59.07917],[22.71412,59.06957],[22.69158,59.04116],[22.70134,59.02497],[22.72047,59.01162],[22.73666,59.00507],[22.83717,59.00861],[22.93409,58.98404],[22.94956,58.97089],[22.95265,58.9606],[22.9476,58.94514],[22.94956,58.93618],[22.95851,58.9267],[22.9795,58.91763],[22.98756,58.91193],[22.99399,58.90583],[23.00807,58.89741],[23.01515,58.89179],[23.01808,58.88719],[23.01905,58.88202],[23.01856,58.87067],[23.02174,58.86408],[23.02849,58.86213],[23.03549,58.86201],[23.03907,58.86103],[23.04054,58.84077],[23.03354,58.83031],[23.01905,58.82909],[22.97779,58.84418],[22.9673,58.8465],[22.9568,58.8474],[22.94956,58.84394],[22.94703,58.83755],[22.94223,58.83422],[22.92921,58.83999],[22.91261,58.8356],[22.89552,58.83552],[22.87957,58.83271],[22.8672,58.82005],[22.87664,58.81989],[22.88307,58.81729],[22.88697,58.81184],[22.88819,58.80305],[22.88673,58.79047],[22.88209,58.78803],[22.87428,58.78791],[22.86362,58.78221],[22.84539,58.77652],[22.81666,58.77595],[22.79005,58.78099],[22.77833,58.79218],[22.78932,58.80264],[22.81121,58.81086],[22.82691,58.81916],[22.81935,58.82966],[22.80226,58.83039],[22.7776,58.82437],[22.75318,58.81513],[22.73666,58.80646],[22.71518,58.78205],[22.681,58.72407],[22.65496,58.70279],[22.61118,58.6905],[22.55568,58.687],[22.50172,58.69477],[22.46306,58.71646],[22.47218,58.71992],[22.48097,58.7248],[22.49724,58.73754],[22.48341,58.7482],[22.46518,58.76659],[22.44947,58.78681],[22.44264,58.80305],[22.44264,58.82722],[22.43979,58.84138],[22.42994,58.85244],[22.38209,58.88227],[22.35475,58.89208],[22.32496,58.89663],[22.29176,58.89521],[22.2269,58.88646],[22.195,58.88801],[22.06251,58.92585],[22.04469,58.93618],[22.05551,58.9527],[22.09425,58.95604],[22.16822,58.95038],[22.46306,58.97089],[22.44353,58.97773],[22.44207,58.98469],[22.4546,58.98721],[22.47674,58.98054],[22.48845,58.98115],[22.48756,59.01642]]],[[[22.5158,58.16616],[22.51938,58.16564],[22.52166,58.16173],[22.52247,58.15546],[22.52345,58.15111],[22.52963,58.14928],[22.52947,58.14399],[22.50001,58.12112],[22.49765,58.12153],[22.49692,58.13068],[22.47731,58.14297],[22.49456,58.16441],[22.49594,58.17605],[22.49936,58.17666],[22.50945,58.17495],[22.51254,58.17284],[22.51368,58.16824],[22.5158,58.16616]]]]},"properties":{"geometry_id":"geom-territoire-su-estonie-1945-01-01","date_validite":"1945-01-01","statut":"provisoire_ohm","sources":[{"source_id":"src-openhistoricalmap","locator":"relation 2959351 — Estonia SSR 1945-01 →","usage":"tracé de la frontière"},{"source_id":"src-natural-earth-10m","locator":"ne_10m_land + ne_10m_minor_islands","usage":"trait de côte (on retire les eaux territoriales incluses par OHM)"}],"method":"extraction_ohm_puis_decoupage_trait_de_cote","operations":["OHM r2959351 (après transferts vers la RSFSR)","∩ terres Natural Earth"],"precision":"frontières terrestres : celles d’OHM (souvent reprises de tracés officiels) ; côtes : Natural Earth 1:10m (~1 km)","surface_km2":45776,"logiciel":"Python — Shapely/GEOS (mêmes opérations que les outils de géotraitement QGIS)","script":"outils/geo/deriver_snapshot0_lot02.py","date_creation":"2026-09-28","auteur":"Claude","licence":"CC0 (OpenHistoricalMap) ; Natural Earth : domaine public","licences_segments":[],"points_a_verifier":["Transferts appliqués : Petserimaa (août 1944) et rive est de la Narva (24/11/1944) — TRAMES 2025. Transfert soviétique effectif, formalisation incomplète : acceptation par la RSS d'Estonie le 18/01/1945 → nouvel état juridique à cette date, sans changement de tracé. (OHM date le changement de janvier 1945.)"]}}