{"type":"Feature","geometry":{"type":"Polygon","coordinates":[[[20.9734,56.232],[20.9691,56.2535],[20.971,56.2597],[20.9802,56.2793],[20.9827,56.2908],[20.9827,56.3015],[20.9815,56.3105],[20.971,56.3498],[20.9686,56.3698],[20.9705,56.389],[20.979,56.4044],[20.9925,56.4179],[20.9984,56.4257],[21.0032,56.4348],[21.0054,56.4459],[21.0055,56.4655],[21.0106,56.4757],[21.0033,56.4926],[21.0005,56.5106],[21.0064,56.52],[21.0243,56.5105],[21.0305,56.5001],[21.0358,56.4739],[21.0447,56.4621],[21.0305,56.4484],[21.0374,56.4447],[21.0447,56.4422],[21.0447,56.428],[21.0447,56.4211],[21.0305,56.4081],[21.0534,56.39],[21.0618,56.387],[21.0702,56.3894],[21.0772,56.3952],[21.0798,56.4031],[21.0686,56.4241],[21.0667,56.4418],[21.0681,56.4588],[21.0721,56.4695],[21.0676,56.4764],[21.0632,56.494],[21.0584,56.5037],[21.0529,56.511],[21.0481,56.5156],[21.0305,56.5242],[21.0195,56.5271],[21.0105,56.5278],[21.0031,56.53],[20.9963,56.5378],[20.9922,56.5489],[20.9951,56.5534],[21.0003,56.5577],[21.0105,56.5987],[21.0462,56.6562],[21.0584,56.6887],[21.0652,56.7743],[21.0612,56.7941],[21.0542,56.812],[21.0527,56.8289],[21.0652,56.8463],[21.1472,56.8764],[21.1567,56.8856],[21.2229,56.9077],[21.241,56.9183],[21.2776,56.9491],[21.2878,56.9555],[21.3001,56.9595],[21.3282,56.9736],[21.3601,56.9897],[21.3825,57.0089],[21.4016,57.0375],[21.4136,57.0732],[21.4148,57.1138],[21.4119,57.1245],[21.4011,57.1513],[21.4032,57.1621],[21.4126,57.1762],[21.4148,57.1849],[21.4126,57.2501],[21.4148,57.2709],[21.4214,57.2887],[21.4336,57.3065],[21.4495,57.32],[21.4666,57.3255],[21.4802,57.3336],[21.5177,57.3876],[21.5891,57.4388],[21.6992,57.5553],[21.7297,57.5738],[21.7717,57.5861],[21.9559,57.593],[21.9993,57.6003],[22.1945,57.6576],[22.4837,57.7425],[22.5261,57.7497],[22.5491,57.7506],[22.5603,57.7527],[22.5726,57.7568],[22.5858,57.7597],[22.6003,57.758],[22.6104,57.7546],[22.6101,57.7535],[22.605,57.751],[22.6003,57.7438],[22.5908,57.7061],[22.5872,57.665],[22.591,57.6448],[22.6008,57.6301],[22.6561,57.5858],[22.8789,57.4813],[22.9504,57.4328],[23.0147,57.4024],[23.0147,57.2733],[23.0147,56.9233],[22.9992,56.8785],[23.0087,56.8284],[23.042,56.7794],[23.0469,56.7544],[23.0971,56.681],[23.1021,56.656],[23.1308,56.6321],[23.1409,56.5822],[23.0672,56.4784],[23.0415,56.3767],[23.0121,56.3546],[23.0051,56.3685],[23.0189,56.3706],[23.0023,56.4064],[22.9776,56.4057],[22.9692,56.4139],[22.9416,56.4149],[22.941,56.4148],[22.9404,56.4145],[22.9357,56.4106],[22.9358,56.4085],[22.9354,56.407],[22.9352,56.4065],[22.935,56.4058],[22.9352,56.4056],[22.9366,56.4047],[22.937,56.4041],[22.9371,56.4039],[22.9367,56.4028],[22.9365,56.4026],[22.9362,56.4025],[22.9323,56.4008],[22.9219,56.3988],[22.9216,56.3988],[22.9205,56.3991],[22.921,56.398],[22.9238,56.3922],[22.9263,56.3925],[22.9264,56.3925],[22.9286,56.3881],[22.9192,56.379],[22.9074,56.3772],[22.8999,56.3742],[22.883,56.3715],[22.8823,56.3714],[22.8781,56.3719],[22.8755,56.3718],[22.8692,56.3713],[22.865,56.3705],[22.8647,56.3704],[22.8645,56.3702],[22.8644,56.37],[22.8643,56.37],[22.8641,56.3698],[22.864,56.3697],[22.8637,56.3697],[22.8634,56.3697],[22.8633,56.3696],[22.8631,56.3695],[22.863,56.3695],[22.8629,56.3695],[22.8627,56.3696],[22.8627,56.3696],[22.8625,56.3696],[22.8618,56.3698],[22.8618,56.3698],[22.8615,56.3697],[22.8613,56.3697],[22.861,56.3697],[22.8608,56.3695],[22.8608,56.3694],[22.8607,56.3694],[22.8607,56.3693],[22.8605,56.3693],[22.8603,56.3693],[22.8602,56.3694],[22.8599,56.3697],[22.8596,56.3697],[22.8592,56.3696],[22.8592,56.3696],[22.8592,56.3695],[22.8592,56.3694],[22.8594,56.3693],[22.8594,56.3693],[22.8594,56.3692],[22.8593,56.3692],[22.859,56.3692],[22.8587,56.3692],[22.8585,56.3692],[22.8582,56.3694],[22.858,56.3694],[22.8578,56.3695],[22.8577,56.3694],[22.8574,56.3693],[22.8571,56.3693],[22.857,56.3693],[22.857,56.3693],[22.8569,56.369],[22.8569,56.3689],[22.857,56.3688],[22.8572,56.3686],[22.858,56.3682],[22.8583,56.3681],[22.8587,56.3679],[22.8592,56.3674],[22.8592,56.3671],[22.8591,56.367],[22.8587,56.3667],[22.8582,56.3665],[22.8578,56.3665],[22.8574,56.3663],[22.8574,56.366],[22.8573,56.366],[22.8571,56.3659],[22.8567,56.366],[22.8562,56.366],[22.8557,56.3662],[22.8557,56.3663],[22.8558,56.3665],[22.8558,56.3666],[22.8556,56.3668],[22.8555,56.367],[22.8554,56.3671],[22.8552,56.3671],[22.855,56.3672],[22.8547,56.3672],[22.8546,56.3671],[22.8546,56.367],[22.8547,56.3668],[22.8546,56.3666],[22.8544,56.3665],[22.8542,56.3666],[22.854,56.3667],[22.8532,56.3671],[22.8532,56.3673],[22.853,56.3674],[22.8528,56.3674],[22.8527,56.3673],[22.8526,56.3672],[22.8524,56.3672],[22.8523,56.3672],[22.8522,56.3673],[22.852,56.3674],[22.8519,56.3675],[22.8519,56.3676],[22.8516,56.3676],[22.8515,56.3676],[22.8514,56.3676],[22.8514,56.3678],[22.8516,56.3679],[22.8518,56.3679],[22.8518,56.368],[22.8514,56.3682],[22.851,56.3682],[22.8506,56.3682],[22.8503,56.3682],[22.8501,56.3681],[22.85,56.3683],[22.8491,56.3682],[22.849,56.3681],[22.8489,56.368],[22.8483,56.368],[22.8483,56.3681],[22.8482,56.3682],[22.8479,56.3682],[22.8475,56.3681],[22.847,56.3679],[22.8467,56.3679],[22.8464,56.3679],[22.846,56.3678],[22.8457,56.3677],[22.8453,56.3673],[22.8452,56.3671],[22.8453,56.3669],[22.8456,56.3668],[22.8459,56.3668],[22.8461,56.3667],[22.846,56.3666],[22.8457,56.3665],[22.8452,56.3665],[22.8444,56.3664],[22.8441,56.3664],[22.8439,56.3664],[22.8435,56.3662],[22.8433,56.3661],[22.8424,56.366],[22.8415,56.3658],[22.8407,56.3658],[22.8404,56.3657],[22.8398,56.3654],[22.8395,56.3652],[22.8389,56.365],[22.8387,56.3649],[22.8385,56.365],[22.8385,56.3651],[22.8385,56.3653],[22.8389,56.3657],[22.839,56.366],[22.8389,56.3661],[22.8387,56.3663],[22.8385,56.3667],[22.8384,56.3668],[22.8384,56.3668],[22.8383,56.3668],[22.8375,56.3667],[22.8373,56.3666],[22.8369,56.3665],[22.8367,56.3665],[22.8366,56.3665],[22.8361,56.3667],[22.8359,56.3667],[22.8354,56.3668],[22.8351,56.3668],[22.8345,56.367],[22.834,56.367],[22.8329,56.3672],[22.8324,56.3672],[22.8312,56.3672],[22.8309,56.3672],[22.8307,56.3672],[22.8306,56.3669],[22.8305,56.3668],[22.8304,56.3665],[22.8303,56.3665],[22.8295,56.3665],[22.829,56.3665],[22.8288,56.3665],[22.8286,56.3667],[22.8285,56.3667],[22.8283,56.3669],[22.8274,56.3671],[22.8269,56.3672],[22.8266,56.3673],[22.8264,56.3673],[22.8261,56.3673],[22.8258,56.3673],[22.8255,56.3673],[22.8252,56.3672],[22.825,56.3672],[22.8217,56.3671],[22.817,56.3667],[22.8153,56.3661],[22.8111,56.3661],[22.8085,56.3671],[22.8014,56.3673],[22.7943,56.368],[22.7921,56.3678],[22.7888,56.3677],[22.7863,56.3678],[22.7844,56.3683],[22.783,56.3683],[22.7778,56.3678],[22.7745,56.3669],[22.7718,56.3666],[22.765,56.3673],[22.7607,56.3673],[22.7582,56.3677],[22.753,56.3698],[22.7528,56.3698],[22.7526,56.3699],[22.7517,56.3703],[22.7515,56.3705],[22.7514,56.3706],[22.7514,56.3707],[22.7514,56.3709],[22.7516,56.371],[22.7519,56.371],[22.7519,56.3711],[22.7518,56.3713],[22.7514,56.3717],[22.7512,56.3718],[22.751,56.3719],[22.7508,56.3719],[22.7507,56.3719],[22.7505,56.372],[22.7502,56.3721],[22.7498,56.3722],[22.7493,56.3723],[22.748,56.3723],[22.7476,56.3723],[22.7468,56.3723],[22.7464,56.3723],[22.7458,56.3723],[22.7452,56.3724],[22.745,56.3724],[22.7447,56.3723],[22.7444,56.3722],[22.7441,56.3722],[22.7437,56.3723],[22.7431,56.3722],[22.7428,56.3723],[22.7427,56.3723],[22.7425,56.3724],[22.7422,56.3724],[22.7412,56.3724],[22.7411,56.3723],[22.7409,56.3722],[22.741,56.3721],[22.7411,56.3719],[22.7411,56.3719],[22.741,56.3719],[22.741,56.372],[22.74,56.3722],[22.7396,56.3723],[22.7395,56.3724],[22.7393,56.3725],[22.7392,56.3725],[22.7389,56.3725],[22.7385,56.3724],[22.7384,56.3723],[22.7384,56.3723],[22.7382,56.3724],[22.738,56.3724],[22.7379,56.3725],[22.7375,56.3727],[22.7373,56.3728],[22.7371,56.3728],[22.7368,56.3727],[22.7363,56.3725],[22.7359,56.3724],[22.7358,56.3724],[22.7357,56.3723],[22.7357,56.3723],[22.7358,56.3722],[22.7358,56.3721],[22.7357,56.372],[22.7356,56.372],[22.7354,56.372],[22.7351,56.3722],[22.7348,56.3723],[22.7346,56.3723],[22.7345,56.3724],[22.7344,56.3724],[22.7342,56.3723],[22.7341,56.3721],[22.734,56.3721],[22.7337,56.372],[22.7331,56.372],[22.7325,56.372],[22.732,56.3721],[22.7318,56.3722],[22.7316,56.3723],[22.7313,56.3724],[22.731,56.3725],[22.7309,56.3726],[22.7309,56.3728],[22.7307,56.3729],[22.7306,56.373],[22.7306,56.3731],[22.7302,56.3731],[22.73,56.3731],[22.7299,56.373],[22.7297,56.3727],[22.7296,56.3727],[22.7296,56.3726],[22.7293,56.3726],[22.7291,56.3725],[22.729,56.3724],[22.7289,56.372],[22.729,56.372],[22.7291,56.3719],[22.7291,56.3718],[22.7291,56.3718],[22.7289,56.3717],[22.7286,56.3718],[22.7283,56.3717],[22.7282,56.3717],[22.7281,56.3717],[22.728,56.3715],[22.7277,56.3715],[22.7275,56.3716],[22.7272,56.3716],[22.7269,56.3716],[22.7267,56.3717],[22.7264,56.3719],[22.7263,56.372],[22.7261,56.3719],[22.726,56.3719],[22.7256,56.3716],[22.7253,56.3715],[22.7252,56.3714],[22.725,56.3712],[22.725,56.3709],[22.725,56.3708],[22.725,56.3706],[22.7249,56.3706],[22.7248,56.3705],[22.7247,56.3704],[22.7247,56.3702],[22.7246,56.3701],[22.7242,56.37],[22.7237,56.3699],[22.7233,56.3699],[22.7231,56.37],[22.7227,56.37],[22.722,56.3696],[22.7213,56.3693],[22.7209,56.3692],[22.7204,56.3691],[22.7197,56.369],[22.7194,56.3689],[22.7192,56.3688],[22.7188,56.3687],[22.7186,56.3686],[22.7184,56.3685],[22.718,56.3681],[22.7179,56.3679],[22.7176,56.3678],[22.7169,56.3676],[22.7166,56.3674],[22.7164,56.3672],[22.7165,56.367],[22.7164,56.3669],[22.7162,56.3669],[22.7161,56.3669],[22.716,56.3669],[22.7159,56.3666],[22.716,56.3664],[22.7159,56.3663],[22.7158,56.3662],[22.7156,56.3662],[22.7152,56.3661],[22.7151,56.3661],[22.715,56.366],[22.7151,56.3658],[22.7149,56.3657],[22.7146,56.3656],[22.7145,56.3656],[22.7139,56.3653],[22.7133,56.3652],[22.712,56.3649],[22.7118,56.3649],[22.7117,56.365],[22.7116,56.3651],[22.7116,56.3651],[22.7115,56.3651],[22.7114,56.3651],[22.7114,56.365],[22.7114,56.3649],[22.7114,56.3647],[22.7113,56.3646],[22.711,56.3643],[22.7108,56.3641],[22.7099,56.3637],[22.7097,56.3636],[22.7095,56.3635],[22.7095,56.3635],[22.7094,56.3633],[22.7093,56.3632],[22.7091,56.3629],[22.7086,56.3625],[22.708,56.3623],[22.7077,56.3623],[22.7073,56.3622],[22.7067,56.3619],[22.7066,56.3618],[22.7065,56.3615],[22.7064,56.3614],[22.7064,56.3612],[22.7064,56.3606],[22.7063,56.3603],[22.7064,56.3601],[22.7063,56.3599],[22.7063,56.3597],[22.7062,56.3596],[22.7059,56.3594],[22.7055,56.3591],[22.7052,56.3589],[22.7051,56.3586],[22.7049,56.3581],[22.7048,56.358],[22.7045,56.3578],[22.7041,56.3576],[22.7037,56.3574],[22.7033,56.357],[22.7028,56.3566],[22.7024,56.3563],[22.7023,56.3562],[22.7017,56.3559],[22.7015,56.3558],[22.7013,56.3556],[22.7008,56.3551],[22.7005,56.3549],[22.7005,56.3548],[22.7003,56.3548],[22.6995,56.3546],[22.6993,56.3546],[22.699,56.3545],[22.6989,56.3544],[22.6988,56.3542],[22.6987,56.3542],[22.6982,56.3539],[22.6981,56.3539],[22.6979,56.3537],[22.6976,56.3533],[22.6975,56.3532],[22.6961,56.3533],[22.6959,56.3533],[22.6957,56.3534],[22.6955,56.3535],[22.6953,56.3536],[22.6952,56.3535],[22.6951,56.3535],[22.6952,56.3533],[22.6952,56.3531],[22.6952,56.3531],[22.6951,56.353],[22.695,56.353],[22.6941,56.3532],[22.6935,56.3533],[22.6934,56.3534],[22.6931,56.3535],[22.693,56.3536],[22.6928,56.3535],[22.6926,56.3534],[22.6923,56.3532],[22.6921,56.3529],[22.692,56.3529],[22.6918,56.3528],[22.6914,56.3528],[22.6911,56.3528],[22.691,56.3529],[22.6908,56.3532],[22.6906,56.3533],[22.6905,56.3534],[22.6902,56.3534],[22.69,56.3534],[22.6899,56.3534],[22.6896,56.3534],[22.6891,56.3532],[22.6885,56.3529],[22.6878,56.3526],[22.6877,56.3525],[22.6875,56.3524],[22.6874,56.3523],[22.6851,56.3522],[22.6845,56.3522],[22.6836,56.3522],[22.6829,56.3522],[22.6824,56.3522],[22.6823,56.3522],[22.682,56.3522],[22.6818,56.352],[22.6818,56.3517],[22.6815,56.3517],[22.6813,56.3516],[22.6808,56.3516],[22.68,56.3516],[22.6796,56.3517],[22.679,56.3518],[22.6783,56.3521],[22.6775,56.3522],[22.6766,56.3525],[22.6743,56.3536],[22.6732,56.3543],[22.6727,56.355],[22.6719,56.3558],[22.6713,56.3562],[22.671,56.3569],[22.6705,56.3572],[22.6699,56.3575],[22.6672,56.3585],[22.6664,56.3587],[22.6657,56.3587],[22.665,56.3588],[22.6645,56.3588],[22.6642,56.359],[22.6635,56.3597],[22.6632,56.3598],[22.6629,56.3599],[22.6626,56.36],[22.6626,56.3603],[22.6619,56.3611],[22.6619,56.3612],[22.6622,56.3614],[22.6621,56.3618],[22.6615,56.3619],[22.6606,56.3621],[22.6582,56.3625],[22.6575,56.3626],[22.6566,56.3626],[22.6561,56.3627],[22.6556,56.3625],[22.6549,56.3622],[22.654,56.3619],[22.6532,56.3619],[22.6522,56.362],[22.6513,56.362],[22.6494,56.3623],[22.6481,56.3625],[22.6477,56.3627],[22.6474,56.363],[22.6466,56.3631],[22.6457,56.3631],[22.645,56.3629],[22.6446,56.3629],[22.6444,56.363],[22.6442,56.3632],[22.6445,56.3634],[22.6445,56.3637],[22.6443,56.3638],[22.644,56.3638],[22.6434,56.3633],[22.643,56.3632],[22.6415,56.3636],[22.6393,56.3644],[22.6376,56.3655],[22.637,56.3658],[22.6367,56.3661],[22.6367,56.3668],[22.6366,56.3669],[22.6366,56.3669],[22.6365,56.367],[22.6364,56.367],[22.6363,56.367],[22.6361,56.367],[22.636,56.367],[22.6359,56.367],[22.6357,56.367],[22.6355,56.367],[22.6354,56.3671],[22.6353,56.3671],[22.6352,56.3672],[22.6352,56.3672],[22.6352,56.3676],[22.6353,56.3678],[22.6356,56.368],[22.6354,56.3686],[22.6352,56.3689],[22.6346,56.3692],[22.6323,56.3703],[22.6317,56.3705],[22.6314,56.3708],[22.6312,56.3712],[22.6308,56.372],[22.6305,56.3723],[22.63,56.3725],[22.629,56.373],[22.6285,56.3735],[22.6281,56.3742],[22.6279,56.3746],[22.6277,56.3749],[22.6262,56.3761],[22.6259,56.3764],[22.6259,56.3764],[22.625,56.3769],[22.6244,56.377],[22.6236,56.3774],[22.6227,56.378],[22.6219,56.3785],[22.6217,56.3787],[22.6214,56.379],[22.6209,56.3791],[22.6206,56.3792],[22.6204,56.3793],[22.6203,56.3795],[22.6203,56.3796],[22.6199,56.38],[22.6196,56.38],[22.6191,56.3799],[22.6186,56.3799],[22.6182,56.38],[22.618,56.3805],[22.6178,56.3809],[22.617,56.3816],[22.617,56.382],[22.6168,56.3822],[22.6166,56.3824],[22.6162,56.3826],[22.6159,56.3826],[22.6149,56.3827],[22.6142,56.3827],[22.6136,56.3825],[22.6129,56.3825],[22.6123,56.3826],[22.6119,56.3827],[22.6116,56.3827],[22.6111,56.3829],[22.6107,56.3829],[22.61,56.3831],[22.6092,56.3832],[22.6089,56.3834],[22.608,56.3834],[22.6071,56.3832],[22.6069,56.383],[22.6069,56.3829],[22.6068,56.3828],[22.6066,56.3826],[22.6064,56.3825],[22.6059,56.3824],[22.6054,56.3824],[22.6046,56.3825],[22.6042,56.3826],[22.6034,56.3827],[22.6029,56.3828],[22.6025,56.3827],[22.6022,56.3825],[22.6016,56.3823],[22.6009,56.3824],[22.6003,56.3824],[22.5989,56.3826],[22.5977,56.3829],[22.5968,56.3831],[22.5955,56.3835],[22.5945,56.3837],[22.5941,56.3837],[22.5936,56.3836],[22.5933,56.3838],[22.5931,56.3843],[22.5929,56.3845],[22.5923,56.3847],[22.5922,56.3847],[22.5906,56.3845],[22.5898,56.3843],[22.5894,56.3843],[22.5889,56.3843],[22.5881,56.3847],[22.5873,56.3849],[22.5867,56.3853],[22.5863,56.3861],[22.5856,56.3865],[22.5853,56.3869],[22.5849,56.3871],[22.5844,56.3873],[22.5841,56.3879],[22.5841,56.3881],[22.5839,56.3883],[22.5838,56.3885],[22.5833,56.3887],[22.5834,56.3889],[22.5836,56.3891],[22.584,56.3891],[22.5841,56.3894],[22.584,56.3896],[22.5835,56.3898],[22.5825,56.3899],[22.582,56.3899],[22.5817,56.39],[22.5815,56.3901],[22.5808,56.3903],[22.5804,56.3905],[22.58,56.3905],[22.5795,56.3904],[22.5791,56.3905],[22.5788,56.3905],[22.5786,56.3904],[22.5778,56.3905],[22.5769,56.3906],[22.576,56.3906],[22.575,56.3905],[22.5746,56.3903],[22.5741,56.3901],[22.5729,56.39],[22.5727,56.3899],[22.5723,56.3896],[22.5719,56.3891],[22.5711,56.3886],[22.5704,56.3885],[22.5702,56.3886],[22.5699,56.3886],[22.5694,56.3886],[22.569,56.3887],[22.5686,56.3886],[22.5683,56.3886],[22.5681,56.3885],[22.5679,56.3885],[22.5677,56.3885],[22.566,56.388],[22.5648,56.3876],[22.5643,56.3875],[22.564,56.3875],[22.5623,56.3877],[22.5615,56.3881],[22.5608,56.3882],[22.56,56.3882],[22.5585,56.3878],[22.5578,56.3876],[22.5575,56.3876],[22.5571,56.3877],[22.5567,56.3879],[22.5559,56.3879],[22.5558,56.3881],[22.5554,56.3882],[22.5549,56.3882],[22.5544,56.3885],[22.5541,56.3888],[22.5537,56.3889],[22.5532,56.389],[22.5522,56.3891],[22.5512,56.3892],[22.5495,56.3892],[22.5484,56.3892],[22.5473,56.3892],[22.5466,56.3891],[22.5458,56.3889],[22.5454,56.3888],[22.5446,56.3889],[22.5426,56.3892],[22.5421,56.3893],[22.5416,56.3893],[22.5409,56.3892],[22.5407,56.3892],[22.5404,56.3894],[22.5401,56.3894],[22.5399,56.3894],[22.5395,56.3893],[22.5386,56.389],[22.5382,56.389],[22.5378,56.3891],[22.5372,56.3893],[22.5368,56.3895],[22.536,56.3901],[22.5349,56.3914],[22.5344,56.3918],[22.5341,56.3919],[22.5333,56.3923],[22.5321,56.3927],[22.5314,56.3928],[22.5311,56.3929],[22.5309,56.3931],[22.5305,56.3936],[22.5301,56.3937],[22.5293,56.3937],[22.5278,56.3937],[22.5262,56.3936],[22.5255,56.3936],[22.5233,56.3933],[22.5229,56.3933],[22.5224,56.3933],[22.5217,56.3933],[22.521,56.393],[22.5206,56.3927],[22.5198,56.3926],[22.5187,56.3925],[22.5181,56.3925],[22.5176,56.3927],[22.5172,56.3931],[22.5167,56.3935],[22.5162,56.3936],[22.5156,56.3936],[22.5146,56.3935],[22.5136,56.3934],[22.513,56.3932],[22.5121,56.3928],[22.5118,56.3928],[22.5113,56.3928],[22.5106,56.3929],[22.5102,56.3931],[22.5098,56.3933],[22.5091,56.3936],[22.5083,56.3938],[22.5072,56.3942],[22.5064,56.3944],[22.5057,56.3946],[22.5052,56.3946],[22.5045,56.3948],[22.5044,56.3949],[22.5031,56.3954],[22.5028,56.3954],[22.5023,56.3956],[22.5018,56.3958],[22.5016,56.396],[22.5012,56.396],[22.4996,56.3962],[22.4973,56.3965],[22.4961,56.3966],[22.4951,56.3967],[22.4948,56.3967],[22.4944,56.3965],[22.4941,56.3963],[22.4918,56.397],[22.491,56.3972],[22.4906,56.3974],[22.4902,56.3978],[22.4898,56.3979],[22.4892,56.398],[22.4888,56.3979],[22.4885,56.398],[22.4873,56.3984],[22.4869,56.3986],[22.4864,56.399],[22.4859,56.3993],[22.4855,56.3997],[22.4853,56.3998],[22.4849,56.4],[22.4849,56.4001],[22.4848,56.4003],[22.4836,56.4007],[22.4832,56.4008],[22.4827,56.4008],[22.4822,56.4006],[22.4817,56.4003],[22.4815,56.4003],[22.4811,56.4004],[22.4805,56.4007],[22.4801,56.401],[22.4794,56.4015],[22.4791,56.4017],[22.4791,56.4019],[22.4793,56.4022],[22.4795,56.4023],[22.4797,56.4025],[22.4799,56.4026],[22.4798,56.4028],[22.4796,56.403],[22.4793,56.403],[22.4789,56.4031],[22.4785,56.4031],[22.4774,56.4034],[22.4757,56.404],[22.4752,56.4041],[22.4746,56.4042],[22.4742,56.404],[22.474,56.404],[22.4739,56.4038],[22.4737,56.4037],[22.4735,56.4036],[22.4731,56.4036],[22.4728,56.4036],[22.4723,56.4038],[22.4721,56.4037],[22.4717,56.4036],[22.4713,56.4035],[22.4706,56.4035],[22.47,56.4035],[22.4693,56.4036],[22.4691,56.4036],[22.4687,56.4036],[22.4683,56.4036],[22.468,56.4035],[22.4678,56.4034],[22.4676,56.4033],[22.4674,56.4032],[22.4668,56.4032],[22.4657,56.4032],[22.4653,56.4032],[22.4648,56.4031],[22.4643,56.4032],[22.464,56.4034],[22.4637,56.4036],[22.4635,56.4037],[22.4632,56.4037],[22.4631,56.4036],[22.4628,56.4034],[22.4626,56.4033],[22.4624,56.4033],[22.4622,56.4033],[22.4617,56.4034],[22.4615,56.4035],[22.4611,56.4037],[22.4609,56.4037],[22.4604,56.4037],[22.4585,56.4034],[22.4579,56.4032],[22.4576,56.403],[22.4573,56.403],[22.4569,56.4029],[22.4563,56.4027],[22.4561,56.4026],[22.456,56.4026],[22.4557,56.4027],[22.4556,56.4026],[22.4552,56.4025],[22.4549,56.4024],[22.4544,56.4024],[22.4536,56.4024],[22.4534,56.4024],[22.4529,56.4025],[22.4523,56.4026],[22.4518,56.4027],[22.4514,56.4027],[22.4509,56.4027],[22.4497,56.4029],[22.4492,56.4029],[22.448,56.4029],[22.4477,56.4028],[22.4474,56.4029],[22.4469,56.403],[22.4461,56.4034],[22.4456,56.4037],[22.4448,56.4042],[22.4444,56.4045],[22.444,56.4046],[22.4428,56.4048],[22.4424,56.4049],[22.442,56.4049],[22.4418,56.4049],[22.4416,56.405],[22.4412,56.4049],[22.4409,56.4049],[22.4405,56.405],[22.4401,56.4051],[22.4396,56.4054],[22.4392,56.4056],[22.4388,56.4059],[22.4378,56.4063],[22.4375,56.4064],[22.4373,56.4064],[22.4369,56.4063],[22.4365,56.4061],[22.4362,56.406],[22.4359,56.4059],[22.4355,56.406],[22.4352,56.4062],[22.435,56.4064],[22.4347,56.4067],[22.4345,56.4069],[22.4335,56.4077],[22.4332,56.4079],[22.4329,56.4082],[22.4324,56.4086],[22.4318,56.409],[22.4311,56.4091],[22.4307,56.4092],[22.4297,56.4094],[22.4283,56.4095],[22.4272,56.4096],[22.4268,56.4096],[22.4263,56.4096],[22.4258,56.4097],[22.4253,56.4098],[22.4251,56.4098],[22.4248,56.4098],[22.4246,56.4099],[22.4243,56.4099],[22.424,56.41],[22.4234,56.41],[22.423,56.41],[22.4227,56.41],[22.4224,56.41],[22.4218,56.4099],[22.4216,56.4099],[22.4214,56.4098],[22.4213,56.4097],[22.4214,56.4094],[22.4213,56.4093],[22.4211,56.4092],[22.4208,56.4092],[22.4205,56.4092],[22.4202,56.4093],[22.4198,56.4095],[22.4195,56.4096],[22.419,56.4096],[22.4188,56.4096],[22.4184,56.4095],[22.4182,56.4093],[22.4179,56.4091],[22.4175,56.4089],[22.4174,56.4089],[22.4169,56.4088],[22.4165,56.4087],[22.4159,56.4086],[22.415,56.4086],[22.4147,56.4086],[22.4144,56.4086],[22.4142,56.4086],[22.4139,56.4088],[22.4136,56.4089],[22.4133,56.4089],[22.4123,56.4088],[22.4118,56.4088],[22.4113,56.4086],[22.4108,56.4085],[22.4105,56.4085],[22.4103,56.4084],[22.41,56.4083],[22.4098,56.4081],[22.4095,56.4079],[22.4092,56.4077],[22.409,56.4076],[22.4089,56.4076],[22.4088,56.4077],[22.4085,56.4077],[22.4083,56.4078],[22.4082,56.4079],[22.4078,56.408],[22.4074,56.408],[22.4068,56.4078],[22.4059,56.4075],[22.4052,56.4074],[22.4045,56.4074],[22.4043,56.4073],[22.404,56.4071],[22.4035,56.4069],[22.4029,56.4066],[22.402,56.4061],[22.4017,56.4059],[22.4015,56.4057],[22.4012,56.4056],[22.401,56.4055],[22.4008,56.4054],[22.4006,56.4053],[22.4002,56.4051],[22.3996,56.4049],[22.3991,56.4047],[22.3984,56.4045],[22.3977,56.4044],[22.3971,56.4043],[22.396,56.4041],[22.3956,56.404],[22.3952,56.4039],[22.3948,56.4037],[22.3945,56.4036],[22.3943,56.4034],[22.3942,56.4032],[22.3941,56.4031],[22.394,56.4029],[22.3939,56.4026],[22.3936,56.4023],[22.3932,56.4019],[22.3926,56.4015],[22.392,56.4012],[22.3918,56.4011],[22.3914,56.401],[22.3911,56.4009],[22.3906,56.4008],[22.3899,56.4008],[22.3895,56.4007],[22.3889,56.4006],[22.3881,56.4005],[22.3876,56.4005],[22.3873,56.4005],[22.3866,56.4005],[22.386,56.4005],[22.3856,56.4005],[22.3846,56.4003],[22.3841,56.4003],[22.3836,56.4002],[22.3831,56.4003],[22.3825,56.4003],[22.3818,56.4004],[22.3813,56.4005],[22.381,56.4006],[22.3808,56.4007],[22.3806,56.4007],[22.3802,56.4006],[22.3798,56.4005],[22.3793,56.4004],[22.3788,56.4004],[22.3784,56.4004],[22.3782,56.4004],[22.3779,56.4006],[22.3777,56.4007],[22.3776,56.4007],[22.3772,56.4008],[22.3768,56.4009],[22.3754,56.4013],[22.3745,56.4015],[22.3739,56.4017],[22.3735,56.4019],[22.3733,56.4019],[22.3731,56.4018],[22.373,56.4018],[22.3729,56.4018],[22.3727,56.4017],[22.3726,56.4016],[22.3712,56.4017],[22.3689,56.4019],[22.3682,56.4019],[22.3674,56.4019],[22.3666,56.4019],[22.3659,56.402],[22.3653,56.402],[22.3649,56.4019],[22.3647,56.4018],[22.3645,56.4017],[22.3644,56.4016],[22.3641,56.4014],[22.3636,56.4012],[22.3622,56.4005],[22.3614,56.4003],[22.3608,56.4001],[22.3597,56.4],[22.3584,56.3999],[22.3578,56.3998],[22.3572,56.3995],[22.3567,56.3991],[22.3562,56.3986],[22.356,56.3983],[22.3559,56.3981],[22.3557,56.3977],[22.3557,56.3974],[22.3557,56.3971],[22.3557,56.3967],[22.3556,56.3963],[22.3552,56.396],[22.354,56.3952],[22.3539,56.3951],[22.3537,56.3951],[22.3535,56.3951],[22.3533,56.3952],[22.3531,56.3952],[22.3529,56.3952],[22.3527,56.3951],[22.3519,56.3947],[22.3517,56.3946],[22.3514,56.3944],[22.3508,56.3942],[22.3505,56.3941],[22.3503,56.394],[22.3492,56.3938],[22.3485,56.3938],[22.348,56.3939],[22.3469,56.394],[22.3454,56.3942],[22.3446,56.3944],[22.3437,56.3947],[22.3421,56.3952],[22.3412,56.3956],[22.3409,56.3959],[22.3404,56.3962],[22.34,56.3966],[22.3399,56.3972],[22.3398,56.3975],[22.3393,56.3977],[22.3388,56.398],[22.338,56.3982],[22.3373,56.3983],[22.3368,56.3984],[22.3359,56.3987],[22.335,56.3991],[22.3347,56.3995],[22.3347,56.3998],[22.3345,56.4003],[22.3344,56.4005],[22.334,56.4009],[22.3336,56.4011],[22.3332,56.4012],[22.3324,56.4013],[22.3318,56.4012],[22.3311,56.4011],[22.3304,56.401],[22.3293,56.401],[22.3285,56.401],[22.3278,56.4011],[22.3252,56.4014],[22.3244,56.4016],[22.3238,56.4017],[22.3228,56.4018],[22.3222,56.4019],[22.3219,56.402],[22.3216,56.4022],[22.3213,56.4027],[22.3211,56.4032],[22.3211,56.4035],[22.3214,56.4038],[22.3216,56.4043],[22.3216,56.4048],[22.3215,56.4051],[22.3212,56.4054],[22.321,56.4058],[22.3209,56.4062],[22.3202,56.407],[22.3198,56.4072],[22.3197,56.4077],[22.3195,56.4079],[22.319,56.4083],[22.3187,56.4085],[22.318,56.4087],[22.3173,56.4088],[22.3169,56.4088],[22.316,56.409],[22.3154,56.409],[22.3146,56.4092],[22.3135,56.4093],[22.3129,56.4094],[22.3124,56.4096],[22.3121,56.4099],[22.3118,56.41],[22.3115,56.41],[22.3111,56.41],[22.3107,56.4098],[22.3102,56.4096],[22.3093,56.4089],[22.3088,56.4087],[22.3067,56.4086],[22.3064,56.4086],[22.3056,56.4086],[22.3047,56.4085],[22.3033,56.4082],[22.3023,56.408],[22.3016,56.4079],[22.3008,56.4079],[22.3001,56.4078],[22.2995,56.4077],[22.2989,56.4075],[22.2978,56.4071],[22.2973,56.407],[22.2967,56.407],[22.296,56.4072],[22.2946,56.4077],[22.2939,56.4077],[22.2933,56.4078],[22.2927,56.4077],[22.2918,56.4077],[22.2912,56.4078],[22.2903,56.408],[22.2897,56.4082],[22.2892,56.4086],[22.2884,56.4091],[22.288,56.4094],[22.2877,56.4096],[22.2876,56.4099],[22.2875,56.4101],[22.2872,56.4102],[22.2866,56.4104],[22.2861,56.4104],[22.2858,56.4103],[22.2856,56.4102],[22.285,56.4094],[22.2847,56.4088],[22.2843,56.4085],[22.284,56.4083],[22.2834,56.4083],[22.2828,56.4083],[22.2824,56.4083],[22.282,56.4082],[22.2813,56.4079],[22.2806,56.4075],[22.2802,56.4072],[22.28,56.4069],[22.2799,56.4063],[22.2797,56.4058],[22.2798,56.4052],[22.2796,56.4048],[22.2794,56.4044],[22.2791,56.404],[22.2788,56.4038],[22.2786,56.4037],[22.2783,56.4036],[22.2777,56.4037],[22.2768,56.4038],[22.2763,56.4037],[22.2751,56.4036],[22.2743,56.4036],[22.2739,56.4036],[22.2734,56.4037],[22.2728,56.4038],[22.2721,56.4038],[22.2716,56.4038],[22.2703,56.4037],[22.2687,56.4036],[22.2681,56.4036],[22.2677,56.4035],[22.2674,56.4034],[22.267,56.4034],[22.2667,56.4034],[22.2665,56.4035],[22.2662,56.4038],[22.2652,56.4046],[22.2648,56.4047],[22.2645,56.4047],[22.2642,56.4046],[22.264,56.4045],[22.2638,56.4044],[22.2634,56.4038],[22.2631,56.4036],[22.2627,56.4035],[22.2623,56.4035],[22.2618,56.4036],[22.2612,56.4036],[22.2603,56.4033],[22.2598,56.4032],[22.2593,56.4029],[22.2587,56.4027],[22.2581,56.4024],[22.2576,56.4023],[22.2561,56.4021],[22.2555,56.4021],[22.2546,56.4019],[22.2539,56.4018],[22.2533,56.4016],[22.2523,56.4011],[22.2516,56.4009],[22.251,56.4008],[22.2504,56.4009],[22.2497,56.401],[22.2488,56.4013],[22.2484,56.4014],[22.2479,56.4014],[22.2476,56.4013],[22.2469,56.4009],[22.2453,56.4],[22.2447,56.3998],[22.244,56.3997],[22.2437,56.3997],[22.2432,56.3998],[22.2426,56.3999],[22.2424,56.3999],[22.2421,56.3999],[22.242,56.4],[22.2415,56.4],[22.2411,56.4],[22.2407,56.4001],[22.2405,56.4001],[22.2402,56.4002],[22.2399,56.4004],[22.2399,56.4006],[22.2398,56.4008],[22.2397,56.4011],[22.2394,56.4013],[22.2391,56.4014],[22.2389,56.4015],[22.2388,56.4015],[22.2385,56.4015],[22.2383,56.4014],[22.2381,56.4013],[22.2374,56.4011],[22.2372,56.401],[22.2368,56.401],[22.2365,56.4011],[22.2362,56.4012],[22.236,56.4015],[22.2358,56.4019],[22.2356,56.4023],[22.2355,56.4026],[22.2356,56.4028],[22.2363,56.4032],[22.2366,56.4035],[22.2366,56.404],[22.2365,56.4045],[22.2361,56.4048],[22.2354,56.4053],[22.2342,56.4064],[22.2338,56.4067],[22.2334,56.4069],[22.2332,56.4072],[22.2325,56.4077],[22.2308,56.4083],[22.2304,56.4084],[22.2301,56.4084],[22.2295,56.4083],[22.2282,56.4081],[22.2279,56.4081],[22.2277,56.408],[22.2274,56.4078],[22.2271,56.4076],[22.2269,56.4076],[22.2253,56.4072],[22.2249,56.4072],[22.2245,56.4072],[22.2243,56.4073],[22.2241,56.4076],[22.2242,56.4078],[22.2244,56.4083],[22.2245,56.4085],[22.2243,56.4087],[22.224,56.4089],[22.2236,56.409],[22.2226,56.4093],[22.2223,56.4094],[22.2212,56.4103],[22.221,56.4106],[22.2209,56.4107],[22.221,56.4108],[22.2213,56.4112],[22.2214,56.4114],[22.2214,56.4116],[22.2212,56.4118],[22.2208,56.4119],[22.2202,56.4119],[22.2195,56.4119],[22.2191,56.4119],[22.2188,56.4119],[22.2184,56.4119],[22.2176,56.4119],[22.2166,56.412],[22.2157,56.4122],[22.2154,56.4123],[22.2153,56.4125],[22.2151,56.4128],[22.2151,56.4131],[22.2153,56.4135],[22.2155,56.4138],[22.2157,56.4145],[22.2156,56.4156],[22.215,56.4168],[22.2144,56.4176],[22.2142,56.418],[22.2138,56.4187],[22.2133,56.4194],[22.2121,56.4218],[22.2113,56.4229],[22.2108,56.4234],[22.2098,56.4239],[22.2085,56.4242],[22.208,56.4243],[22.1879,56.4214],[22.1657,56.4196],[22.1537,56.4254],[22.137,56.4286],[22.1371,56.429],[22.1346,56.4299],[22.1334,56.4312],[22.1301,56.4321],[22.1278,56.4314],[22.1224,56.4317],[22.1173,56.4302],[22.1147,56.4284],[22.1082,56.4285],[22.104,56.4278],[22.1018,56.4261],[22.0972,56.4274],[22.0894,56.4282],[22.0848,56.4256],[22.0843,56.4233],[22.0799,56.4231],[22.0719,56.4249],[22.0678,56.4238],[22.067,56.4211],[22.0621,56.4194],[22.0526,56.421],[22.0496,56.4182],[22.0475,56.4173],[22.0435,56.4187],[22.0396,56.4218],[22.0324,56.4249],[22.0206,56.4248],[22.016,56.4241],[22.0112,56.42],[22.0122,56.4173],[22.0142,56.4153],[22.0127,56.4141],[22.0098,56.4135],[22.0025,56.4133],[21.9998,56.4149],[21.9963,56.4149],[21.9951,56.4135],[21.9917,56.4136],[21.9936,56.4107],[21.9923,56.4063],[21.9895,56.4058],[21.9901,56.4043],[21.9896,56.4038],[21.9896,56.4028],[21.9886,56.4015],[21.988,56.4003],[21.9875,56.4001],[21.9857,56.4001],[21.9851,56.3999],[21.9847,56.3998],[21.9821,56.3983],[21.9821,56.3968],[21.9804,56.3956],[21.9804,56.395],[21.9802,56.3948],[21.9777,56.3938],[21.9776,56.3936],[21.9766,56.39],[21.9776,56.3874],[21.9782,56.3851],[21.9735,56.3779],[21.9695,56.3766],[21.9619,56.3779],[21.9582,56.3816],[21.9542,56.3816],[21.9524,56.3805],[21.9508,56.3799],[21.9503,56.3796],[21.9488,56.3786],[21.9472,56.3779],[21.9456,56.3765],[21.9449,56.3748],[21.9412,56.3749],[21.9394,56.3744],[21.937,56.3746],[21.9323,56.3734],[21.9204,56.3724],[21.9193,56.372],[21.9186,56.3715],[21.9183,56.3702],[21.919,56.3696],[21.9194,56.3685],[21.9181,56.3681],[21.9167,56.3684],[21.9123,56.3672],[21.9118,56.3671],[21.9113,56.3671],[21.904,56.3657],[21.9028,56.3656],[21.8946,56.3648],[21.8943,56.365],[21.894,56.3651],[21.8936,56.3651],[21.8892,56.3643],[21.8872,56.3642],[21.8809,56.3637],[21.873,56.3614],[21.8709,56.3616],[21.8688,56.3626],[21.8677,56.3639],[21.8665,56.366],[21.8604,56.3673],[21.8565,56.3682],[21.8537,56.3689],[21.8504,56.3698],[21.8357,56.3716],[21.8243,56.3648],[21.8241,56.3631],[21.8213,56.3632],[21.8202,56.3629],[21.8194,56.3632],[21.8189,56.3631],[21.8171,56.3621],[21.816,56.362],[21.8142,56.3616],[21.8123,56.3622],[21.8081,56.3624],[21.8078,56.3622],[21.8083,56.3612],[21.8078,56.3587],[21.8064,56.3574],[21.8062,56.3562],[21.8036,56.3546],[21.8021,56.3525],[21.7988,56.3506],[21.7916,56.3482],[21.7868,56.3435],[21.7836,56.3428],[21.778,56.3406],[21.7653,56.3371],[21.7573,56.3373],[21.7543,56.3351],[21.7469,56.3329],[21.7449,56.3307],[21.7411,56.3297],[21.7391,56.3279],[21.7379,56.3257],[21.7358,56.3248],[21.7347,56.3226],[21.7331,56.3212],[21.7269,56.3201],[21.726,56.3149],[21.7251,56.3138],[21.7221,56.3136],[21.7161,56.3142],[21.716,56.3142],[21.7158,56.3142],[21.7157,56.3143],[21.7154,56.3143],[21.7152,56.3143],[21.7151,56.3143],[21.715,56.3143],[21.715,56.3143],[21.7147,56.3145],[21.7144,56.3145],[21.7142,56.3144],[21.7141,56.3142],[21.7139,56.3141],[21.7136,56.3142],[21.7135,56.314],[21.7137,56.3139],[21.7138,56.3139],[21.7137,56.3137],[21.7141,56.3135],[21.7141,56.3135],[21.7138,56.3134],[21.7137,56.3134],[21.7135,56.3133],[21.7133,56.3133],[21.7131,56.3133],[21.7131,56.3135],[21.7127,56.3135],[21.7126,56.3136],[21.7123,56.3137],[21.7122,56.3138],[21.7119,56.314],[21.712,56.3142],[21.7119,56.3142],[21.7117,56.3141],[21.7116,56.314],[21.7115,56.314],[21.7113,56.314],[21.7113,56.3141],[21.7111,56.3141],[21.7108,56.3141],[21.7106,56.3141],[21.7105,56.3144],[21.7104,56.3145],[21.7102,56.3145],[21.7101,56.3145],[21.7101,56.3143],[21.7103,56.3141],[21.7104,56.3138],[21.7104,56.3138],[21.7101,56.3136],[21.7099,56.3136],[21.7098,56.3136],[21.7094,56.3137],[21.7088,56.3137],[21.7085,56.3137],[21.7082,56.3139],[21.7081,56.314],[21.7079,56.314],[21.7078,56.3139],[21.7078,56.3138],[21.7078,56.3137],[21.7079,56.3135],[21.7079,56.3134],[21.7078,56.3133],[21.7077,56.3133],[21.7075,56.3133],[21.7072,56.3133],[21.7068,56.3134],[21.7065,56.3135],[21.7063,56.3136],[21.7062,56.3136],[21.7061,56.3135],[21.7059,56.3134],[21.7058,56.3133],[21.7056,56.3133],[21.7054,56.3134],[21.7052,56.3135],[21.705,56.3135],[21.7049,56.3134],[21.7049,56.3132],[21.7048,56.3131],[21.7047,56.3131],[21.7045,56.3132],[21.7044,56.3133],[21.7041,56.3133],[21.7039,56.3134],[21.7037,56.3134],[21.7038,56.3135],[21.7042,56.3136],[21.7043,56.3136],[21.7042,56.3137],[21.7041,56.3138],[21.7034,56.3139],[21.7029,56.3141],[21.7028,56.3141],[21.7025,56.3138],[21.7023,56.3138],[21.7022,56.3138],[21.7019,56.314],[21.7018,56.3139],[21.7016,56.3138],[21.7013,56.3138],[21.7011,56.3138],[21.7011,56.3139],[21.7011,56.3141],[21.7009,56.3141],[21.7008,56.3141],[21.7005,56.314],[21.7004,56.314],[21.7002,56.314],[21.7001,56.314],[21.6998,56.3138],[21.6997,56.3137],[21.6995,56.3137],[21.6993,56.3138],[21.6989,56.3139],[21.6985,56.3139],[21.6984,56.3139],[21.6982,56.3139],[21.6981,56.3141],[21.6979,56.3142],[21.6978,56.3143],[21.6976,56.3141],[21.6976,56.3141],[21.6977,56.3139],[21.6977,56.3138],[21.6977,56.3137],[21.6977,56.3135],[21.6977,56.3135],[21.6979,56.3134],[21.6981,56.3133],[21.6981,56.3132],[21.698,56.3131],[21.698,56.3131],[21.6978,56.313],[21.6977,56.313],[21.6975,56.3131],[21.6971,56.3132],[21.6968,56.3132],[21.6965,56.3133],[21.6963,56.3132],[21.696,56.3131],[21.6956,56.313],[21.6955,56.3129],[21.6954,56.3128],[21.6953,56.3126],[21.6954,56.3125],[21.6956,56.3123],[21.6958,56.3122],[21.6957,56.3121],[21.6956,56.312],[21.6954,56.312],[21.6951,56.312],[21.6948,56.3121],[21.6946,56.3121],[21.6946,56.312],[21.6944,56.3119],[21.6943,56.3118],[21.6941,56.3118],[21.6938,56.3118],[21.6934,56.3119],[21.6931,56.3119],[21.6929,56.3118],[21.6927,56.3118],[21.6925,56.3116],[21.6924,56.3115],[21.6922,56.3115],[21.692,56.3115],[21.6917,56.3116],[21.6912,56.3119],[21.691,56.3121],[21.6909,56.3122],[21.6909,56.3124],[21.6906,56.3125],[21.6905,56.3125],[21.6902,56.3126],[21.6901,56.3125],[21.69,56.3124],[21.6901,56.3122],[21.6901,56.312],[21.6896,56.312],[21.6895,56.312],[21.6894,56.3122],[21.6893,56.3122],[21.6891,56.3122],[21.6889,56.3121],[21.6887,56.312],[21.6886,56.3119],[21.6885,56.3119],[21.6883,56.3119],[21.6881,56.3119],[21.6878,56.312],[21.6872,56.3124],[21.6868,56.3126],[21.6866,56.3126],[21.6864,56.3126],[21.6864,56.3125],[21.6864,56.3124],[21.6862,56.3124],[21.6862,56.3123],[21.6862,56.3122],[21.6865,56.3122],[21.6866,56.312],[21.6867,56.3118],[21.6866,56.3117],[21.6864,56.3116],[21.6861,56.3117],[21.6859,56.3118],[21.6856,56.3119],[21.6853,56.3121],[21.6851,56.3123],[21.6849,56.3127],[21.685,56.3129],[21.6848,56.313],[21.6846,56.3131],[21.6845,56.3131],[21.6843,56.313],[21.6838,56.313],[21.6836,56.3129],[21.6835,56.3128],[21.6832,56.3128],[21.6828,56.3128],[21.6824,56.3128],[21.6821,56.313],[21.6816,56.3132],[21.6813,56.3135],[21.6809,56.3138],[21.6807,56.3138],[21.6805,56.3138],[21.6804,56.3138],[21.6804,56.3137],[21.6803,56.3135],[21.6803,56.3132],[21.6803,56.313],[21.6802,56.3129],[21.68,56.3129],[21.6798,56.3129],[21.6795,56.313],[21.6793,56.3132],[21.6791,56.3132],[21.6788,56.3133],[21.6786,56.3135],[21.6784,56.3135],[21.6781,56.3134],[21.6778,56.3134],[21.6774,56.3135],[21.6771,56.3135],[21.6768,56.3134],[21.6766,56.3133],[21.6764,56.3133],[21.6762,56.3134],[21.676,56.3134],[21.6759,56.3133],[21.6757,56.3132],[21.6756,56.3129],[21.6754,56.3128],[21.6753,56.3127],[21.675,56.3126],[21.6748,56.3126],[21.6747,56.3126],[21.6746,56.3125],[21.6746,56.3124],[21.6754,56.3122],[21.6756,56.3121],[21.6756,56.312],[21.6753,56.3118],[21.6749,56.3116],[21.6743,56.3115],[21.6737,56.3114],[21.6734,56.3114],[21.6732,56.3114],[21.6731,56.3114],[21.673,56.3115],[21.6728,56.3118],[21.6724,56.3123],[21.6724,56.3124],[21.6722,56.3124],[21.6719,56.3123],[21.6716,56.3123],[21.6714,56.3124],[21.6713,56.3124],[21.6713,56.3122],[21.6713,56.3122],[21.6712,56.3122],[21.6709,56.3122],[21.6706,56.3123],[21.6705,56.3124],[21.6704,56.3126],[21.6703,56.3129],[21.6703,56.313],[21.6701,56.313],[21.67,56.3129],[21.6699,56.3128],[21.6697,56.3129],[21.6696,56.313],[21.6696,56.3132],[21.6698,56.3134],[21.67,56.3136],[21.67,56.3137],[21.67,56.3139],[21.6699,56.3139],[21.6698,56.314],[21.6696,56.314],[21.6691,56.3138],[21.6689,56.3137],[21.6688,56.3137],[21.6688,56.3137],[21.6687,56.314],[21.6688,56.3141],[21.6691,56.3145],[21.6693,56.3147],[21.6693,56.3148],[21.6692,56.315],[21.669,56.315],[21.6687,56.315],[21.6685,56.3149],[21.6682,56.3147],[21.6679,56.3147],[21.6678,56.3148],[21.6675,56.3152],[21.6676,56.3154],[21.6675,56.3155],[21.6674,56.3155],[21.6672,56.3155],[21.667,56.3154],[21.6665,56.3153],[21.6662,56.3153],[21.6659,56.3154],[21.6656,56.3155],[21.6654,56.3156],[21.6654,56.3157],[21.6656,56.3161],[21.6657,56.3163],[21.6656,56.3166],[21.6649,56.3167],[21.6646,56.3168],[21.6638,56.3171],[21.6635,56.3173],[21.6633,56.3175],[21.6633,56.3176],[21.663,56.3176],[21.6623,56.3176],[21.662,56.3176],[21.6617,56.3178],[21.6614,56.3181],[21.6612,56.3183],[21.6604,56.3185],[21.66,56.3186],[21.6595,56.3186],[21.6586,56.3184],[21.6576,56.318],[21.6574,56.318],[21.6571,56.318],[21.6567,56.3182],[21.6563,56.3184],[21.6552,56.3188],[21.6549,56.3188],[21.6546,56.3188],[21.6543,56.3187],[21.6537,56.3184],[21.6535,56.3183],[21.6534,56.3181],[21.6534,56.318],[21.6536,56.3178],[21.6535,56.3177],[21.6535,56.3176],[21.653,56.3175],[21.6525,56.3174],[21.6522,56.3174],[21.652,56.3174],[21.6517,56.3175],[21.6514,56.3177],[21.6512,56.3178],[21.6512,56.3179],[21.6514,56.318],[21.6515,56.3182],[21.6514,56.3183],[21.6512,56.3186],[21.6509,56.3188],[21.6507,56.3188],[21.6506,56.3188],[21.6503,56.3187],[21.6502,56.3187],[21.65,56.3188],[21.6498,56.3189],[21.6496,56.319],[21.6492,56.3192],[21.649,56.3191],[21.6486,56.3191],[21.6485,56.3191],[21.6484,56.3192],[21.6483,56.3193],[21.6484,56.3195],[21.6483,56.3197],[21.6483,56.3197],[21.6481,56.3197],[21.6478,56.3195],[21.6477,56.3195],[21.6476,56.3195],[21.6475,56.3196],[21.6475,56.3197],[21.6477,56.32],[21.6478,56.3201],[21.6477,56.3202],[21.6475,56.3202],[21.6471,56.3203],[21.6468,56.3203],[21.6465,56.3204],[21.6461,56.3206],[21.6458,56.3208],[21.6456,56.3208],[21.6453,56.3208],[21.6451,56.3207],[21.645,56.3205],[21.6448,56.3204],[21.6447,56.3204],[21.6446,56.3205],[21.6445,56.3207],[21.6443,56.3207],[21.6441,56.3207],[21.6439,56.3207],[21.6437,56.3206],[21.6437,56.3205],[21.6435,56.3202],[21.6433,56.32],[21.6429,56.3199],[21.6425,56.3198],[21.6423,56.3198],[21.6422,56.3199],[21.642,56.3201],[21.6419,56.3203],[21.6417,56.3204],[21.6414,56.3204],[21.6412,56.3203],[21.641,56.3203],[21.6408,56.3202],[21.6406,56.3201],[21.6403,56.3201],[21.6398,56.3202],[21.6394,56.3203],[21.6392,56.3202],[21.6389,56.3202],[21.6387,56.3201],[21.6385,56.3201],[21.6385,56.3202],[21.6385,56.3203],[21.6385,56.3204],[21.6387,56.3205],[21.6388,56.3207],[21.6388,56.3207],[21.6388,56.3208],[21.6385,56.3209],[21.6384,56.321],[21.6383,56.3211],[21.6384,56.3212],[21.6385,56.3213],[21.6385,56.3214],[21.6384,56.3214],[21.6383,56.3214],[21.6381,56.3214],[21.638,56.3214],[21.6379,56.3215],[21.6378,56.3217],[21.6377,56.3218],[21.6375,56.3218],[21.6371,56.3218],[21.6367,56.3218],[21.6364,56.3218],[21.636,56.3218],[21.6355,56.3218],[21.6352,56.3218],[21.6351,56.3219],[21.6349,56.322],[21.6349,56.3222],[21.635,56.3225],[21.635,56.3227],[21.635,56.3229],[21.6349,56.3229],[21.6347,56.323],[21.6344,56.3229],[21.6342,56.3228],[21.634,56.3227],[21.6337,56.3226],[21.6333,56.3226],[21.6332,56.3225],[21.6331,56.3223],[21.633,56.3222],[21.6327,56.3222],[21.6324,56.3222],[21.6323,56.3223],[21.6323,56.3225],[21.6324,56.3226],[21.6323,56.3229],[21.6324,56.323],[21.6326,56.3231],[21.6327,56.3231],[21.6328,56.3231],[21.6328,56.3232],[21.6326,56.3232],[21.6323,56.3232],[21.632,56.3232],[21.6319,56.3232],[21.632,56.3231],[21.6321,56.323],[21.6321,56.323],[21.632,56.3229],[21.6318,56.3229],[21.6317,56.323],[21.6314,56.3231],[21.6312,56.3232],[21.6309,56.3232],[21.6307,56.3231],[21.6305,56.3229],[21.6304,56.3229],[21.6303,56.3229],[21.63,56.3231],[21.6298,56.3231],[21.6295,56.3231],[21.6294,56.323],[21.6292,56.3226],[21.629,56.3224],[21.6288,56.3223],[21.6286,56.3223],[21.6285,56.3222],[21.6283,56.322],[21.6281,56.322],[21.6279,56.3219],[21.6276,56.3218],[21.6275,56.3218],[21.6273,56.3219],[21.6272,56.322],[21.6271,56.322],[21.6271,56.322],[21.627,56.3221],[21.6269,56.3221],[21.6268,56.3221],[21.6266,56.3222],[21.6266,56.3222],[21.6266,56.3223],[21.6264,56.3224],[21.6263,56.3224],[21.6261,56.3225],[21.626,56.3226],[21.626,56.3227],[21.626,56.3228],[21.6261,56.3229],[21.626,56.3229],[21.6256,56.3229],[21.6255,56.3229],[21.6254,56.3229],[21.6254,56.323],[21.6253,56.3232],[21.6253,56.3233],[21.6252,56.3233],[21.6251,56.3233],[21.6251,56.3232],[21.6251,56.323],[21.6251,56.323],[21.625,56.3229],[21.6247,56.323],[21.6247,56.3229],[21.6247,56.3229],[21.6247,56.3228],[21.6249,56.3227],[21.6249,56.3227],[21.6249,56.3226],[21.6248,56.3226],[21.6247,56.3226],[21.6245,56.3226],[21.6242,56.3227],[21.6239,56.3228],[21.6237,56.3228],[21.6235,56.3228],[21.6234,56.3228],[21.6233,56.3229],[21.6232,56.3231],[21.6231,56.3231],[21.623,56.3231],[21.6229,56.323],[21.6229,56.323],[21.6229,56.3229],[21.6229,56.3228],[21.6228,56.3227],[21.6227,56.3227],[21.6224,56.3227],[21.6223,56.3228],[21.6223,56.3228],[21.6222,56.323],[21.6222,56.3232],[21.6221,56.3234],[21.6219,56.3236],[21.6216,56.3237],[21.6214,56.3238],[21.6212,56.3239],[21.6211,56.3239],[21.6209,56.3239],[21.6207,56.3239],[21.6205,56.3239],[21.6205,56.324],[21.6205,56.3241],[21.6204,56.3242],[21.6202,56.3243],[21.6202,56.3243],[21.6201,56.3242],[21.6198,56.3241],[21.6197,56.324],[21.6196,56.3239],[21.6194,56.3239],[21.6192,56.324],[21.6191,56.3242],[21.619,56.3243],[21.6188,56.3243],[21.6185,56.3242],[21.6181,56.3242],[21.6179,56.3243],[21.6178,56.3244],[21.6177,56.3246],[21.6177,56.3246],[21.6176,56.3246],[21.6174,56.3247],[21.6172,56.3246],[21.617,56.3245],[21.6168,56.3246],[21.6166,56.3248],[21.6165,56.3248],[21.6163,56.3248],[21.6161,56.3248],[21.6158,56.3246],[21.6156,56.3246],[21.6154,56.3246],[21.6152,56.3245],[21.6151,56.3244],[21.6148,56.3242],[21.6147,56.3241],[21.6145,56.324],[21.6142,56.324],[21.6139,56.324],[21.6135,56.3241],[21.6133,56.3243],[21.6126,56.3244],[21.6125,56.3244],[21.6123,56.3245],[21.6123,56.3248],[21.6122,56.3249],[21.6122,56.3249],[21.612,56.3249],[21.6118,56.325],[21.6115,56.3251],[21.6112,56.3252],[21.611,56.3251],[21.6108,56.3251],[21.6107,56.325],[21.6107,56.3249],[21.6105,56.3248],[21.6104,56.3247],[21.6101,56.3248],[21.6098,56.3248],[21.6097,56.3248],[21.6095,56.3248],[21.6093,56.3247],[21.609,56.3248],[21.6089,56.3248],[21.6088,56.3247],[21.6087,56.3247],[21.6085,56.3246],[21.6081,56.3246],[21.6076,56.3246],[21.6074,56.3245],[21.6072,56.3244],[21.6071,56.3241],[21.6071,56.324],[21.6071,56.3239],[21.6074,56.3237],[21.6077,56.3235],[21.6078,56.3233],[21.6076,56.3232],[21.6073,56.3232],[21.607,56.3233],[21.6067,56.3234],[21.6065,56.3235],[21.6064,56.3235],[21.6064,56.3235],[21.6063,56.3234],[21.6061,56.3233],[21.6059,56.3234],[21.6058,56.3235],[21.6057,56.3236],[21.6056,56.3236],[21.6055,56.3236],[21.6053,56.3235],[21.6051,56.3235],[21.605,56.3236],[21.6049,56.3238],[21.6048,56.3239],[21.6048,56.3239],[21.6046,56.3239],[21.6044,56.3238],[21.6042,56.3239],[21.6041,56.3239],[21.604,56.324],[21.6039,56.3241],[21.6038,56.3241],[21.6023,56.3241],[21.6021,56.3242],[21.6017,56.3242],[21.6015,56.3243],[21.6014,56.3243],[21.6013,56.3242],[21.6012,56.3242],[21.6012,56.3242],[21.6012,56.3241],[21.6013,56.3239],[21.6014,56.3238],[21.6015,56.3237],[21.6015,56.3237],[21.6014,56.3236],[21.6012,56.3236],[21.6009,56.3236],[21.6008,56.3236],[21.6007,56.3235],[21.6006,56.3235],[21.6004,56.3234],[21.6002,56.3234],[21.6002,56.3235],[21.6002,56.3236],[21.6003,56.3237],[21.6003,56.3237],[21.6002,56.3238],[21.6002,56.3238],[21.6,56.3238],[21.5999,56.3238],[21.5998,56.3238],[21.5997,56.3238],[21.5996,56.3237],[21.5993,56.3236],[21.5991,56.3236],[21.5989,56.3237],[21.5987,56.3239],[21.5986,56.324],[21.5984,56.324],[21.5983,56.3239],[21.5982,56.3238],[21.5983,56.3235],[21.5983,56.3232],[21.5983,56.3231],[21.598,56.3232],[21.5979,56.3232],[21.5973,56.3231],[21.5967,56.3231],[21.5954,56.3229],[21.5953,56.3229],[21.5952,56.3229],[21.5952,56.3229],[21.5951,56.323],[21.5949,56.3235],[21.5949,56.3235],[21.5948,56.3235],[21.5947,56.3235],[21.5947,56.3235],[21.5946,56.3236],[21.5946,56.3236],[21.5944,56.3236],[21.5943,56.3234],[21.5939,56.323],[21.5936,56.3227],[21.5934,56.3226],[21.5924,56.3225],[21.5922,56.3225],[21.5917,56.3227],[21.5914,56.3227],[21.5913,56.3227],[21.5909,56.3228],[21.5907,56.3229],[21.5906,56.3229],[21.5903,56.3228],[21.5901,56.3227],[21.5898,56.3226],[21.5895,56.3226],[21.5893,56.3226],[21.5892,56.3226],[21.5889,56.3226],[21.5887,56.3227],[21.5885,56.3227],[21.5882,56.3228],[21.5879,56.3228],[21.5878,56.3228],[21.5875,56.3228],[21.5874,56.3228],[21.5872,56.3228],[21.5871,56.3228],[21.5869,56.3228],[21.5868,56.3227],[21.5867,56.3227],[21.5866,56.3224],[21.5866,56.3223],[21.5864,56.3222],[21.5863,56.3221],[21.5861,56.3221],[21.5859,56.3221],[21.5858,56.3221],[21.5857,56.3221],[21.5856,56.322],[21.5856,56.322],[21.5856,56.3219],[21.5857,56.3219],[21.5858,56.3219],[21.5859,56.3218],[21.586,56.3218],[21.5859,56.3217],[21.5858,56.3217],[21.5856,56.3216],[21.5854,56.3215],[21.5852,56.3215],[21.585,56.3215],[21.5849,56.3215],[21.5848,56.3215],[21.5847,56.3216],[21.5846,56.3216],[21.5845,56.3216],[21.5845,56.3215],[21.5845,56.3214],[21.5847,56.3213],[21.5848,56.3212],[21.5848,56.3212],[21.5848,56.3212],[21.5849,56.3211],[21.585,56.321],[21.5853,56.3211],[21.5854,56.321],[21.5856,56.321],[21.5857,56.3209],[21.5858,56.3209],[21.5858,56.3208],[21.5857,56.3207],[21.5856,56.3207],[21.5855,56.3207],[21.5854,56.3206],[21.5854,56.3205],[21.5854,56.3204],[21.5854,56.3203],[21.5854,56.3202],[21.5852,56.3201],[21.585,56.3201],[21.5847,56.3201],[21.5846,56.3201],[21.5845,56.32],[21.5844,56.32],[21.5842,56.32],[21.5841,56.32],[21.5841,56.32],[21.584,56.3199],[21.584,56.3199],[21.5839,56.3198],[21.5837,56.3198],[21.5835,56.3199],[21.5833,56.3199],[21.5832,56.3199],[21.583,56.3199],[21.5827,56.3198],[21.5823,56.3196],[21.5822,56.3196],[21.5821,56.3196],[21.5818,56.3197],[21.5816,56.3198],[21.5815,56.3198],[21.5813,56.3198],[21.5813,56.3198],[21.5812,56.3197],[21.581,56.3197],[21.5809,56.3197],[21.5809,56.3197],[21.5808,56.3198],[21.5807,56.3199],[21.5807,56.3199],[21.5806,56.3199],[21.5804,56.3198],[21.5803,56.3197],[21.5802,56.3197],[21.5801,56.3197],[21.58,56.3198],[21.5798,56.3199],[21.5797,56.32],[21.5795,56.32],[21.5794,56.32],[21.5794,56.3199],[21.5794,56.3198],[21.5792,56.3197],[21.579,56.3196],[21.5789,56.3195],[21.5789,56.3194],[21.5789,56.3192],[21.579,56.3191],[21.5791,56.3191],[21.5791,56.319],[21.5791,56.3189],[21.579,56.3189],[21.5788,56.3188],[21.5785,56.3187],[21.5784,56.3186],[21.5782,56.3184],[21.5782,56.3183],[21.5782,56.3182],[21.5783,56.318],[21.5784,56.318],[21.5784,56.3178],[21.5784,56.3178],[21.5784,56.3177],[21.5785,56.3176],[21.5786,56.3176],[21.5789,56.3175],[21.5791,56.3174],[21.5792,56.3173],[21.5792,56.3173],[21.579,56.3172],[21.5785,56.3169],[21.5782,56.3168],[21.5782,56.3167],[21.5782,56.3166],[21.5785,56.3165],[21.5785,56.3164],[21.5785,56.3163],[21.5784,56.3163],[21.5782,56.3162],[21.5778,56.3162],[21.5774,56.3162],[21.5773,56.3161],[21.5771,56.316],[21.577,56.3158],[21.577,56.3156],[21.5771,56.3156],[21.5772,56.3155],[21.5777,56.3156],[21.578,56.3156],[21.5782,56.3156],[21.5783,56.3156],[21.5784,56.3155],[21.5784,56.3154],[21.5784,56.3153],[21.5785,56.3152],[21.5785,56.3151],[21.5784,56.3151],[21.5781,56.315],[21.5779,56.315],[21.577,56.315],[21.5764,56.3151],[21.5761,56.3151],[21.5758,56.3151],[21.5754,56.3151],[21.575,56.3152],[21.5747,56.3152],[21.5745,56.3153],[21.5744,56.3154],[21.5744,56.3157],[21.5744,56.3157],[21.5743,56.3158],[21.5742,56.3158],[21.5741,56.3158],[21.5738,56.3157],[21.5736,56.3157],[21.5733,56.3157],[21.5729,56.3158],[21.5724,56.316],[21.5721,56.316],[21.5718,56.3161],[21.5716,56.3161],[21.5714,56.3162],[21.5713,56.3161],[21.5712,56.316],[21.5713,56.3158],[21.5712,56.3158],[21.5712,56.3158],[21.5711,56.3157],[21.5709,56.3157],[21.5708,56.3157],[21.5701,56.3156],[21.5699,56.3155],[21.5697,56.3155],[21.5696,56.3155],[21.5694,56.3155],[21.5692,56.3156],[21.5688,56.3156],[21.5686,56.3156],[21.5684,56.3156],[21.5683,56.3155],[21.5682,56.3154],[21.5682,56.3154],[21.568,56.3153],[21.5679,56.3154],[21.5675,56.3156],[21.5674,56.3157],[21.5674,56.3158],[21.5673,56.316],[21.5672,56.316],[21.5671,56.316],[21.567,56.316],[21.5669,56.3159],[21.5667,56.3159],[21.5667,56.316],[21.5666,56.3161],[21.5664,56.3162],[21.5663,56.3162],[21.5661,56.3163],[21.566,56.3163],[21.566,56.3162],[21.566,56.3162],[21.5662,56.316],[21.5663,56.316],[21.5663,56.3159],[21.5662,56.3158],[21.5661,56.3158],[21.5661,56.3158],[21.566,56.3158],[21.5655,56.316],[21.5654,56.316],[21.5654,56.3161],[21.5655,56.3162],[21.5656,56.3162],[21.5657,56.3162],[21.5656,56.3164],[21.5656,56.3166],[21.5655,56.3168],[21.5654,56.3169],[21.5654,56.3169],[21.5653,56.3169],[21.5652,56.3169],[21.5649,56.3168],[21.5648,56.3167],[21.5647,56.3165],[21.5645,56.3163],[21.5645,56.3162],[21.5646,56.3162],[21.5646,56.3161],[21.5646,56.316],[21.5645,56.316],[21.5644,56.3159],[21.5642,56.316],[21.5642,56.316],[21.5641,56.3161],[21.564,56.3163],[21.5639,56.3165],[21.5638,56.3166],[21.5638,56.3167],[21.5636,56.3169],[21.5636,56.3169],[21.5634,56.3169],[21.5633,56.3169],[21.5632,56.3168],[21.5632,56.3167],[21.5633,56.3167],[21.5632,56.3166],[21.5629,56.3166],[21.5628,56.3166],[21.5627,56.3165],[21.5627,56.3164],[21.5627,56.3163],[21.5626,56.3163],[21.5624,56.3162],[21.5621,56.3162],[21.5618,56.3162],[21.5616,56.3162],[21.5612,56.3163],[21.5612,56.3162],[21.561,56.3161],[21.561,56.316],[21.5611,56.3159],[21.5611,56.3156],[21.5611,56.3152],[21.5611,56.3151],[21.5612,56.315],[21.5613,56.315],[21.5616,56.3151],[21.5617,56.3151],[21.5619,56.3151],[21.5621,56.315],[21.5622,56.3149],[21.5623,56.3147],[21.5624,56.3146],[21.5625,56.3145],[21.5626,56.3145],[21.5628,56.3145],[21.5628,56.3144],[21.5629,56.3142],[21.5629,56.314],[21.5628,56.3139],[21.5627,56.3138],[21.5626,56.3138],[21.5624,56.3138],[21.5622,56.3138],[21.5621,56.3139],[21.5621,56.314],[21.5619,56.3141],[21.5617,56.314],[21.5615,56.314],[21.5614,56.314],[21.5613,56.3141],[21.5614,56.3141],[21.5615,56.3142],[21.5615,56.3143],[21.5614,56.3144],[21.5613,56.3144],[21.5611,56.3144],[21.561,56.3143],[21.5609,56.3143],[21.5607,56.3143],[21.5606,56.3143],[21.5605,56.3142],[21.5605,56.3141],[21.5606,56.314],[21.5605,56.3139],[21.5603,56.3139],[21.5601,56.3139],[21.56,56.3139],[21.5598,56.3139],[21.5598,56.3139],[21.5597,56.3138],[21.5597,56.3137],[21.5597,56.3137],[21.5594,56.3136],[21.559,56.3133],[21.5594,56.3129],[21.5599,56.3128],[21.5604,56.3127],[21.5609,56.3127],[21.5611,56.3127],[21.5615,56.3128],[21.5617,56.3128],[21.5619,56.3128],[21.562,56.3127],[21.5621,56.3125],[21.5621,56.3122],[21.5619,56.3121],[21.5614,56.3119],[21.5613,56.3118],[21.5611,56.3116],[21.5609,56.3112],[21.5606,56.3105],[21.5604,56.3101],[21.5601,56.3098],[21.5598,56.3097],[21.559,56.3093],[21.5585,56.3091],[21.5575,56.3083],[21.5572,56.3081],[21.557,56.3079],[21.5569,56.3079],[21.5568,56.3078],[21.5563,56.3078],[21.5561,56.3077],[21.556,56.3077],[21.5559,56.3077],[21.5559,56.3076],[21.5559,56.3074],[21.5559,56.3073],[21.556,56.3071],[21.5561,56.307],[21.5564,56.3067],[21.5568,56.3066],[21.5568,56.3066],[21.5568,56.3065],[21.5568,56.3065],[21.5568,56.3064],[21.5566,56.3062],[21.5566,56.3061],[21.5566,56.306],[21.5566,56.3059],[21.5567,56.3057],[21.5567,56.3056],[21.5567,56.3055],[21.5566,56.3055],[21.5565,56.3054],[21.5563,56.3054],[21.5561,56.3054],[21.5559,56.3054],[21.5558,56.3053],[21.5557,56.3053],[21.5557,56.3052],[21.5557,56.3052],[21.556,56.3049],[21.556,56.3049],[21.5561,56.3049],[21.5562,56.3049],[21.5564,56.305],[21.5571,56.3051],[21.5572,56.3051],[21.5573,56.3051],[21.5574,56.3051],[21.5575,56.3051],[21.5576,56.305],[21.5576,56.305],[21.5576,56.3049],[21.5575,56.3048],[21.5574,56.3047],[21.557,56.3045],[21.5568,56.3044],[21.5565,56.3043],[21.5561,56.3043],[21.556,56.3043],[21.5559,56.3043],[21.5557,56.3043],[21.5556,56.3042],[21.5555,56.3041],[21.5555,56.304],[21.5554,56.3036],[21.5554,56.3035],[21.5553,56.3034],[21.5551,56.3034],[21.555,56.3034],[21.5548,56.3035],[21.5546,56.3036],[21.5545,56.3038],[21.5544,56.3038],[21.5544,56.3038],[21.5543,56.3038],[21.5541,56.3036],[21.5541,56.3035],[21.554,56.3033],[21.5541,56.303],[21.5541,56.303],[21.5544,56.3027],[21.5544,56.3026],[21.5544,56.3026],[21.5544,56.3025],[21.5542,56.3024],[21.5539,56.3024],[21.5537,56.3024],[21.5533,56.3024],[21.5528,56.3024],[21.5527,56.3025],[21.5525,56.3025],[21.5523,56.3024],[21.552,56.3024],[21.5515,56.3023],[21.5511,56.3022],[21.5499,56.3017],[21.5491,56.3013],[21.548,56.3008],[21.5479,56.3007],[21.5478,56.3005],[21.5477,56.3004],[21.5477,56.3003],[21.5478,56.3003],[21.548,56.3001],[21.5481,56.3],[21.5481,56.3],[21.5481,56.2999],[21.548,56.2999],[21.548,56.2998],[21.5478,56.2998],[21.5475,56.2999],[21.5474,56.2999],[21.5472,56.2999],[21.5471,56.2998],[21.5468,56.2996],[21.5466,56.2994],[21.5466,56.2993],[21.5467,56.2993],[21.5469,56.2992],[21.547,56.2991],[21.5471,56.299],[21.5471,56.299],[21.547,56.2988],[21.5468,56.2985],[21.5468,56.2984],[21.5468,56.2983],[21.5471,56.298],[21.5471,56.2979],[21.5469,56.2977],[21.5467,56.2976],[21.5465,56.2976],[21.5462,56.2975],[21.5458,56.2974],[21.5456,56.2974],[21.5453,56.2973],[21.5451,56.2973],[21.5449,56.2974],[21.5447,56.2974],[21.5443,56.2977],[21.5441,56.298],[21.5439,56.298],[21.5436,56.2981],[21.5428,56.2983],[21.5425,56.2983],[21.5423,56.2982],[21.5421,56.2982],[21.5418,56.298],[21.5417,56.2978],[21.5416,56.2977],[21.5415,56.2975],[21.5415,56.297],[21.5414,56.2969],[21.5412,56.2968],[21.5409,56.2967],[21.5401,56.2965],[21.5398,56.2964],[21.5397,56.2964],[21.5395,56.2962],[21.5394,56.2961],[21.5393,56.296],[21.539,56.2959],[21.5387,56.2959],[21.5384,56.2959],[21.5382,56.2958],[21.538,56.2958],[21.5379,56.2957],[21.5378,56.2956],[21.5378,56.2954],[21.5379,56.2951],[21.5379,56.2951],[21.5378,56.295],[21.5374,56.2949],[21.5373,56.2949],[21.5372,56.2948],[21.5372,56.2947],[21.5371,56.2945],[21.5371,56.2944],[21.5371,56.2944],[21.537,56.2944],[21.5364,56.2942],[21.5363,56.2942],[21.536,56.294],[21.5359,56.294],[21.5358,56.294],[21.5353,56.2939],[21.5352,56.2939],[21.5351,56.2938],[21.5348,56.2935],[21.5346,56.2934],[21.5345,56.2933],[21.5344,56.2933],[21.534,56.2933],[21.533,56.2931],[21.5327,56.2932],[21.5324,56.2932],[21.532,56.2933],[21.532,56.2935],[21.5318,56.2935],[21.5315,56.2934],[21.5313,56.2935],[21.531,56.2935],[21.5306,56.2938],[21.5302,56.2939],[21.5299,56.294],[21.5297,56.2941],[21.5294,56.2941],[21.5292,56.2941],[21.5288,56.294],[21.528,56.2938],[21.5278,56.2938],[21.5275,56.2937],[21.5273,56.2937],[21.5269,56.2937],[21.5258,56.2937],[21.5253,56.2937],[21.525,56.2937],[21.5247,56.2937],[21.5245,56.2936],[21.5241,56.2935],[21.5239,56.2933],[21.5236,56.2929],[21.5235,56.2928],[21.5233,56.2928],[21.5231,56.2928],[21.5229,56.2929],[21.5228,56.293],[21.523,56.2933],[21.5225,56.2934],[21.5225,56.2934],[21.5224,56.2934],[21.5217,56.2927],[21.5216,56.2924],[21.5215,56.2922],[21.5216,56.2918],[21.5215,56.2917],[21.5215,56.2916],[21.5214,56.2916],[21.5213,56.2916],[21.5212,56.2917],[21.5212,56.2917],[21.521,56.2918],[21.5207,56.2918],[21.5202,56.2919],[21.5197,56.2919],[21.5193,56.2919],[21.5185,56.2918],[21.5181,56.2916],[21.5181,56.2916],[21.5182,56.2914],[21.5183,56.2912],[21.5184,56.2912],[21.5185,56.2911],[21.5187,56.291],[21.5188,56.291],[21.5188,56.2909],[21.5187,56.2908],[21.5186,56.2908],[21.5185,56.2908],[21.5179,56.2908],[21.5176,56.2908],[21.5174,56.2908],[21.5172,56.2908],[21.5168,56.2909],[21.5163,56.291],[21.5161,56.2908],[21.5157,56.2904],[21.5153,56.2902],[21.515,56.2897],[21.5148,56.2895],[21.5144,56.2894],[21.5141,56.2894],[21.5139,56.2896],[21.514,56.2897],[21.514,56.2897],[21.514,56.2897],[21.5136,56.2897],[21.5133,56.2898],[21.5132,56.2899],[21.5133,56.2901],[21.5135,56.2903],[21.5135,56.2904],[21.5133,56.2907],[21.5133,56.2908],[21.5135,56.2909],[21.5138,56.2909],[21.5142,56.2911],[21.5144,56.2912],[21.5143,56.2913],[21.5143,56.2914],[21.5142,56.2915],[21.5139,56.2916],[21.5134,56.2918],[21.513,56.2919],[21.5124,56.292],[21.5111,56.2921],[21.5099,56.2921],[21.5096,56.2922],[21.5095,56.2923],[21.5096,56.2927],[21.5097,56.2929],[21.5097,56.293],[21.5095,56.2931],[21.5092,56.2931],[21.5087,56.293],[21.5083,56.293],[21.5077,56.2931],[21.5075,56.2931],[21.5072,56.2929],[21.5067,56.2923],[21.5065,56.2921],[21.5063,56.292],[21.505,56.2921],[21.503,56.2922],[21.5027,56.2923],[21.5025,56.2924],[21.5025,56.2926],[21.5025,56.2927],[21.5028,56.2929],[21.5034,56.2932],[21.5044,56.2934],[21.5053,56.2936],[21.5055,56.2937],[21.5057,56.2938],[21.5056,56.2939],[21.5046,56.2945],[21.5044,56.2946],[21.5042,56.2947],[21.504,56.2947],[21.5038,56.2948],[21.5034,56.2948],[21.5034,56.2949],[21.5032,56.2952],[21.5032,56.2952],[21.503,56.2954],[21.5029,56.2954],[21.5026,56.2955],[21.5025,56.2955],[21.5021,56.2954],[21.5017,56.2953],[21.5014,56.2953],[21.5006,56.2951],[21.5002,56.295],[21.5,56.295],[21.4998,56.2949],[21.4997,56.2948],[21.4995,56.2948],[21.4994,56.2948],[21.4994,56.2947],[21.4995,56.2944],[21.4994,56.2942],[21.4992,56.2941],[21.499,56.294],[21.4989,56.2938],[21.4989,56.2936],[21.4989,56.2935],[21.499,56.2935],[21.4991,56.2935],[21.4992,56.2935],[21.4994,56.2935],[21.4995,56.2936],[21.4997,56.2936],[21.4998,56.2936],[21.4999,56.2935],[21.4999,56.2933],[21.4998,56.2932],[21.4996,56.2931],[21.4994,56.2931],[21.4992,56.2931],[21.4991,56.2931],[21.499,56.293],[21.499,56.293],[21.4991,56.2928],[21.4996,56.2924],[21.5001,56.2921],[21.5001,56.2919],[21.5,56.2918],[21.4998,56.2917],[21.4997,56.2916],[21.4995,56.2916],[21.499,56.2916],[21.4988,56.2916],[21.4986,56.2918],[21.4983,56.2919],[21.498,56.2921],[21.4975,56.2923],[21.4968,56.2924],[21.4963,56.2924],[21.4955,56.2923],[21.4954,56.2922],[21.4951,56.292],[21.4947,56.2918],[21.4945,56.2917],[21.4944,56.2916],[21.4942,56.2916],[21.4936,56.2916],[21.4918,56.291],[21.4917,56.291],[21.4916,56.291],[21.4916,56.2908],[21.4918,56.2891],[21.4917,56.289],[21.4917,56.2889],[21.4915,56.2888],[21.4909,56.288],[21.4898,56.2872],[21.4886,56.2864],[21.4885,56.2863],[21.4866,56.2846],[21.486,56.2841],[21.4832,56.2816],[21.4767,56.2767],[21.4743,56.2748],[21.4724,56.2735],[21.4711,56.2728],[21.4695,56.272],[21.4679,56.2712],[21.4675,56.271],[21.4671,56.2707],[21.4666,56.2694],[21.4662,56.2682],[21.4656,56.2666],[21.4658,56.2659],[21.4665,56.2646],[21.4663,56.263],[21.466,56.2621],[21.4652,56.2605],[21.464,56.2595],[21.4619,56.258],[21.4608,56.2571],[21.4596,56.2561],[21.4587,56.2554],[21.4578,56.2548],[21.4578,56.2546],[21.4574,56.2529],[21.4567,56.2523],[21.4548,56.2507],[21.4525,56.2487],[21.4521,56.2485],[21.448,56.2477],[21.4438,56.2469],[21.4413,56.2465],[21.4407,56.2463],[21.4404,56.2462],[21.4361,56.2435],[21.4318,56.2408],[21.4316,56.2406],[21.4314,56.2406],[21.43,56.2407],[21.4246,56.2413],[21.4183,56.2419],[21.4179,56.242],[21.4175,56.242],[21.4171,56.2418],[21.4165,56.2416],[21.4149,56.2407],[21.4138,56.2402],[21.4133,56.2399],[21.4082,56.2373],[21.4058,56.2361],[21.4019,56.2349],[21.3966,56.2333],[21.396,56.2331],[21.3849,56.2297],[21.382,56.2288],[21.3784,56.2277],[21.3687,56.2264],[21.3644,56.2263],[21.3641,56.2262],[21.3635,56.2259],[21.3631,56.2256],[21.3629,56.2256],[21.3627,56.2256],[21.3612,56.2257],[21.3606,56.2257],[21.3603,56.2257],[21.3564,56.2251],[21.3549,56.2249],[21.3543,56.2248],[21.3538,56.2247],[21.3534,56.2245],[21.3531,56.2244],[21.3529,56.2241],[21.3525,56.2237],[21.3523,56.2235],[21.3521,56.2234],[21.3518,56.2233],[21.3513,56.2233],[21.3504,56.2232],[21.3497,56.2232],[21.3493,56.2232],[21.3489,56.2231],[21.348,56.223],[21.3477,56.2229],[21.3475,56.2228],[21.3474,56.2223],[21.3473,56.2222],[21.3473,56.2217],[21.3472,56.2215],[21.347,56.2214],[21.3467,56.2214],[21.3459,56.2214],[21.3456,56.2212],[21.3455,56.2212],[21.3455,56.2209],[21.3455,56.2206],[21.3454,56.2205],[21.3453,56.2204],[21.3452,56.2203],[21.3448,56.2202],[21.3444,56.2202],[21.344,56.2202],[21.3436,56.2203],[21.3435,56.2203],[21.3435,56.2203],[21.3432,56.2203],[21.3429,56.2202],[21.3428,56.2201],[21.3428,56.2199],[21.3428,56.2198],[21.3429,56.2197],[21.3429,56.2196],[21.3423,56.2193],[21.3417,56.2191],[21.3414,56.219],[21.3402,56.2189],[21.34,56.2188],[21.3397,56.2186],[21.3395,56.2184],[21.3393,56.2183],[21.3387,56.2182],[21.3383,56.2179],[21.3383,56.2178],[21.3381,56.2176],[21.3378,56.2174],[21.3377,56.2174],[21.3375,56.2175],[21.3373,56.2174],[21.337,56.2175],[21.3367,56.2175],[21.3366,56.2176],[21.3365,56.2177],[21.3363,56.2177],[21.3362,56.2178],[21.3359,56.2178],[21.3356,56.2177],[21.3355,56.2177],[21.3354,56.2177],[21.3353,56.2179],[21.3351,56.2179],[21.3349,56.2179],[21.3348,56.2179],[21.3348,56.2178],[21.3346,56.2177],[21.3344,56.2177],[21.3342,56.2177],[21.3341,56.2176],[21.334,56.2175],[21.3339,56.2173],[21.3339,56.2172],[21.3338,56.2172],[21.3337,56.2172],[21.3335,56.2172],[21.3334,56.2173],[21.3332,56.2173],[21.3329,56.2174],[21.3328,56.2175],[21.3327,56.2176],[21.3329,56.2178],[21.3331,56.2181],[21.3331,56.2183],[21.3331,56.2184],[21.3329,56.2184],[21.3325,56.2184],[21.3323,56.2184],[21.3318,56.2185],[21.3316,56.2185],[21.3311,56.2183],[21.3309,56.2183],[21.3307,56.2183],[21.3306,56.2184],[21.3305,56.2185],[21.3305,56.2186],[21.3304,56.2187],[21.3302,56.2187],[21.3298,56.2186],[21.3291,56.2183],[21.3287,56.2181],[21.3267,56.217],[21.3264,56.2168],[21.3259,56.2163],[21.3258,56.2163],[21.3255,56.2161],[21.3254,56.216],[21.3253,56.2159],[21.3253,56.2158],[21.3251,56.2155],[21.3249,56.2154],[21.3247,56.2153],[21.3242,56.2152],[21.3237,56.2151],[21.323,56.215],[21.3228,56.2149],[21.3225,56.2147],[21.3221,56.2145],[21.3219,56.2144],[21.3218,56.2143],[21.3216,56.214],[21.3214,56.2138],[21.3211,56.2137],[21.3208,56.2134],[21.3205,56.2131],[21.3203,56.2128],[21.32,56.2126],[21.3197,56.2125],[21.3192,56.2123],[21.3188,56.2121],[21.3185,56.2119],[21.3183,56.2116],[21.3182,56.2114],[21.3182,56.2113],[21.3183,56.2113],[21.3185,56.2112],[21.3185,56.2112],[21.3184,56.2111],[21.3183,56.211],[21.3181,56.2109],[21.3178,56.2106],[21.3174,56.2103],[21.3172,56.2101],[21.317,56.2101],[21.3165,56.2099],[21.3164,56.2098],[21.3163,56.2097],[21.3164,56.2095],[21.3164,56.2094],[21.3163,56.2093],[21.316,56.209],[21.3157,56.2089],[21.3156,56.2088],[21.3154,56.2086],[21.3152,56.2083],[21.315,56.2081],[21.3148,56.2079],[21.3145,56.2077],[21.3138,56.2074],[21.3132,56.207],[21.3125,56.2066],[21.3122,56.2064],[21.3121,56.2062],[21.3119,56.206],[21.312,56.2058],[21.3119,56.2056],[21.3118,56.2054],[21.3117,56.2053],[21.3114,56.2052],[21.3113,56.2051],[21.3111,56.205],[21.3109,56.2049],[21.3107,56.2048],[21.3103,56.2047],[21.31,56.2046],[21.3098,56.2044],[21.3095,56.2041],[21.3094,56.2038],[21.3092,56.2035],[21.3089,56.2032],[21.3082,56.2026],[21.3082,56.2024],[21.3082,56.2023],[21.3081,56.2022],[21.3076,56.2021],[21.307,56.202],[21.3068,56.202],[21.3064,56.2019],[21.3061,56.2019],[21.3059,56.2019],[21.3057,56.2017],[21.3056,56.2016],[21.3054,56.2013],[21.3049,56.2009],[21.3048,56.2008],[21.3048,56.2007],[21.3045,56.2004],[21.3042,56.2002],[21.3041,56.1999],[21.3042,56.1998],[21.3043,56.1997],[21.3045,56.1996],[21.3047,56.1995],[21.3049,56.1995],[21.3048,56.1993],[21.3039,56.1987],[21.3028,56.1976],[21.3027,56.1974],[21.302,56.1969],[21.3006,56.1959],[21.3001,56.1955],[21.2998,56.1952],[21.2995,56.195],[21.2994,56.1948],[21.2995,56.1946],[21.2996,56.1945],[21.2999,56.1943],[21.3003,56.1941],[21.3004,56.1941],[21.3004,56.1939],[21.2991,56.1925],[21.2988,56.1921],[21.2984,56.1917],[21.298,56.1916],[21.2974,56.1914],[21.297,56.1913],[21.2964,56.1912],[21.2954,56.1911],[21.295,56.191],[21.2948,56.191],[21.2947,56.1912],[21.2943,56.1913],[21.2939,56.1913],[21.2936,56.1912],[21.2933,56.191],[21.2931,56.1906],[21.2928,56.1904],[21.2927,56.1902],[21.2928,56.19],[21.2928,56.1899],[20.995,56.214],[20.9808,56.217],[20.9734,56.232]]]},"properties":{"geometry_id":"geom-territoire-su-courlande-1945-01-01","date_validite":"1945-01-01","statut":"provisoire_carte_georeferencee","sources":[{"source_id":"src-westpoint-russian-balkan-baltic-1944","locator":"carte n° 31, trait rouge plein « 31 Dec. »","usage":"position du front au 31/12/1944"}],"method":"georeferencement_puis_vectorisation","operations":["RSS de Lettonie (lot 02)","coupée par le front de Courlande géoréférencé (West Point n° 31), côté ouest"],"precision":"erreur de géoréférencement ≈ 9 km en moyenne (19 km au pire) ; carte stylisée","logiciel":"Python — scikit-image, SciPy (thin plate spline), Shapely : mêmes opérations que le géoréférenceur de QGIS","script":"outils/geo/deriver_snapshot0_fronts.py","date_creation":"2026-09-28","auteur":"Claude","points_a_verifier":["Limite est de la poche = trait du 31/12/1944 (incertitude ≈ 15 km)."],"surface_km2":15163,"zone_incertitude_km":15,"reference_temporelle":{"snapshot":"1945-01-01T00:00","observation_source":"1944-12-31","ecart":"le 31/12 (heure non précisée), avant le Snapshot","statut":"derniere_situation_connue_avant_snapshot"}}}