{"type":"Feature","geometry":{"type":"Polygon","coordinates":[[[10.39105,46.67369],[10.39031,46.67534],[10.38981,46.67703],[10.38954,46.67875],[10.38951,46.68048],[10.38973,46.68221],[10.39018,46.68391],[10.39087,46.68557],[10.39178,46.68718],[10.39292,46.68872],[10.39322,46.68909],[10.39328,46.68916],[10.39356,46.6895],[10.39389,46.68986],[10.39389,46.6899],[10.39426,46.69061],[10.3945,46.69109],[10.39463,46.69132],[10.39559,46.69283],[10.39583,46.69317],[10.3962,46.69366],[10.39626,46.69375],[10.3966,46.69418],[10.3966,46.69425],[10.39677,46.69457],[10.3968,46.69466],[10.39704,46.69511],[10.39756,46.69613],[10.39861,46.69772],[10.39989,46.69923],[10.40137,46.70065],[10.40304,46.70196],[10.40489,46.70316],[10.4069,46.70422],[10.40905,46.70515],[10.40959,46.70536],[10.41071,46.70576],[10.41125,46.70595],[10.41607,46.709],[10.41604,46.70902],[10.41609,46.7092],[10.41619,46.70983],[10.41627,46.71021],[10.41678,46.71199],[10.41755,46.71372],[10.41786,46.71431],[10.41794,46.71446],[10.41796,46.7145],[10.41796,46.71451],[10.41801,46.71453],[10.41798,46.71461],[10.41802,46.715],[10.41803,46.71516],[10.41819,46.71682],[10.41856,46.71845],[10.41865,46.71874],[10.41866,46.71876],[10.4187,46.7189],[10.41871,46.71894],[10.41876,46.71902],[10.4187,46.71903],[10.41842,46.7193],[10.4183,46.7194],[10.41819,46.7195],[10.41796,46.71972],[10.41678,46.72082],[10.41547,46.72234],[10.41438,46.72394],[10.41352,46.72561],[10.4129,46.72732],[10.41253,46.72907],[10.41241,46.73083],[10.41255,46.73259],[10.41293,46.73434],[10.41356,46.73605],[10.41443,46.73771],[10.41553,46.73931],[10.41685,46.74082],[10.41838,46.74224],[10.42011,46.74354],[10.42201,46.74473],[10.42229,46.74489],[10.42248,46.74499],[10.42267,46.74509],[10.42308,46.74527],[10.42375,46.74566],[10.42394,46.74577],[10.42434,46.74601],[10.42437,46.74603],[10.42446,46.74608],[10.42451,46.74611],[10.42494,46.74636],[10.42689,46.74752],[10.4279,46.74809],[10.4284,46.74836],[10.43053,46.74939],[10.4328,46.75027],[10.43519,46.75099],[10.43767,46.75154],[10.44022,46.75192],[10.44085,46.75199],[10.44089,46.752],[10.44129,46.75204],[10.44135,46.75205],[10.4414,46.75204],[10.4426,46.75384],[10.44424,46.75982],[10.44419,46.76022],[10.44387,46.76283],[10.44387,46.76284],[10.44381,46.7633],[10.44371,46.76342],[10.44358,46.76368],[10.44325,46.76438],[10.4431,46.76472],[10.44246,46.76646],[10.44238,46.76673],[10.44218,46.76751],[10.44209,46.76794],[10.44206,46.76808],[10.44208,46.76812],[10.44205,46.76816],[10.44186,46.76928],[10.44173,46.77042],[10.44166,46.77152],[10.44168,46.77186],[10.44141,46.77226],[10.43948,46.77501],[10.43922,46.77538],[10.43915,46.77542],[10.43903,46.77557],[10.43863,46.776],[10.43831,46.77636],[10.43708,46.77796],[10.43609,46.77964],[10.43535,46.78138],[10.43486,46.78317],[10.43464,46.78497],[10.43469,46.78679],[10.435,46.78859],[10.43557,46.79036],[10.4364,46.79208],[10.43747,46.79374],[10.43878,46.79531],[10.44032,46.79679],[10.44206,46.79815],[10.444,46.79938],[10.4461,46.80047],[10.44663,46.80072],[10.44717,46.80096],[10.44743,46.80108],[10.44755,46.80113],[10.44766,46.80115],[10.44775,46.80128],[10.44777,46.80131],[10.44823,46.80178],[10.44899,46.80261],[10.44928,46.80289],[10.45007,46.80363],[10.45053,46.80404],[10.45067,46.80414],[10.45068,46.8042],[10.45108,46.8049],[10.45118,46.80509],[10.4512,46.80513],[10.45179,46.80607],[10.45191,46.80623],[10.45203,46.80642],[10.45214,46.80659],[10.45219,46.80662],[10.45408,46.80998],[10.45424,46.81035],[10.45442,46.81072],[10.45442,46.81071],[10.45443,46.81072],[10.4546,46.81107],[10.45461,46.8111],[10.45537,46.81245],[10.45544,46.81256],[10.45599,46.81337],[10.45606,46.81347],[10.45619,46.81362],[10.45635,46.81387],[10.45644,46.81395],[10.45766,46.81608],[10.45783,46.81656],[10.4578,46.81659],[10.4578,46.81665],[10.45785,46.81705],[10.45786,46.81729],[10.45809,46.81922],[10.45863,46.82112],[10.45946,46.82298],[10.45964,46.82331],[10.46005,46.82404],[10.46033,46.82449],[10.46035,46.82452],[10.46039,46.82454],[10.46037,46.82458],[10.46037,46.8246],[10.46042,46.82499],[10.46044,46.82517],[10.46068,46.82694],[10.46118,46.82868],[10.46193,46.83039],[10.46292,46.83203],[10.46413,46.83359],[10.46557,46.83507],[10.46592,46.83539],[10.46637,46.8358],[10.46639,46.83581],[10.46646,46.83585],[10.46645,46.83588],[10.46653,46.83606],[10.46691,46.83681],[10.46712,46.83718],[10.46818,46.83885],[10.46949,46.84044],[10.47102,46.84194],[10.47277,46.84331],[10.47471,46.84456],[10.47682,46.84567],[10.47909,46.84662],[10.48149,46.84741],[10.48399,46.84803],[10.48657,46.84848],[10.4892,46.84874],[10.49186,46.84881],[10.49451,46.8487],[10.49515,46.84865],[10.49586,46.84859],[10.49589,46.84857],[10.5225,46.84657],[10.52493,46.84682],[10.52624,46.84694],[10.52687,46.84698],[10.52952,46.84707],[10.53216,46.84697],[10.53478,46.84669],[10.53734,46.84623],[10.53982,46.84559],[10.5422,46.84479],[10.54444,46.84382],[10.54653,46.8427],[10.54845,46.84145],[10.55017,46.84006],[10.55052,46.83975],[10.55084,46.83946],[10.551,46.83932],[10.55099,46.83929],[10.57091,46.84282],[10.59158,46.85433],[10.59255,46.85484],[10.59303,46.85509],[10.59509,46.85603],[10.59727,46.85683],[10.5978,46.85701],[10.59893,46.85735],[10.61172,46.86105],[10.6128,46.86136],[10.61383,46.86165],[10.62039,46.86355],[10.62161,46.86388],[10.62219,46.86402],[10.62468,46.86455],[10.62723,46.8649],[10.62982,46.86508],[10.63045,46.8651],[10.63175,46.86512],[10.65056,46.86512],[10.65085,46.8653],[10.65134,46.86556],[10.65181,46.8658],[10.654,46.86678],[10.65633,46.86761],[10.65876,46.86828],[10.66128,46.86878],[10.66385,46.8691],[10.66646,46.86925],[10.66908,46.86921],[10.67168,46.86899],[10.67424,46.8686],[10.67673,46.86803],[10.67912,46.8673],[10.68139,46.86641],[10.68353,46.86536],[10.6855,46.86417],[10.68728,46.86286],[10.68887,46.86142],[10.69024,46.85989],[10.69138,46.85827],[10.69228,46.85658],[10.69293,46.85484],[10.69298,46.85468],[10.69305,46.85442],[10.69313,46.85419],[10.69314,46.85415],[10.69313,46.85409],[10.70429,46.84669],[10.70441,46.84669],[10.70481,46.84662],[10.70493,46.8466],[10.70494,46.8466],[10.70496,46.8466],[10.70515,46.84657],[10.70765,46.84612],[10.71008,46.8455],[10.71241,46.84472],[10.71462,46.84379],[10.71668,46.84271],[10.71857,46.84149],[10.72028,46.84016],[10.72179,46.83871],[10.7219,46.8386],[10.72194,46.83856],[10.72213,46.83834],[10.72239,46.83808],[10.72248,46.83794],[10.72543,46.83793],[10.72671,46.8379],[10.72731,46.83787],[10.72987,46.83768],[10.73239,46.83732],[10.73485,46.83679],[10.73722,46.8361],[10.73948,46.83525],[10.74161,46.83425],[10.74358,46.83311],[10.74538,46.83185],[10.74699,46.83047],[10.7484,46.82899],[10.74959,46.82742],[10.75055,46.82577],[10.75127,46.82407],[10.75174,46.82233],[10.75197,46.82057],[10.75194,46.8188],[10.75166,46.81704],[10.75112,46.81531],[10.75035,46.81362],[10.75014,46.81323],[10.74966,46.81241],[10.74761,46.80912],[10.74707,46.80831],[10.74679,46.80792],[10.74555,46.80637],[10.74408,46.8049],[10.74241,46.80354],[10.74056,46.8023],[10.73854,46.8012],[10.73637,46.80023],[10.73407,46.79942],[10.73166,46.79877],[10.72918,46.79828],[10.72856,46.79819],[10.7273,46.79801],[10.72672,46.79793],[10.72609,46.79786],[10.72631,46.79745],[10.72639,46.79729],[10.7266,46.79687],[10.72678,46.79649],[10.7274,46.79495],[10.72782,46.79337],[10.72804,46.79177],[10.72807,46.79137],[10.72808,46.79092],[10.72806,46.79083],[10.73055,46.78795],[10.76248,46.78408],[10.76826,46.78668],[10.76934,46.78714],[10.76985,46.78734],[10.7721,46.78815],[10.77446,46.78881],[10.7769,46.78931],[10.7794,46.78964],[10.78193,46.7898],[10.78448,46.78979],[10.78701,46.78961],[10.7895,46.78927],[10.79194,46.78875],[10.79429,46.78808],[10.79653,46.78726],[10.79865,46.78628],[10.80062,46.78518],[10.80103,46.78492],[10.80195,46.78432],[10.81398,46.77608],[10.82504,46.77821],[10.82627,46.77843],[10.82686,46.77852],[10.82936,46.77883],[10.8319,46.77896],[10.83444,46.77893],[10.83696,46.77873],[10.83945,46.77836],[10.84187,46.77782],[10.8442,46.77713],[10.84471,46.77696],[10.84583,46.77656],[10.87921,46.76385],[10.91583,46.77372],[10.917,46.77402],[10.91756,46.77415],[10.91997,46.77462],[10.92242,46.77493],[10.92492,46.77508],[10.92552,46.77509],[10.92677,46.7751],[10.94439,46.77498],[10.94608,46.77493],[10.94776,46.77485],[10.94945,46.77472],[10.95731,46.77396],[10.95829,46.77386],[10.95954,46.77374],[10.9694,46.77279],[10.97072,46.77263],[10.97136,46.77255],[10.97396,46.77211],[10.97648,46.77149],[10.97889,46.77069],[10.97947,46.77047],[10.98062,46.77001],[10.98659,46.7675],[10.98662,46.76752],[10.98664,46.76752],[10.98674,46.76752],[10.98688,46.76752],[10.98797,46.76755],[10.9881,46.76756],[10.99095,46.76751],[10.99378,46.76726],[10.99451,46.76716],[10.99465,46.76714],[10.99531,46.76706],[10.99598,46.76694],[10.99661,46.76711],[10.99704,46.76723],[10.9982,46.76753],[10.99876,46.76766],[11.00113,46.76814],[11.00356,46.76846],[11.00602,46.76863],[11.00849,46.76863],[11.01095,46.76848],[11.01337,46.76816],[11.01575,46.76769],[11.01804,46.76706],[11.02025,46.76629],[11.02077,46.76609],[11.02183,46.76565],[11.02229,46.76545],[11.02238,46.76538],[11.02572,46.76662],[11.02581,46.77008],[11.02587,46.77101],[11.02591,46.77147],[11.02623,46.77331],[11.02683,46.77512],[11.02769,46.77688],[11.02791,46.77725],[11.02844,46.77811],[11.02864,46.77837],[11.02867,46.77847],[11.02899,46.77907],[11.02932,46.77968],[11.02945,46.77991],[11.03046,46.78145],[11.03072,46.78179],[11.03129,46.78252],[11.03302,46.7846],[11.03416,46.78818],[11.03445,46.78901],[11.03461,46.78942],[11.03537,46.79105],[11.03635,46.79262],[11.03647,46.79279],[11.03696,46.79345],[11.03753,46.79418],[11.03757,46.79418],[11.03792,46.79469],[11.03849,46.79547],[11.03878,46.79585],[11.04008,46.79733],[11.04157,46.79873],[11.04299,46.79982],[11.04298,46.79982],[11.04321,46.79999],[11.04327,46.80002],[11.04345,46.80015],[11.04346,46.80015],[11.04364,46.8003],[11.04371,46.80035],[11.04379,46.80038],[11.04382,46.80045],[11.04383,46.80045],[11.04387,46.80049],[11.04415,46.80077],[11.04425,46.80088],[11.04573,46.80231],[11.0474,46.80364],[11.04924,46.80485],[11.05125,46.80592],[11.05341,46.80686],[11.05568,46.80765],[11.05604,46.80776],[11.05649,46.80789],[11.05682,46.808],[11.05688,46.80799],[11.05768,46.8091],[11.05823,46.80984],[11.05852,46.8102],[11.05979,46.81162],[11.06124,46.81296],[11.06286,46.81419],[11.06464,46.81532],[11.06509,46.81558],[11.06603,46.81609],[11.06723,46.81673],[11.06838,46.81729],[11.06894,46.81756],[11.07136,46.81856],[11.07391,46.81938],[11.07658,46.82001],[11.07933,46.82043],[11.07955,46.82046],[11.07971,46.82048],[11.07987,46.8205],[11.08006,46.82052],[11.08046,46.82057],[11.08109,46.82062],[11.08366,46.82226],[11.08344,46.82268],[11.07697,46.83462],[11.07688,46.83478],[11.07677,46.83499],[11.07671,46.8351],[11.07661,46.8353],[11.07645,46.8356],[11.07562,46.83746],[11.07509,46.83937],[11.07486,46.8413],[11.07485,46.84171],[11.07486,46.84286],[11.07487,46.84313],[11.07491,46.84317],[11.07487,46.84322],[11.0748,46.84403],[11.07482,46.84403],[11.07476,46.84464],[11.07475,46.84483],[11.07478,46.84631],[11.07479,46.84647],[11.07482,46.84675],[11.07482,46.84683],[11.07482,46.84686],[11.07483,46.84708],[11.07483,46.84711],[11.07486,46.84713],[11.07483,46.84718],[11.07482,46.84726],[11.07481,46.84731],[11.07477,46.84758],[11.07475,46.84768],[11.07452,46.84943],[11.07454,46.85118],[11.07481,46.85292],[11.07533,46.85464],[11.07608,46.85631],[11.07707,46.85792],[11.07732,46.85829],[11.07783,46.85897],[11.07783,46.85898],[11.07787,46.85899],[11.08616,46.87443],[11.08665,46.87528],[11.08691,46.87569],[11.08808,46.87733],[11.08948,46.87888],[11.08985,46.87925],[11.09063,46.87998],[11.10164,46.88976],[11.1016,46.88977],[11.10117,46.89057],[11.10119,46.89057],[11.10088,46.89112],[11.1008,46.89129],[11.1001,46.89296],[11.09964,46.89468],[11.09943,46.89642],[11.0994,46.89686],[11.0994,46.8972],[11.09941,46.89721],[11.09939,46.89764],[11.0993,46.89942],[11.09924,46.90057],[11.09923,46.90144],[11.09923,46.90186],[11.09939,46.9036],[11.09979,46.90532],[11.10043,46.90701],[11.10131,46.90865],[11.10241,46.91022],[11.10373,46.9117],[11.10525,46.9131],[11.10696,46.91438],[11.107,46.91441],[11.10836,46.91527],[11.10844,46.91532],[11.1087,46.91547],[11.10898,46.91564],[11.10919,46.91577],[11.10924,46.91577],[11.10948,46.91619],[11.10954,46.91628],[11.10995,46.91693],[11.11021,46.91732],[11.11142,46.91893],[11.11287,46.92044],[11.11453,46.92184],[11.11638,46.92313],[11.11841,46.92427],[11.12061,46.92528],[11.12293,46.92612],[11.12537,46.92681],[11.1279,46.92732],[11.13049,46.92765],[11.13311,46.92781],[11.13574,46.92778],[11.13836,46.92757],[11.13878,46.92752],[11.13907,46.92749],[11.1394,46.92745],[11.13962,46.92741],[11.1397,46.92748],[11.13987,46.92757],[11.14044,46.9279],[11.14076,46.92809],[11.141,46.92822],[11.14364,46.92949],[11.14411,46.92968],[11.14505,46.93006],[11.14547,46.93022],[11.14554,46.93022],[11.1461,46.93046],[11.14653,46.93062],[11.14667,46.93067],[11.14667,46.93066],[11.14686,46.93074],[11.14807,46.93116],[11.14865,46.93135],[11.14882,46.93141],[11.14941,46.93159],[11.14951,46.93162],[11.14971,46.93166],[11.14977,46.93172],[11.15039,46.93201],[11.15078,46.93222],[11.15121,46.93243],[11.15381,46.93355],[11.15449,46.9338],[11.15483,46.93392],[11.15509,46.93402],[11.15516,46.93403],[11.16168,46.93928],[11.16812,46.94502],[11.16807,46.94527],[11.16803,46.94577],[11.16802,46.94617],[11.16806,46.94791],[11.16836,46.94963],[11.16889,46.95133],[11.16966,46.95298],[11.17066,46.95457],[11.17187,46.95609],[11.1733,46.95753],[11.17492,46.95886],[11.17671,46.96008],[11.17867,46.96117],[11.18078,46.96213],[11.18301,46.96295],[11.18535,46.96361],[11.18776,46.96412],[11.19024,46.96447],[11.19276,46.96465],[11.19529,46.96466],[11.19781,46.96451],[11.20029,46.96419],[11.20272,46.96371],[11.20508,46.96307],[11.20561,46.96291],[11.20675,46.96253],[11.20693,46.96246],[11.20694,46.96246],[11.207,46.96242],[11.2133,46.96563],[11.21438,46.96616],[11.21492,46.9664],[11.2172,46.96734],[11.21961,46.96811],[11.22213,46.96871],[11.22471,46.96913],[11.22735,46.96937],[11.22799,46.96941],[11.22932,46.96946],[11.24116,46.96971],[11.24164,46.96999],[11.24202,46.9702],[11.24214,46.97026],[11.24215,46.97026],[11.24268,46.97054],[11.24277,46.97059],[11.24489,46.97158],[11.24714,46.97243],[11.24951,46.97313],[11.25196,46.97366],[11.25448,46.97402],[11.25512,46.97409],[11.25645,46.97422],[11.25657,46.97423],[11.25678,46.97422],[11.25681,46.97426],[11.25705,46.97443],[11.25779,46.9749],[11.25819,46.97515],[11.26007,46.9762],[11.26209,46.97713],[11.26422,46.97792],[11.26645,46.97858],[11.26875,46.97909],[11.26907,46.97915],[11.27012,46.97933],[11.27121,46.9795],[11.27129,46.97949],[11.28173,46.98239],[11.28272,46.98267],[11.28321,46.9828],[11.28374,46.98294],[11.28374,46.98293],[11.28416,46.98305],[11.28449,46.98313],[11.28495,46.98324],[11.28495,46.98322],[11.2863,46.98354],[11.28876,46.98395],[11.29127,46.98419],[11.2938,46.98427],[11.29633,46.98418],[11.29884,46.98392],[11.3013,46.9835],[11.30187,46.98338],[11.30222,46.9833],[11.30233,46.98328],[11.30244,46.98324],[11.30255,46.98328],[11.30304,46.98336],[11.30308,46.98336],[11.30316,46.98338],[11.30337,46.98342],[11.30624,46.98385],[11.30686,46.98392],[11.3074,46.98397],[11.30768,46.98401],[11.30776,46.984],[11.30784,46.98406],[11.30879,46.98447],[11.30955,46.9848],[11.30978,46.9849],[11.31204,46.98573],[11.31441,46.9864],[11.31686,46.98691],[11.31938,46.98726],[11.32194,46.98744],[11.3245,46.98744],[11.32706,46.98727],[11.32958,46.98693],[11.33204,46.98643],[11.33441,46.98576],[11.33453,46.98572],[11.33608,46.98518],[11.33627,46.98511],[11.33663,46.98498],[11.33677,46.98492],[11.33682,46.9849],[11.33699,46.98482],[11.33707,46.98485],[11.33717,46.98486],[11.3372,46.98486],[11.33722,46.98486],[11.3382,46.98497],[11.33978,46.98515],[11.33979,46.98515],[11.34027,46.98518],[11.34065,46.98521],[11.34072,46.9852],[11.34074,46.98523],[11.34078,46.98524],[11.34177,46.98548],[11.34303,46.9858],[11.3432,46.98584],[11.34563,46.9863],[11.34811,46.98659],[11.35062,46.98673],[11.35314,46.98669],[11.35564,46.9865],[11.35811,46.98613],[11.36051,46.98561],[11.36283,46.98494],[11.36504,46.98411],[11.36526,46.98402],[11.36557,46.98389],[11.3657,46.98383],[11.3657,46.98382],[11.36857,46.98264],[11.36964,46.98217],[11.37016,46.98193],[11.37219,46.9809],[11.37407,46.97974],[11.37577,46.97845],[11.37729,46.97707],[11.37775,46.9766],[11.37795,46.97639],[11.37797,46.97633],[11.37803,46.97631],[11.3783,46.97602],[11.37837,46.97594],[11.37861,46.9757],[11.38012,46.97403],[11.38136,46.97226],[11.38152,46.972],[11.38197,46.9712],[11.38208,46.97097],[11.38227,46.97056],[11.38289,46.97051],[11.38337,46.97045],[11.38351,46.97043],[11.38387,46.97039],[11.3845,46.9703],[11.38478,46.97026],[11.38478,46.97025],[11.3858,46.9701],[11.38794,46.96966],[11.38896,46.96941],[11.38899,46.96941],[11.38899,46.9694],[11.38901,46.9694],[11.38909,46.96936],[11.38916,46.96937],[11.3894,46.96932],[11.39046,46.96914],[11.39076,46.96908],[11.39314,46.96855],[11.39543,46.96787],[11.39762,46.96704],[11.39819,46.9668],[11.39933,46.96629],[11.40201,46.96503],[11.40475,46.96491],[11.40485,46.96496],[11.40494,46.96498],[11.40607,46.96526],[11.40667,46.9654],[11.40923,46.96589],[11.41185,46.9662],[11.41451,46.96632],[11.4147,46.96633],[11.41632,46.96631],[11.41634,46.96631],[11.4165,46.9663],[11.41748,46.96628],[11.4175,46.96628],[11.41754,46.96626],[11.41756,46.96629],[11.41772,46.96637],[11.41877,46.96687],[11.41936,46.96714],[11.42192,46.96817],[11.42463,46.96899],[11.42532,46.96916],[11.42634,46.9694],[11.42638,46.96941],[11.42647,46.96942],[11.42688,46.96972],[11.42728,46.96998],[11.42732,46.97001],[11.42733,46.97001],[11.42773,46.97027],[11.42782,46.97033],[11.42956,46.97136],[11.43142,46.97228],[11.4334,46.97309],[11.43547,46.97378],[11.43601,46.97394],[11.43709,46.97423],[11.4402,46.97504],[11.44295,46.97697],[11.44294,46.97706],[11.44309,46.97748],[11.44353,46.97885],[11.44354,46.97887],[11.44431,46.98053],[11.44531,46.98212],[11.44653,46.98364],[11.44796,46.98507],[11.44958,46.9864],[11.45138,46.98762],[11.45334,46.98871],[11.45545,46.98967],[11.45768,46.99048],[11.45776,46.99051],[11.45947,46.99101],[11.45973,46.99108],[11.46013,46.99119],[11.46042,46.99127],[11.46046,46.99126],[11.46093,46.99155],[11.46094,46.99156],[11.46103,46.99161],[11.46225,46.99232],[11.46288,46.99266],[11.4655,46.99392],[11.46618,46.9942],[11.46757,46.99475],[11.46973,46.99553],[11.46971,46.99557],[11.4698,46.99569],[11.46983,46.99575],[11.46997,46.99596],[11.46999,46.99601],[11.47103,46.99762],[11.47228,46.99916],[11.47375,47.0006],[11.47542,47.00194],[11.47727,47.00316],[11.47928,47.00425],[11.48144,47.00519],[11.48373,47.00599],[11.48612,47.00664],[11.48859,47.00712],[11.49112,47.00743],[11.49368,47.00757],[11.49624,47.00754],[11.49879,47.00734],[11.50097,47.00702],[11.50097,47.00703],[11.50128,47.00698],[11.50172,47.0069],[11.50199,47.00686],[11.50211,47.00682],[11.50213,47.00683],[11.50216,47.00683],[11.50337,47.00663],[11.50422,47.00649],[11.50452,47.00644],[11.50692,47.00592],[11.50924,47.00524],[11.51145,47.00442],[11.51353,47.00345],[11.51547,47.00236],[11.51725,47.00114],[11.51764,47.00084],[11.51846,47.0002],[11.53788,46.98406],[11.58234,46.99758],[11.58232,46.99761],[11.58233,46.99761],[11.58274,46.99795],[11.58299,46.99817],[11.58464,46.99953],[11.58647,47.00077],[11.58848,47.00188],[11.59063,47.00285],[11.59291,47.00367],[11.5953,47.00433],[11.59777,47.00483],[11.59828,47.00491],[11.59882,47.00499],[11.59903,47.00503],[11.59907,47.00502],[11.60178,47.00611],[11.60288,47.00653],[11.60342,47.00672],[11.60571,47.00745],[11.60809,47.00803],[11.61054,47.00845],[11.61304,47.0087],[11.61557,47.00879],[11.61809,47.00871],[11.62059,47.00846],[11.62305,47.00806],[11.62544,47.00749],[11.62774,47.00677],[11.62992,47.0059],[11.63197,47.00489],[11.63388,47.00375],[11.63395,47.0037],[11.63498,47.00298],[11.63514,47.00286],[11.63534,47.0027],[11.63583,47.00234],[11.63589,47.00227],[11.66525,46.99161],[11.69642,46.99223],[11.69766,46.99224],[11.6982,46.99223],[11.70069,46.99212],[11.70316,46.99184],[11.70558,46.99141],[11.70792,46.99082],[11.71017,46.99008],[11.71232,46.9892],[11.71432,46.98818],[11.71618,46.98704],[11.71788,46.98578],[11.71939,46.98441],[11.71971,46.98409],[11.72039,46.98337],[11.72996,46.97276],[11.76507,46.97282],[11.76873,46.97849],[11.76927,46.97926],[11.76954,46.97963],[11.77077,46.98114],[11.77221,46.98255],[11.77384,46.98386],[11.77564,46.98506],[11.77761,46.98614],[11.77971,46.98708],[11.78194,46.98788],[11.78426,46.98853],[11.78667,46.98903],[11.78914,46.98936],[11.78975,46.98942],[11.79094,46.98952],[11.79099,46.9895],[11.79489,46.9902],[11.79611,46.99039],[11.79671,46.99048],[11.79919,46.99075],[11.80169,46.99086],[11.8042,46.9908],[11.80669,46.99058],[11.80914,46.99019],[11.80945,46.99013],[11.80973,46.99008],[11.80997,46.99003],[11.81003,46.99002],[11.81022,46.98997],[11.81597,46.98997],[11.82182,46.99159],[11.82315,46.99193],[11.82381,46.99209],[11.82653,46.99261],[11.82933,46.99294],[11.83216,46.99305],[11.83286,46.99306],[11.83427,46.99304],[11.83665,46.99296],[11.83687,46.99319],[11.83739,46.99366],[11.8378,46.99401],[11.8395,46.99534],[11.84139,46.99655],[11.84344,46.99762],[11.84564,46.99855],[11.84795,46.99933],[11.85037,46.99995],[11.85097,47.00008],[11.85221,47.00033],[11.8523,47.00035],[11.85236,47.00033],[11.85364,47.00165],[11.85439,47.00238],[11.85476,47.00272],[11.8564,47.00409],[11.85823,47.00535],[11.86023,47.00647],[11.86239,47.00745],[11.86467,47.00829],[11.86706,47.00896],[11.86954,47.00947],[11.87208,47.00981],[11.87268,47.00987],[11.8739,47.00997],[11.87433,47.01],[11.87436,47.01],[11.87444,47.01001],[11.8745,47.00999],[11.87455,47.01005],[11.8746,47.01009],[11.87463,47.0101],[11.87494,47.01031],[11.87513,47.01046],[11.87704,47.01173],[11.87912,47.01287],[11.88137,47.01385],[11.88375,47.01467],[11.88623,47.01533],[11.8888,47.01581],[11.89143,47.0161],[11.89198,47.01615],[11.89274,47.01619],[11.89304,47.0162],[11.89312,47.01634],[11.89318,47.01642],[11.89352,47.01692],[11.89368,47.01714],[11.89481,47.01853],[11.89612,47.01985],[11.89759,47.02108],[11.89921,47.02221],[11.90098,47.02325],[11.90144,47.0235],[11.90243,47.024],[11.90462,47.02507],[11.90547,47.02548],[11.90578,47.02563],[11.90703,47.0262],[11.90765,47.02647],[11.91029,47.02746],[11.91307,47.02824],[11.91379,47.02841],[11.9151,47.02869],[11.91515,47.0287],[11.91536,47.02872],[11.91536,47.02874],[11.91567,47.02894],[11.9159,47.02911],[11.91593,47.02913],[11.91598,47.02916],[11.91627,47.02935],[11.91781,47.03033],[11.91985,47.0314],[11.92203,47.03233],[11.92434,47.03311],[11.92674,47.03373],[11.92923,47.03419],[11.93176,47.03448],[11.93433,47.03459],[11.9369,47.03454],[11.93945,47.03431],[11.94196,47.03391],[11.9444,47.03335],[11.94497,47.0332],[11.94616,47.03286],[11.94648,47.03276],[11.94655,47.03273],[11.9466,47.03269],[11.9491,47.03449],[11.95006,47.03515],[11.95054,47.03546],[11.9526,47.03666],[11.95483,47.03772],[11.95721,47.03861],[11.95971,47.03932],[11.9623,47.03986],[11.96496,47.04021],[11.96562,47.04028],[11.96682,47.04037],[11.9669,47.04038],[11.96754,47.04042],[11.96761,47.04049],[11.96769,47.04055],[11.96773,47.04059],[11.96796,47.04076],[11.96807,47.04085],[11.96982,47.04216],[11.97176,47.04335],[11.97386,47.0444],[11.9761,47.0453],[11.97846,47.04605],[11.98091,47.04663],[11.98344,47.04705],[11.98401,47.04712],[11.98466,47.04719],[11.98485,47.04722],[11.98488,47.0472],[11.98551,47.04738],[11.98583,47.04745],[11.9863,47.04757],[11.98688,47.04772],[11.98926,47.04821],[11.9917,47.04854],[11.99417,47.04872],[11.99666,47.04873],[11.99725,47.04872],[11.99849,47.04867],[12.02145,47.04732],[12.02313,47.04808],[12.02408,47.04849],[12.02456,47.04868],[12.02653,47.04942],[12.02858,47.05003],[12.0291,47.05017],[12.0301,47.05042],[12.03028,47.05046],[12.03049,47.05051],[12.03072,47.05053],[12.03077,47.05062],[12.03103,47.05087],[12.03109,47.05093],[12.03148,47.0513],[12.03246,47.05223],[12.03414,47.05355],[12.036,47.05475],[12.03802,47.05582],[12.04019,47.05675],[12.04248,47.05753],[12.04486,47.05815],[12.04733,47.05862],[12.04985,47.05892],[12.0524,47.05905],[12.05496,47.059],[12.0575,47.05879],[12.05811,47.05872],[12.05936,47.05855],[12.05944,47.05854],[12.05948,47.05851],[12.07688,47.059],[12.07984,47.06407],[12.08039,47.06493],[12.08067,47.06535],[12.08196,47.06703],[12.08349,47.0686],[12.08526,47.07005],[12.08724,47.07136],[12.08942,47.07253],[12.08962,47.07263],[12.09184,47.07359],[12.09196,47.07363],[12.09418,47.07439],[12.0965,47.07501],[12.09889,47.07547],[12.10134,47.07578],[12.10382,47.07593],[12.10631,47.07591],[12.10878,47.07574],[12.11122,47.07541],[12.1136,47.07492],[12.11591,47.07427],[12.11646,47.0741],[12.11757,47.07373],[12.11896,47.07323],[12.12261,47.07472],[12.12385,47.0752],[12.12446,47.07542],[12.12705,47.07623],[12.12974,47.07685],[12.13252,47.07726],[12.13261,47.07727],[12.13318,47.07733],[12.13346,47.07737],[12.13353,47.07738],[12.1336,47.07737],[12.13362,47.0774],[12.13399,47.07751],[12.1347,47.07776],[12.13517,47.07791],[12.13767,47.0786],[12.14027,47.07911],[12.14293,47.07944],[12.14562,47.07958],[12.14832,47.07953],[12.14898,47.0795],[12.15033,47.0794],[12.15047,47.07939],[12.15094,47.07935],[12.15157,47.07929],[12.17617,47.08745],[12.17709,47.08775],[12.17713,47.08777],[12.17834,47.08814],[12.17893,47.08831],[12.1814,47.08893],[12.18395,47.08938],[12.18655,47.08965],[12.18918,47.08974],[12.19181,47.08965],[12.19442,47.08938],[12.19672,47.08898],[12.19689,47.08895],[12.19758,47.0888],[12.19776,47.08877],[12.19794,47.08872],[12.20198,47.08811],[12.20321,47.0879],[12.20378,47.0878],[12.20621,47.08726],[12.20855,47.08656],[12.21078,47.08571],[12.21288,47.08472],[12.21483,47.08359],[12.21661,47.08234],[12.2182,47.08097],[12.2196,47.07951],[12.22078,47.07796],[12.22174,47.07634],[12.22246,47.07467],[12.22294,47.07295],[12.22318,47.07122],[12.22317,47.06947],[12.22291,47.06773],[12.22241,47.06602],[12.22167,47.06435],[12.22069,47.06274],[12.2195,47.0612],[12.21809,47.05974],[12.21774,47.05942],[12.21696,47.05873],[12.2169,47.05868],[12.21684,47.05866],[12.21668,47.05826],[12.21558,47.0555],[12.21542,47.0551],[12.2156,47.05469],[12.21574,47.05432],[12.21577,47.05423],[12.21594,47.05376],[12.21645,47.05194],[12.21668,47.05009],[12.21663,47.04823],[12.21631,47.04639],[12.21571,47.04458],[12.21484,47.04282],[12.21459,47.0424],[12.21406,47.04155],[12.21074,47.03659],[12.21017,47.03579],[12.20988,47.03541],[12.20858,47.03388],[12.20707,47.03245],[12.20535,47.03113],[12.20346,47.02993],[12.20141,47.02886],[12.19921,47.02793],[12.19688,47.02716],[12.19446,47.02654],[12.19196,47.0261],[12.19135,47.02601],[12.19008,47.02585],[12.18178,47.02494],[12.18051,47.02481],[12.17989,47.02474],[12.17932,47.02455],[12.17614,47.02351],[12.17556,47.02333],[12.17441,47.02298],[12.17384,47.02281],[12.17148,47.02222],[12.16905,47.02179],[12.16657,47.02152],[12.16406,47.02142],[12.16155,47.02148],[12.15905,47.0217],[12.1566,47.02208],[12.15422,47.02263],[12.15364,47.02278],[12.15248,47.02311],[12.14879,47.02423],[12.14771,47.02455],[12.1471,47.02474],[12.14664,47.02441],[12.12181,47.00703],[12.1218,47.00703],[12.12135,47.00671],[12.12822,46.98517],[12.12827,46.98516],[12.12859,46.98485],[12.12865,46.98479],[12.12993,46.98359],[12.12998,46.98354],[12.13133,46.98198],[12.13244,46.98035],[12.13331,46.97864],[12.13392,46.97688],[12.13428,46.97509],[12.13437,46.97329],[12.1342,46.97149],[12.13376,46.96971],[12.13307,46.96796],[12.13212,46.96628],[12.13209,46.96622],[12.13124,46.96503],[12.1311,46.96487],[12.13075,46.96439],[12.13071,46.96438],[12.13843,46.95647],[12.14716,46.95401],[12.14833,46.95365],[12.14887,46.95348],[12.15115,46.95265],[12.15329,46.95167],[12.15529,46.95056],[12.15712,46.94931],[12.15876,46.94795],[12.16019,46.94648],[12.16142,46.94492],[12.16241,46.94329],[12.16316,46.9416],[12.16367,46.93987],[12.16393,46.93811],[12.16394,46.93635],[12.1637,46.93459],[12.16321,46.93286],[12.16247,46.93116],[12.16149,46.92953],[12.16123,46.92915],[12.16065,46.92836],[12.15568,46.92192],[12.15501,46.92111],[12.15466,46.92071],[12.15313,46.91915],[12.15138,46.91771],[12.14942,46.91641],[12.14727,46.91525],[12.14671,46.91498],[12.14557,46.91446],[12.14531,46.91435],[12.14448,46.91399],[12.14448,46.91398],[12.14393,46.91375],[12.15162,46.9115],[12.15274,46.91116],[12.15328,46.91098],[12.15545,46.91017],[12.15749,46.90923],[12.1594,46.90817],[12.15942,46.90815],[12.16072,46.9073],[12.16086,46.9072],[12.16109,46.90703],[12.16148,46.90677],[12.16152,46.90671],[12.16161,46.90675],[12.16167,46.90676],[12.16264,46.90695],[12.16319,46.90705],[12.1656,46.9074],[12.16805,46.90759],[12.17052,46.90763],[12.17298,46.9075],[12.17542,46.90722],[12.17576,46.90717],[12.17666,46.90701],[12.17667,46.907],[12.17668,46.90701],[12.17739,46.90688],[12.17787,46.90679],[12.17786,46.90678],[12.17872,46.90661],[12.17895,46.90656],[12.18141,46.90592],[12.18376,46.90511],[12.18599,46.90415],[12.18806,46.90304],[12.18996,46.90179],[12.19167,46.90041],[12.19317,46.89893],[12.19445,46.89735],[12.19549,46.89569],[12.19628,46.89397],[12.19644,46.89354],[12.19665,46.89295],[12.19663,46.89293],[12.20624,46.88237],[12.21817,46.87357],[12.2182,46.87362],[12.21896,46.87421],[12.21938,46.87451],[12.22115,46.8757],[12.22309,46.87676],[12.22516,46.8777],[12.2252,46.87771],[12.22678,46.87831],[12.22693,46.87836],[12.22723,46.87845],[12.22753,46.87856],[12.22779,46.87866],[12.22783,46.87865],[12.23012,46.88039],[12.23101,46.88104],[12.23144,46.88133],[12.23337,46.88253],[12.23547,46.8836],[12.23771,46.88452],[12.24008,46.88527],[12.24254,46.88587],[12.24508,46.88629],[12.24766,46.88654],[12.25027,46.88661],[12.25288,46.8865],[12.25546,46.88621],[12.25798,46.88575],[12.26043,46.88511],[12.26277,46.88432],[12.26498,46.88336],[12.26705,46.88227],[12.26895,46.88103],[12.27065,46.87967],[12.27216,46.87821],[12.27344,46.87664],[12.27449,46.875],[12.27461,46.87478],[12.275,46.87403],[12.27531,46.8734],[12.27529,46.87337],[12.27826,46.87187],[12.27926,46.87133],[12.27974,46.87107],[12.28164,46.8699],[12.28336,46.86861],[12.28489,46.86722],[12.28622,46.86572],[12.28733,46.86415],[12.28822,46.86251],[12.28887,46.86082],[12.28927,46.85909],[12.28929,46.85896],[12.28941,46.85804],[12.28942,46.85793],[12.28942,46.85791],[12.28948,46.85737],[12.28948,46.85735],[12.28945,46.85726],[12.29203,46.84977],[12.29208,46.84975],[12.29216,46.84964],[12.29268,46.84904],[12.29302,46.84862],[12.29429,46.84681],[12.29526,46.84492],[12.29546,46.84445],[12.29581,46.84349],[12.2958,46.84343],[12.29584,46.84343],[12.2961,46.84303],[12.29713,46.84146],[12.29793,46.83982],[12.29851,46.83814],[12.29884,46.83643],[12.29894,46.83471],[12.2988,46.83298],[12.29842,46.83128],[12.2978,46.82961],[12.29695,46.82798],[12.29588,46.82642],[12.2946,46.82494],[12.29311,46.82355],[12.29273,46.82322],[12.29191,46.82256],[12.2834,46.81601],[12.28281,46.81556],[12.28281,46.81555],[12.28237,46.81522],[12.28388,46.81325],[12.28445,46.81248],[12.2847,46.81211],[12.28566,46.81051],[12.2864,46.80885],[12.28689,46.80716],[12.28715,46.80543],[12.28717,46.8037],[12.28695,46.80198],[12.28649,46.80028],[12.28579,46.79862],[12.28486,46.79701],[12.28372,46.79547],[12.28236,46.79402],[12.28201,46.79367],[12.28126,46.79298],[12.28087,46.79264],[12.28086,46.79264],[12.28048,46.7923],[12.28443,46.7829],[12.30304,46.78456],[12.30446,46.78466],[12.30515,46.78469],[12.30801,46.78473],[12.31085,46.78456],[12.31365,46.78417],[12.31433,46.78405],[12.3157,46.78377],[12.3237,46.78202],[12.32482,46.78176],[12.32537,46.78162],[12.32756,46.78098],[12.3281,46.78081],[12.32916,46.78044],[12.33254,46.7792],[12.33264,46.7792],[12.33309,46.77911],[12.33336,46.77907],[12.33563,46.77863],[12.33569,46.77861],[12.33826,46.77792],[12.34071,46.77705],[12.3412,46.77686],[12.34218,46.77644],[12.34254,46.77626],[12.3426,46.77626],[12.34344,46.77607],[12.34429,46.77587],[12.34458,46.7758],[12.34685,46.77515],[12.34902,46.77435],[12.35107,46.77342],[12.35298,46.77236],[12.35474,46.77118],[12.35634,46.76989],[12.35775,46.76851],[12.35897,46.76704],[12.35998,46.76549],[12.36019,46.76512],[12.36062,46.76432],[12.36199,46.76157],[12.36224,46.76106],[12.36251,46.76053],[12.36493,46.75565],[12.36529,46.75488],[12.36545,46.7545],[12.36601,46.75293],[12.36612,46.75253],[12.36633,46.75174],[12.36665,46.75027],[12.3668,46.74943],[12.36687,46.74901],[12.367,46.74745],[12.36701,46.74732],[12.36701,46.74699],[12.36702,46.74687],[12.36703,46.7468],[12.367,46.74674],[12.36705,46.74669],[12.36709,46.7466],[12.36712,46.74652],[12.36726,46.74618],[12.36784,46.74477],[12.36828,46.74317],[12.36835,46.74284],[12.36841,46.74246],[12.36841,46.74236],[12.36914,46.74041],[12.36917,46.74042],[12.36919,46.7404],[12.36952,46.74001],[12.3697,46.73981],[12.37104,46.7382],[12.37213,46.7365],[12.37296,46.73473],[12.37311,46.73435],[12.37341,46.73348],[12.37387,46.73204],[12.3739,46.73204],[12.37394,46.73198],[12.37399,46.73192],[12.3742,46.73164],[12.37429,46.73153],[12.37543,46.72999],[12.37635,46.72838],[12.37705,46.72672],[12.37751,46.72502],[12.37773,46.7233],[12.37774,46.72315],[12.37774,46.72307],[12.37775,46.72298],[12.37776,46.72284],[12.37778,46.72262],[12.37777,46.72224],[12.384,46.71642],[12.38408,46.71641],[12.38514,46.71601],[12.38513,46.71601],[12.38606,46.71567],[12.38666,46.71543],[12.38751,46.71506],[12.38767,46.715],[12.38792,46.71488],[12.38834,46.71469],[12.38858,46.71458],[12.38857,46.71458],[12.38935,46.71422],[12.38994,46.71392],[12.39017,46.7138],[12.39109,46.71333],[12.3912,46.71324],[12.39131,46.71321],[12.39197,46.71287],[12.3923,46.71272],[12.39235,46.7127],[12.39403,46.71177],[12.39422,46.71166],[12.39432,46.71159],[12.39455,46.71145],[12.39466,46.71139],[12.39468,46.71135],[12.39478,46.71133],[12.3957,46.71092],[12.39657,46.71053],[12.39681,46.71042],[12.39884,46.70935],[12.4007,46.70815],[12.40114,46.70783],[12.40173,46.70739],[12.40186,46.7073],[12.40232,46.70694],[12.40237,46.70695],[12.4024,46.70694],[12.4025,46.7069],[12.40295,46.70674],[12.40303,46.70672],[12.40504,46.70602],[12.40696,46.7052],[12.40877,46.70426],[12.41046,46.70323],[12.41071,46.70306],[12.41103,46.70284],[12.41129,46.70267],[12.41133,46.70261],[12.41143,46.70258],[12.41146,46.70256],[12.41227,46.70203],[12.41226,46.70202],[12.41288,46.70162],[12.41331,46.70133],[12.41366,46.70107],[12.41396,46.70087],[12.41399,46.70082],[12.4176,46.69978],[12.41866,46.69945],[12.41918,46.69928],[12.42124,46.69853],[12.4232,46.69766],[12.42503,46.69667],[12.42673,46.69557],[12.42707,46.69533],[12.42767,46.69488],[12.42777,46.69481],[12.42777,46.69479],[12.42795,46.69476],[12.42899,46.69449],[12.42898,46.69449],[12.42962,46.69433],[12.42998,46.69423],[12.43227,46.69351],[12.43444,46.69265],[12.43649,46.69165],[12.43838,46.69051],[12.43871,46.6903],[12.43881,46.69023],[12.43904,46.69007],[12.43918,46.68996],[12.4427,46.68843],[12.44275,46.68845],[12.44391,46.68856],[12.44391,46.68855],[12.44471,46.68864],[12.44493,46.68865],[12.44734,46.68876],[12.44975,46.68872],[12.45215,46.68852],[12.45274,46.68845],[12.45392,46.68829],[12.45445,46.68821],[12.45446,46.68819],[12.45508,46.68812],[12.45569,46.68803],[12.45599,46.68799],[12.45671,46.68788],[12.45954,46.68732],[12.46019,46.68717],[12.4614,46.68685],[12.46178,46.68675],[12.46186,46.68672],[12.46195,46.6867],[12.46202,46.68666],[12.46215,46.68665],[12.46262,46.68656],[12.46291,46.68651],[12.46532,46.68601],[12.46766,46.68536],[12.46989,46.68456],[12.47201,46.68361],[12.47398,46.68252],[12.47579,46.68131],[12.47742,46.67998],[12.47743,46.67997],[12.47846,46.67898],[12.47854,46.67889],[12.47873,46.67868],[12.47898,46.67845],[12.47908,46.67831],[12.47959,46.67801],[12.47981,46.67788],[12.48026,46.67762],[12.4828,46.677],[12.483,46.67703],[12.48412,46.67705],[12.4853,46.67708],[12.48538,46.67708],[12.48779,46.67699],[12.49017,46.67676],[12.49076,46.67668],[12.49077,46.67668],[12.4916,46.67656],[12.49174,46.67654],[12.49242,46.67643],[12.49304,46.67656],[12.49388,46.67669],[12.49405,46.67672],[12.49437,46.67676],[12.49635,46.677],[12.49677,46.67704],[12.49677,46.67703],[12.49698,46.67706],[12.497,46.67705],[12.49728,46.67711],[12.49787,46.67722],[12.49799,46.67724],[12.49834,46.6773],[12.50057,46.67761],[12.50283,46.67778],[12.50511,46.67782],[12.5055,46.67781],[12.50568,46.67781],[12.50612,46.6778],[12.50613,46.67779],[12.50674,46.67778],[12.50703,46.67778],[12.50833,46.67774],[12.50896,46.67771],[12.51154,46.67751],[12.51408,46.67713],[12.51656,46.67658],[12.51894,46.67586],[12.5212,46.67498],[12.52333,46.67395],[12.5253,46.67278],[12.52709,46.67148],[12.52728,46.67133],[12.528,46.67073],[12.52871,46.67011],[12.52871,46.67006],[12.53138,46.66918],[12.53252,46.66877],[12.53308,46.66856],[12.53526,46.66764],[12.53731,46.66657],[12.5392,46.66538],[12.53964,46.66507],[12.54051,46.66442],[12.54724,46.65922],[12.54746,46.65918],[12.54785,46.65908],[12.54789,46.65907],[12.54852,46.6589],[12.54852,46.65889],[12.55032,46.6584],[12.5528,46.6575],[12.55512,46.65642],[12.55727,46.65518],[12.55921,46.65379],[12.55943,46.65361],[12.55954,46.65353],[12.55964,46.65344],[12.55972,46.65337],[12.56,46.65316],[12.56001,46.65312],[12.56903,46.6514],[12.57011,46.65202],[12.57105,46.65255],[12.57153,46.6528],[12.57352,46.65376],[12.57564,46.65459],[12.57786,46.65528],[12.58017,46.65582],[12.58253,46.65622],[12.58495,46.65645],[12.58738,46.65654],[12.58796,46.65654],[12.58917,46.65652],[12.60272,46.6561],[12.60492,46.65687],[12.6061,46.65726],[12.60667,46.65744],[12.60911,46.65809],[12.61162,46.65857],[12.6142,46.65887],[12.6168,46.659],[12.61942,46.65894],[12.62201,46.65871],[12.62455,46.6583],[12.62702,46.65771],[12.6294,46.65696],[12.63165,46.65604],[12.63179,46.65598],[12.63312,46.65534],[12.63313,46.65533],[12.63329,46.65524],[12.63392,46.65492],[12.63403,46.65487],[12.63405,46.65483],[12.64122,46.65221],[12.65066,46.65312],[12.6611,46.65577],[12.66242,46.65608],[12.66307,46.65622],[12.66577,46.65669],[12.66852,46.65695],[12.67131,46.65702],[12.67409,46.65687],[12.67476,46.65681],[12.67614,46.65667],[12.68206,46.65592],[12.68218,46.65593],[12.68264,46.65592],[12.68314,46.65591],[12.68589,46.65581],[12.68861,46.6555],[12.69127,46.655],[12.69383,46.65431],[12.69628,46.65344],[12.69857,46.65239],[12.69909,46.65213],[12.70016,46.65155],[12.70123,46.65095],[12.70263,46.65078],[12.70387,46.65061],[12.70447,46.65052],[12.7069,46.65006],[12.70926,46.64945],[12.71153,46.64867],[12.71367,46.64775],[12.71568,46.6467],[12.71753,46.64551],[12.7192,46.64421],[12.72069,46.6428],[12.72105,46.64241],[12.72141,46.64201],[12.72163,46.64173],[12.72169,46.64171],[12.72224,46.6412],[12.72248,46.64101],[12.72392,46.63957],[12.72514,46.63804],[12.72615,46.63643],[12.72693,46.63477],[12.72747,46.63306],[12.72777,46.63132],[12.7278,46.63098],[12.72777,46.63096],[12.72827,46.62807],[12.72845,46.62639],[12.7284,46.6247],[12.72812,46.62303],[12.72762,46.62138],[12.72724,46.62055],[12.72716,46.62033],[12.72708,46.62019],[12.72728,46.61976],[12.72744,46.61932],[12.72743,46.61931],[12.72783,46.61828],[12.72824,46.61654],[12.72836,46.61527],[12.72842,46.61461],[12.7286,46.61267],[12.72916,46.61011],[12.72942,46.60989],[12.73039,46.60892],[12.73138,46.60778],[12.73181,46.60723],[12.73184,46.60715],[12.73188,46.60715],[12.73236,46.60666],[12.73279,46.60626],[12.73412,46.60478],[12.73523,46.60321],[12.7359,46.60197],[12.73596,46.60187],[12.73598,46.60178],[12.7361,46.60165],[12.73617,46.60154],[12.73702,46.60001],[12.73766,46.59844],[12.73783,46.59781],[12.73796,46.59746],[12.73795,46.59737],[12.73799,46.59736],[12.73818,46.59683],[12.7387,46.59497],[12.73892,46.59308],[12.73886,46.59119],[12.73856,46.58956],[12.73851,46.58947],[12.73842,46.58895],[12.73812,46.58725],[12.73804,46.58679],[12.73811,46.58663],[12.73819,46.58623],[12.73831,46.58582],[12.73857,46.58415],[12.7386,46.58246],[12.7384,46.58079],[12.73798,46.57913],[12.73733,46.57751],[12.73647,46.57593],[12.7354,46.57442],[12.73413,46.57299],[12.73267,46.57164],[12.73189,46.57098],[12.73182,46.57096],[12.73188,46.57088],[12.73196,46.5706],[12.73245,46.56935],[12.73288,46.5674],[12.733,46.56543],[12.7328,46.56346],[12.73265,46.5626],[12.73259,46.56254],[12.73262,46.56245],[12.73261,46.56176],[12.73262,46.56153],[12.73246,46.55973],[12.73204,46.55794],[12.73137,46.5562],[12.73044,46.5545],[12.72927,46.55289],[12.72787,46.55136],[12.72626,46.54993],[12.72445,46.54863],[12.72245,46.54746],[12.7203,46.54643],[12.71801,46.54556],[12.7156,46.54485],[12.70425,46.54195],[12.70163,46.54139],[12.69893,46.54102],[12.69854,46.54099],[12.69852,46.54101],[12.69794,46.54079],[12.69124,46.53831],[12.69075,46.53813],[12.68972,46.53746],[12.68963,46.53741],[12.68327,46.53315],[12.68281,46.53284],[12.6828,46.5328],[12.68229,46.53234],[12.68197,46.53202],[12.6804,46.53072],[12.67866,46.52953],[12.67677,46.52845],[12.67474,46.5275],[12.67258,46.52669],[12.67033,46.52603],[12.66975,46.52588],[12.66965,46.52588],[12.6691,46.52567],[12.6594,46.52198],[12.65931,46.52195],[12.65922,46.52191],[12.6571,46.52108],[12.65504,46.52035],[12.65288,46.51974],[12.65066,46.51928],[12.65063,46.51927],[12.6506,46.51929],[12.65001,46.51912],[12.6482,46.51859],[12.64766,46.51843],[12.64714,46.51824],[12.6375,46.51469],[12.63666,46.51438],[12.63665,46.51438],[12.63573,46.51404],[12.63104,46.51232],[12.63049,46.51212],[12.6309,46.50773],[12.63912,46.49472],[12.64001,46.49309],[12.64068,46.49141],[12.64111,46.48968],[12.64129,46.48794],[12.64123,46.48619],[12.64092,46.48446],[12.64037,46.48275],[12.63959,46.48109],[12.63857,46.47949],[12.63734,46.47797],[12.6359,46.47653],[12.63427,46.4752],[12.63245,46.47399],[12.63048,46.4729],[12.62836,46.47195],[12.62612,46.47115],[12.62377,46.4705],[12.62135,46.47001],[12.61705,46.4693],[12.61642,46.4692],[12.61587,46.46897],[12.61427,46.46832],[12.61199,46.4675],[12.6096,46.46683],[12.60713,46.46633],[12.60461,46.46601],[12.60204,46.46585],[12.59947,46.46588],[12.59692,46.46608],[12.5944,46.46645],[12.59195,46.46699],[12.58959,46.4677],[12.56531,46.47598],[12.56475,46.47617],[12.56436,46.47584],[12.55686,46.4695],[12.55518,46.46821],[12.55332,46.46704],[12.55131,46.466],[12.54917,46.4651],[12.5469,46.46434],[12.54454,46.46374],[12.54211,46.4633],[12.53963,46.46302],[12.53712,46.46292],[12.53461,46.46298],[12.53212,46.4632],[12.52967,46.4636],[12.52771,46.46405],[12.52755,46.46408],[12.5275,46.46411],[12.52741,46.46368],[12.52627,46.45819],[12.52579,46.45647],[12.52507,46.45479],[12.52412,46.45316],[12.52294,46.45161],[12.52155,46.45015],[12.51996,46.44878],[12.51819,46.44753],[12.51625,46.44641],[12.50654,46.44131],[12.50605,46.44105],[12.50578,46.44066],[12.48837,46.41533],[12.4881,46.41493],[12.48803,46.41484],[12.48104,46.40466],[12.47964,46.40289],[12.47797,46.40124],[12.46129,46.38659],[12.46128,46.38659],[12.4609,46.38625],[12.46084,46.38582],[12.45925,46.37375],[12.4589,46.37203],[12.45831,46.37034],[12.45749,46.36869],[12.45645,46.36711],[12.45519,46.3656],[12.45372,46.36419],[12.45206,46.36288],[12.45023,46.36169],[12.44825,46.36063],[12.42091,46.34742],[12.42039,46.34716],[12.42016,46.34675],[12.41782,46.34255],[12.41682,46.34099],[12.41561,46.33949],[12.4142,46.33808],[12.4126,46.33678],[12.41084,46.33558],[12.40891,46.33451],[12.40685,46.33356],[12.40467,46.33276],[12.40239,46.33211],[12.40003,46.33161],[12.39761,46.33126],[12.39515,46.33108],[12.38329,46.3306],[12.38262,46.33057],[12.3821,46.33028],[12.36352,46.31993],[12.36305,46.31967],[12.3628,46.31929],[12.3558,46.30873],[12.35579,46.30873],[12.3555,46.30828],[12.35543,46.3078],[12.35543,46.30779],[12.35438,46.30079],[12.354,46.29908],[12.35339,46.2974],[12.35255,46.29578],[12.35149,46.29421],[12.35022,46.29272],[12.34874,46.29133],[12.34709,46.29004],[12.33928,46.28452],[12.33729,46.28325],[12.32473,46.27606],[12.32473,46.27605],[12.32426,46.27578],[12.32872,46.2568],[12.37061,46.22332],[12.37457,46.22375],[12.37703,46.22393],[12.37953,46.22395],[12.38202,46.22381],[12.38447,46.22349],[12.38687,46.22301],[12.3892,46.22238],[12.39142,46.22159],[12.39353,46.22066],[12.3955,46.21959],[12.39731,46.21839],[12.39895,46.21708],[12.40039,46.21566],[12.40164,46.21415],[12.40267,46.21257],[12.40348,46.21093],[12.40405,46.20924],[12.40424,46.20852],[12.40425,46.20835],[12.42299,46.20779],[12.42546,46.20763],[12.42795,46.2073],[12.43038,46.2068],[12.43272,46.20614],[12.43497,46.20532],[12.43709,46.20435],[12.43906,46.20324],[12.44087,46.20201],[12.44249,46.20065],[12.44392,46.1992],[12.44514,46.19765],[12.44613,46.19603],[12.44689,46.19434],[12.44741,46.19263],[12.44991,46.18173],[12.48013,46.1601],[12.48709,46.15574],[12.48894,46.15446],[12.4906,46.15306],[12.49205,46.15154],[12.49327,46.14993],[12.49425,46.14824],[12.49498,46.14649],[12.49546,46.1447],[12.49742,46.13436],[12.49764,46.13251],[12.49758,46.13065],[12.49724,46.12881],[12.49663,46.127],[12.49576,46.12524],[12.48807,46.112],[12.48721,46.11067],[12.48411,46.10637],[12.48294,46.10493],[12.48159,46.10356],[12.48006,46.10229],[12.47837,46.10112],[12.47653,46.10006],[12.47456,46.09913],[12.43917,46.08396],[12.43858,46.08371],[12.4382,46.08331],[12.42881,46.07354],[12.42728,46.07211],[12.42556,46.07079],[12.42366,46.0696],[12.42159,46.06855],[12.41939,46.06764],[12.41707,46.06689],[12.41465,46.0663],[12.41217,46.06588],[12.40963,46.06564],[12.40707,46.06557],[12.40452,46.06568],[12.40199,46.06597],[12.39952,46.06643],[12.39712,46.06705],[12.39483,46.06784],[12.39265,46.06879],[12.39062,46.06988],[12.38984,46.07034],[12.38983,46.07037],[12.38925,46.07049],[12.33154,46.08209],[12.33153,46.08209],[12.33091,46.08221],[12.33032,46.08203],[12.33031,46.08202],[12.30485,46.07393],[12.30428,46.07374],[12.30385,46.07342],[12.23785,46.02396],[12.23606,46.02275],[12.23412,46.02166],[12.23204,46.02071],[12.1955,46.0057],[12.19351,46.00496],[12.19144,46.00435],[12.1893,46.00387],[12.18711,46.00351],[12.18007,46.00261],[12.17758,46.00237],[12.17506,46.00231],[12.17255,46.00242],[12.12688,46.00594],[12.12687,46.00594],[12.12625,46.00599],[12.12565,46.00587],[12.11042,46.00283],[12.10986,46.00272],[12.10947,46.00242],[12.09918,45.99469],[12.09872,45.99434],[12.09838,45.99394],[12.08127,45.974],[12.07994,45.9726],[12.07842,45.97129],[12.07673,45.97008],[12.07489,45.96899],[12.07291,45.96803],[12.07036,45.96691],[12.0683,45.96609],[12.06613,45.9654],[12.06388,45.96486],[12.06157,45.96447],[12.05921,45.96423],[12.05684,45.96414],[12.05446,45.9642],[11.98812,45.96812],[11.98811,45.96812],[11.98743,45.96816],[11.98681,45.96796],[11.97389,45.96361],[11.97388,45.96361],[11.97333,45.96342],[11.97291,45.9631],[11.96181,45.95452],[11.96144,45.95423],[11.96118,45.95389],[11.95273,45.94243],[11.95243,45.94202],[11.95225,45.94157],[11.94711,45.92851],[11.94698,45.92817],[11.94692,45.92783],[11.94293,45.9036],[11.94241,45.90152],[11.94154,45.89949],[11.93998,45.89649],[11.939,45.89487],[11.93781,45.89333],[11.9364,45.89187],[11.9348,45.89052],[11.93302,45.88928],[11.93107,45.88817],[11.92898,45.8872],[11.92677,45.88638],[11.92445,45.88571],[11.92204,45.8852],[11.91958,45.88486],[11.91708,45.88469],[11.86851,45.88301],[11.86617,45.883],[11.86383,45.88314],[11.86153,45.88343],[11.85927,45.88387],[11.85707,45.88445],[11.85496,45.88516],[11.84719,45.88811],[11.84489,45.8891],[11.84274,45.89025],[11.84078,45.89155],[11.83903,45.89299],[11.83266,45.8988],[11.83228,45.89914],[11.83167,45.89916],[11.82191,45.89956],[11.8213,45.89959],[11.82126,45.89956],[11.8202,45.89927],[11.82005,45.89922],[11.81767,45.89866],[11.81523,45.89827],[11.81274,45.89805],[11.81024,45.898],[11.80774,45.89812],[11.80526,45.89841],[11.80284,45.89886],[11.8005,45.89948],[11.79825,45.90025],[11.79612,45.90118],[11.79412,45.90224],[11.79229,45.90344],[11.79062,45.90475],[11.78915,45.90617],[11.78788,45.90768],[11.78683,45.90928],[11.78601,45.91093],[11.78542,45.91264],[11.78506,45.91438],[11.7845,45.91862],[11.78445,45.91904],[11.78403,45.91935],[11.78403,45.91936],[11.77434,45.92657],[11.7739,45.9269],[11.77328,45.927],[11.74634,45.93123],[11.7437,45.93175],[11.74115,45.93246],[11.73872,45.93336],[11.73645,45.93444],[11.73519,45.9351],[11.73325,45.93623],[11.73149,45.93749],[11.7299,45.93886],[11.72852,45.94033],[11.72734,45.94189],[11.72639,45.94353],[11.72568,45.94521],[11.7252,45.94694],[11.72405,45.95255],[11.72396,45.95298],[11.72388,45.95301],[11.72361,45.9532],[11.72191,45.95454],[11.72041,45.95598],[11.71912,45.95753],[11.71805,45.95915],[11.71722,45.96084],[11.71663,45.96258],[11.71629,45.96435],[11.71621,45.96614],[11.71637,45.96792],[11.71679,45.96969],[11.71692,45.97009],[11.71713,45.97064],[11.71661,45.9709],[11.7047,45.97696],[11.70469,45.97696],[11.70419,45.97721],[11.70357,45.97723],[11.70295,45.97727],[11.70295,45.97728],[11.70095,45.97742],[11.69832,45.9778],[11.69576,45.97837],[11.6933,45.97913],[11.69097,45.98006],[11.68878,45.98115],[11.68677,45.9824],[11.68504,45.98373],[11.68473,45.98402],[11.68453,45.98359],[11.68356,45.98145],[11.68336,45.98101],[11.68339,45.98098],[11.68322,45.98023],[11.68272,45.97853],[11.682,45.97688],[11.68105,45.97528],[11.67988,45.97375],[11.67851,45.97231],[11.67695,45.97097],[11.67521,45.96974],[11.6733,45.96863],[11.67126,45.96765],[11.66909,45.96682],[11.66681,45.96613],[11.66445,45.9656],[11.66203,45.96523],[11.65957,45.96503],[11.6571,45.96499],[11.65462,45.96512],[11.65385,45.96519],[11.65327,45.96523],[11.65309,45.96519],[11.65214,45.96506],[11.65213,45.96507],[11.65181,45.96501],[11.64924,45.96477],[11.64664,45.96471],[11.64405,45.96484],[11.64149,45.96515],[11.63899,45.96563],[11.63656,45.96629],[11.63425,45.96712],[11.63206,45.9681],[11.63003,45.96923],[11.63003,45.96924],[11.63003,45.96926],[11.62983,45.96927],[11.62955,45.96932],[11.62808,45.96952],[11.62569,45.97002],[11.62339,45.97067],[11.62131,45.97143],[11.62126,45.97147],[11.62063,45.97142],[11.61925,45.97131],[11.61864,45.97126],[11.61862,45.97123],[11.61844,45.9712],[11.6164,45.97076],[11.6139,45.9704],[11.61136,45.97021],[11.60881,45.97021],[11.60627,45.97038],[11.60376,45.97072],[11.60132,45.97124],[11.59896,45.97192],[11.59846,45.97208],[11.59787,45.9723],[11.59785,45.9723],[11.5959,45.97302],[11.59385,45.97397],[11.59194,45.97505],[11.59018,45.97626],[11.58859,45.97757],[11.58719,45.97899],[11.58599,45.98049],[11.585,45.98206],[11.58423,45.98369],[11.58369,45.98537],[11.58189,45.99247],[11.58184,45.99267],[11.58177,45.99287],[11.57743,46.00643],[11.57729,46.00686],[11.57667,46.00694],[11.57193,46.00755],[11.57126,46.00763],[11.57122,46.00761],[11.57,46.00763],[11.56732,46.00778],[11.56467,46.00812],[11.56209,46.00865],[11.55961,46.00937],[11.55724,46.01027],[11.55502,46.01133],[11.5542,46.01176],[11.55367,46.01205],[11.55357,46.01203],[11.55265,46.01215],[11.55058,46.01249],[11.54856,46.01295],[11.54757,46.01323],[11.5472,46.01332],[11.54715,46.01336],[11.54712,46.01334],[11.54677,46.01343],[11.54527,46.01374],[11.54312,46.01434],[11.54311,46.01437],[11.54247,46.01436],[11.53985,46.01432],[11.53925,46.01431],[11.53922,46.01428],[11.53898,46.01417],[11.5368,46.01336],[11.53453,46.0127],[11.53217,46.01219],[11.52976,46.01185],[11.52731,46.01166],[11.52484,46.01164],[11.52123,46.01173],[11.52062,46.01175],[11.5206,46.01173],[11.52005,46.01172],[11.5181,46.01166],[11.5152,46.01179],[11.51234,46.01214],[11.51135,46.01231],[11.51127,46.01234],[11.51107,46.01228],[11.51097,46.01226],[11.50957,46.01193],[11.50741,46.01155],[11.50521,46.0113],[11.50323,46.01121],[11.50286,46.01121],[11.50282,46.01118],[11.50231,46.01107],[11.50079,46.01068],[11.4982,46.01023],[11.49556,46.00997],[11.49403,46.00993],[11.49349,46.0099],[11.49343,46.00992],[11.49337,46.00987],[11.49241,46.00952],[11.49131,46.00908],[11.49003,46.00871],[11.48907,46.0084],[11.48904,46.00841],[11.48884,46.00807],[11.48769,46.00655],[11.48625,46.00504],[11.48461,46.00365],[11.48277,46.00237],[11.48076,46.00123],[11.47859,46.00024],[11.4763,45.9994],[11.47389,45.99873],[11.4714,45.99823],[11.46889,45.99791],[11.4687,45.99792],[11.46867,45.99787],[11.46798,45.99746],[11.46558,45.99618],[11.46299,45.99511],[11.46211,45.99479],[11.46204,45.99479],[11.46203,45.99473],[11.46166,45.9941],[11.4606,45.99253],[11.45932,45.99104],[11.45784,45.98964],[11.45742,45.98931],[11.4571,45.98903],[11.45692,45.98889],[11.45685,45.98885],[11.45683,45.98881],[11.45552,45.98778],[11.45377,45.98663],[11.45187,45.9856],[11.44985,45.9847],[11.44772,45.98393],[11.44549,45.98331],[11.44319,45.98283],[11.44084,45.9825],[11.43984,45.9824],[11.43977,45.98241],[11.43919,45.98229],[11.4384,45.98212],[11.43624,45.98174],[11.43404,45.9815],[11.43181,45.98138],[11.43126,45.98137],[11.43105,45.98139],[11.43041,45.98131],[11.42986,45.98124],[11.42721,45.98099],[11.42453,45.98095],[11.42187,45.98109],[11.4207,45.98124],[11.42001,45.98131],[11.41994,45.98134],[11.4199,45.98131],[11.41932,45.98128],[11.41688,45.98125],[11.41445,45.98138],[11.41205,45.98166],[11.40969,45.98211],[11.40907,45.98224],[11.40844,45.98241],[11.40817,45.98232],[11.40624,45.98182],[11.40388,45.98138],[11.40147,45.9811],[11.39904,45.98098],[11.3966,45.98103],[11.39417,45.98123],[11.39179,45.98159],[11.3777,45.98422],[11.37711,45.98433],[11.37652,45.9842],[11.37415,45.98367],[11.37355,45.98353],[11.37349,45.9831],[11.37245,45.9752],[11.37239,45.97473],[11.37619,45.96677],[11.37629,45.96655],[11.37636,45.96639],[11.37702,45.96463],[11.37743,45.96285],[11.37758,45.96104],[11.37747,45.95923],[11.3771,45.95743],[11.37647,45.95567],[11.3756,45.95397],[11.37448,45.95233],[11.37313,45.95079],[11.37157,45.94934],[11.36981,45.94801],[11.36787,45.94682],[11.36576,45.94576],[11.36352,45.94486],[11.36115,45.94412],[11.35869,45.94355],[11.35844,45.9435],[11.35839,45.94351],[11.35841,45.94343],[11.35841,45.94339],[11.35841,45.94185],[11.35815,45.94007],[11.35765,45.93833],[11.35691,45.93662],[11.35593,45.93498],[11.35472,45.93341],[11.35329,45.93194],[11.35166,45.93057],[11.34985,45.92932],[11.34787,45.9282],[11.34574,45.92722],[11.34349,45.92639],[11.34113,45.92573],[11.33868,45.92523],[11.33618,45.9249],[11.33364,45.92475],[11.3311,45.92477],[11.32857,45.92497],[11.32608,45.92534],[11.32365,45.92588],[11.32131,45.92659],[11.31908,45.92746],[11.31699,45.92847],[11.31505,45.92962],[11.31408,45.93033],[11.3137,45.93058],[11.31369,45.93062],[11.31365,45.9306],[11.31331,45.93072],[11.31167,45.93121],[11.3094,45.93209],[11.30727,45.93312],[11.3053,45.93429],[11.30351,45.9356],[11.30191,45.93702],[11.3013,45.9377],[11.30091,45.93809],[11.3009,45.93814],[11.30036,45.93791],[11.29836,45.93706],[11.29781,45.93683],[11.29783,45.93674],[11.29776,45.93602],[11.29748,45.93431],[11.29697,45.93263],[11.29623,45.93099],[11.29527,45.9294],[11.2941,45.92789],[11.29273,45.92647],[11.29117,45.92514],[11.28943,45.92392],[11.28754,45.92282],[11.28551,45.92185],[11.28335,45.92103],[11.28109,45.92035],[11.27875,45.91983],[11.27635,45.91946],[11.27391,45.91926],[11.27145,45.91922],[11.27135,45.91922],[11.27073,45.91923],[11.27073,45.91921],[11.26967,45.91919],[11.26908,45.91916],[11.26647,45.91922],[11.26389,45.91946],[11.26135,45.91989],[11.25889,45.92049],[11.25867,45.92055],[11.25861,45.92059],[11.25864,45.91985],[11.25869,45.91982],[11.25878,45.91959],[11.25939,45.91785],[11.25975,45.91608],[11.25985,45.91429],[11.2597,45.91251],[11.2593,45.91074],[11.25865,45.90901],[11.25776,45.90734],[11.25664,45.90573],[11.25529,45.90421],[11.25374,45.90279],[11.25199,45.90149],[11.25006,45.90031],[11.2496,45.90005],[11.2491,45.89978],[11.24914,45.89972],[11.24928,45.89901],[11.24931,45.89889],[11.24953,45.89717],[11.24952,45.89545],[11.24927,45.89373],[11.24879,45.89203],[11.24808,45.89038],[11.24714,45.88878],[11.246,45.88726],[11.24464,45.88581],[11.2431,45.88447],[11.24138,45.88323],[11.2395,45.88212],[11.23635,45.88042],[11.23584,45.88015],[11.2357,45.87971],[11.23537,45.87868],[11.23524,45.87825],[11.23527,45.87825],[11.23542,45.8781],[11.23664,45.87701],[11.23799,45.87551],[11.23913,45.87392],[11.24004,45.87226],[11.2407,45.87054],[11.24113,45.86879],[11.24131,45.86702],[11.24123,45.86525],[11.24091,45.86348],[11.24084,45.86322],[11.24025,45.86144],[11.23941,45.8597],[11.23831,45.85804],[11.23699,45.85646],[11.23544,45.85499],[11.23368,45.85363],[11.23174,45.85241],[11.22963,45.85133],[11.22737,45.8504],[11.22499,45.84964],[11.22251,45.84906],[11.22206,45.84897],[11.22194,45.84896],[11.22165,45.84858],[11.21872,45.84463],[11.21841,45.84421],[11.21844,45.84374],[11.21843,45.84327],[11.21841,45.84327],[11.2184,45.8423],[11.21812,45.8405],[11.21759,45.83873],[11.2168,45.83701],[11.21578,45.83535],[11.21452,45.83377],[11.21304,45.83228],[11.21136,45.83091],[11.20949,45.82967],[11.20745,45.82856],[11.20526,45.8276],[11.20416,45.82717],[11.20374,45.82701],[11.20336,45.8268],[11.19834,45.82408],[11.19783,45.8238],[11.19783,45.82371],[11.19779,45.82362],[11.19738,45.82223],[11.19662,45.82053],[11.19562,45.81889],[11.19439,45.81733],[11.19295,45.81586],[11.19131,45.8145],[11.18955,45.81329],[11.1891,45.81305],[11.19083,45.80746],[11.19125,45.80567],[11.19141,45.80385],[11.19131,45.80203],[11.19094,45.80023],[11.19032,45.79846],[11.18945,45.79675],[11.18834,45.79511],[11.18699,45.79355],[11.18543,45.7921],[11.18367,45.79076],[11.18172,45.78956],[11.17961,45.7885],[11.17736,45.78759],[11.17499,45.78685],[11.17424,45.78668],[11.17357,45.7865],[11.17336,45.78647],[11.1741,45.78204],[11.17899,45.77012],[11.17962,45.7682],[11.17995,45.76623],[11.17996,45.76426],[11.17967,45.76229],[11.17626,45.74736],[11.17616,45.74692],[11.17654,45.74501],[11.17676,45.74321],[11.17673,45.7414],[11.17644,45.73961],[11.1759,45.73784],[11.17511,45.73613],[11.17408,45.73447],[11.17281,45.7329],[11.17133,45.73142],[11.16965,45.73006],[11.16445,45.72626],[11.16243,45.72493],[11.1602,45.72375],[11.14638,45.71726],[11.14589,45.71703],[11.14564,45.71664],[11.13969,45.7073],[11.13853,45.70569],[11.13714,45.70417],[11.13554,45.70276],[11.13375,45.70146],[11.13178,45.7003],[11.12966,45.69928],[11.1274,45.69842],[11.12503,45.69772],[11.12257,45.69719],[11.12005,45.69684],[11.1175,45.69666],[11.11493,45.69667],[11.11386,45.69671],[11.11362,45.69674],[11.113,45.69661],[11.10865,45.69564],[11.10627,45.6952],[11.10384,45.69492],[11.10139,45.6948],[11.09893,45.69485],[11.09649,45.69507],[11.09409,45.69545],[11.09176,45.69599],[11.0895,45.69668],[11.08735,45.69752],[11.08533,45.6985],[11.08345,45.69962],[11.07909,45.70246],[11.07908,45.70246],[11.07858,45.70279],[11.07836,45.70283],[11.07784,45.70297],[11.07546,45.70372],[11.07319,45.70465],[11.07107,45.70573],[11.06912,45.70696],[11.06736,45.70832],[11.06422,45.711],[11.06367,45.71148],[11.05643,45.71813],[11.05605,45.71847],[11.05559,45.71819],[11.05416,45.71731],[11.05215,45.7162],[11.05,45.71523],[11.04771,45.71442],[11.04533,45.71377],[11.04286,45.71329],[11.04034,45.71299],[11.03779,45.71287],[11.03523,45.71292],[11.03269,45.71315],[11.0302,45.71356],[11.02778,45.71415],[11.02545,45.71489],[11.02324,45.7158],[11.02117,45.71686],[11.01926,45.71806],[11.01769,45.71926],[11.01763,45.7193],[11.01763,45.71933],[11.017,45.7193],[11.01117,45.71906],[11.01054,45.71903],[11.01051,45.71894],[11.01022,45.71855],[11.00994,45.7181],[11.00881,45.71667],[11.00749,45.71531],[11.00601,45.71404],[11.00436,45.71287],[11.00258,45.71181],[11.00151,45.71129],[11.00115,45.71109],[11.00111,45.7111],[11.00111,45.71107],[10.99932,45.71018],[10.9974,45.7094],[10.99538,45.70873],[10.9933,45.70818],[10.99305,45.70812],[10.99296,45.70813],[10.99297,45.7081],[10.99244,45.70773],[10.9918,45.70722],[10.98996,45.70604],[10.98797,45.70499],[10.98585,45.70408],[10.98361,45.70331],[10.98127,45.70271],[10.97886,45.70226],[10.97641,45.70199],[10.97392,45.70188],[10.97324,45.70189],[10.97235,45.70189],[10.97234,45.70188],[10.97234,45.70191],[10.97192,45.70158],[10.97131,45.7011],[10.97091,45.7008],[10.97088,45.70072],[10.97074,45.70054],[10.96997,45.69945],[10.96864,45.69796],[10.96712,45.69657],[10.96541,45.69529],[10.96353,45.69414],[10.9615,45.69311],[10.95934,45.69224],[10.95707,45.69151],[10.95471,45.69094],[10.95228,45.69054],[10.94981,45.6903],[10.94731,45.69024],[10.94482,45.69034],[10.94235,45.69062],[10.93994,45.69106],[10.93759,45.69166],[10.93534,45.69242],[10.93321,45.69334],[10.93121,45.69439],[10.92937,45.69558],[10.9277,45.69688],[10.92622,45.69829],[10.92593,45.6986],[10.92596,45.69861],[10.92558,45.69897],[10.92396,45.70052],[10.9236,45.70086],[10.92347,45.70086],[10.9228,45.70097],[10.92181,45.70109],[10.91936,45.70159],[10.91699,45.70225],[10.91472,45.70308],[10.91259,45.70406],[10.90714,45.70683],[10.90666,45.70708],[10.90646,45.70711],[10.90633,45.70715],[10.90464,45.70758],[10.90241,45.70833],[10.90029,45.70922],[10.8983,45.71025],[10.89647,45.7114],[10.8948,45.71268],[10.89437,45.71308],[10.89387,45.71349],[10.89386,45.71354],[10.89327,45.71373],[10.88221,45.71719],[10.88161,45.71738],[10.88139,45.71738],[10.8809,45.71744],[10.87839,45.71782],[10.87595,45.71837],[10.87359,45.7191],[10.87136,45.71999],[10.86926,45.72103],[10.86731,45.72221],[10.86555,45.72352],[10.86398,45.72495],[10.86262,45.72648],[10.86149,45.7281],[10.86059,45.72979],[10.85994,45.73153],[10.85954,45.73332],[10.8594,45.73512],[10.85951,45.73692],[10.85988,45.7387],[10.8605,45.74045],[10.86137,45.74215],[10.86217,45.74333],[10.86231,45.74356],[10.86234,45.74356],[10.86594,45.7533],[10.86665,45.7549],[10.86757,45.75646],[10.8687,45.75795],[10.87002,45.75936],[10.87152,45.76068],[10.87319,45.76189],[10.87501,45.76298],[10.87698,45.76396],[10.87706,45.76399],[10.8771,45.76399],[10.8771,45.76405],[10.87715,45.76416],[10.87771,45.76555],[10.87864,45.76722],[10.87981,45.76882],[10.8812,45.77032],[10.88279,45.77173],[10.88305,45.77193],[10.88308,45.77193],[10.88538,45.77598],[10.88527,45.77646],[10.88487,45.77821],[10.88477,45.77865],[10.88461,45.77875],[10.88445,45.77888],[10.88328,45.77977],[10.8817,45.78123],[10.88035,45.7828],[10.87924,45.78446],[10.8786,45.78572],[10.87839,45.78613],[10.87821,45.78655],[10.87817,45.78656],[10.87816,45.78659],[10.87723,45.78819],[10.87651,45.78994],[10.87604,45.79174],[10.87582,45.79355],[10.87588,45.79538],[10.87619,45.79719],[10.87675,45.79892],[10.87679,45.79895],[10.87681,45.79908],[10.87704,45.79965],[10.8778,45.80125],[10.87876,45.80279],[10.87993,45.80427],[10.8813,45.80566],[10.88284,45.80695],[10.88392,45.80771],[10.88414,45.80787],[10.88428,45.80795],[10.88774,45.81129],[10.88738,45.81167],[10.88646,45.81266],[10.8852,45.81416],[10.88415,45.81575],[10.88371,45.81662],[10.88352,45.81695],[10.88353,45.81699],[10.88296,45.81722],[10.86984,45.82247],[10.8695,45.8226],[10.86916,45.82272],[10.86915,45.82272],[10.84417,45.83136],[10.84283,45.83182],[10.84236,45.83198],[10.82589,45.83767],[10.82529,45.83788],[10.82462,45.8378],[10.81871,45.83708],[10.81801,45.83699],[10.81793,45.83695],[10.81717,45.83683],[10.81646,45.83668],[10.81387,45.83634],[10.81125,45.83619],[10.80901,45.83622],[10.80876,45.83624],[10.8087,45.83621],[10.80867,45.83621],[10.80607,45.83588],[10.80326,45.83575],[10.80044,45.83583],[10.79765,45.83613],[10.7967,45.83627],[10.79642,45.83634],[10.79638,45.83632],[10.79632,45.83633],[10.79604,45.83635],[10.79437,45.83641],[10.79194,45.83667],[10.78956,45.83708],[10.78725,45.83766],[10.78503,45.83838],[10.78291,45.83925],[10.78092,45.84026],[10.77908,45.84139],[10.77757,45.84252],[10.77733,45.84274],[10.7767,45.84279],[10.77402,45.84304],[10.77346,45.84309],[10.77292,45.84297],[10.76588,45.84137],[10.76522,45.84122],[10.76517,45.84118],[10.76458,45.84102],[10.76385,45.84079],[10.76158,45.84024],[10.75925,45.83984],[10.75687,45.83959],[10.75447,45.8395],[10.75207,45.83957],[10.74969,45.8398],[10.74734,45.84018],[10.74508,45.8407],[10.74458,45.84086],[10.74401,45.84092],[10.7434,45.84098],[10.741,45.84131],[10.73866,45.84179],[10.73719,45.84221],[10.73684,45.84229],[10.73679,45.84232],[10.73529,45.84243],[10.73465,45.84243],[10.73347,45.84243],[10.73228,45.84246],[10.73169,45.84247],[10.73111,45.8425],[10.73099,45.84248],[10.73095,45.84248],[10.72874,45.84232],[10.72697,45.84232],[10.72663,45.8423],[10.72658,45.84232],[10.72604,45.84213],[10.72565,45.84199],[10.72351,45.84132],[10.72289,45.84114],[10.72288,45.84113],[10.72093,45.84059],[10.71848,45.84009],[10.71597,45.83977],[10.71343,45.83963],[10.71087,45.83966],[10.70834,45.83987],[10.70585,45.84025],[10.70342,45.84081],[10.70157,45.84138],[10.70141,45.84142],[10.70132,45.84147],[10.70018,45.84174],[10.69889,45.84162],[10.69827,45.84141],[10.69742,45.84112],[10.69687,45.84093],[10.69675,45.84082],[10.69667,45.84076],[10.69513,45.83977],[10.69423,45.83924],[10.69411,45.8392],[10.69398,45.83907],[10.69349,45.83872],[10.6933,45.83856],[10.69162,45.83742],[10.6898,45.83639],[10.68919,45.83611],[10.68878,45.83589],[10.68865,45.83585],[10.68816,45.83556],[10.68609,45.83455],[10.68381,45.83368],[10.68142,45.83297],[10.67894,45.83243],[10.67639,45.83207],[10.67381,45.83189],[10.67121,45.83189],[10.66874,45.83207],[10.66818,45.83215],[10.66752,45.83205],[10.66685,45.83198],[10.66685,45.83199],[10.66561,45.83185],[10.6631,45.83173],[10.66059,45.83178],[10.65809,45.83201],[10.65564,45.8324],[10.6542,45.83269],[10.65357,45.83281],[10.65321,45.83275],[10.65308,45.83193],[10.65313,45.83188],[10.65329,45.83138],[10.65373,45.82962],[10.65392,45.82784],[10.65386,45.82605],[10.65355,45.82428],[10.65299,45.82254],[10.65219,45.82084],[10.65115,45.81921],[10.65094,45.81893],[10.65087,45.81888],[10.65085,45.81879],[10.65061,45.81835],[10.65032,45.8177],[10.64927,45.81603],[10.64798,45.81444],[10.64647,45.81296],[10.64476,45.81158],[10.64285,45.81034],[10.64078,45.80923],[10.63856,45.80828],[10.63621,45.80749],[10.63376,45.80688],[10.63123,45.80644],[10.62865,45.80618],[10.62605,45.8061],[10.61896,45.80615],[10.61837,45.80616],[10.61781,45.80605],[10.60207,45.80306],[10.60151,45.80296],[10.60103,45.80272],[10.59434,45.79931],[10.59276,45.79857],[10.58331,45.79447],[10.5828,45.79425],[10.58278,45.79422],[10.58195,45.79382],[10.58154,45.7936],[10.57939,45.79269],[10.57713,45.79192],[10.57476,45.79131],[10.57233,45.79087],[10.56984,45.79059],[10.56733,45.79049],[10.56481,45.79056],[10.56232,45.79081],[10.55987,45.79122],[10.5575,45.7918],[10.55521,45.79254],[10.55304,45.79343],[10.551,45.79447],[10.54912,45.79564],[10.54741,45.79694],[10.54589,45.79835],[10.54457,45.79985],[10.54347,45.80144],[10.5426,45.8031],[10.54196,45.8048],[10.54156,45.80655],[10.54141,45.80831],[10.5415,45.81007],[10.54184,45.81182],[10.54242,45.81354],[10.54324,45.81521],[10.54424,45.81673],[10.5443,45.81679],[10.54394,45.81714],[10.54026,45.82064],[10.53991,45.82097],[10.53943,45.82119],[10.52831,45.82625],[10.52776,45.82649],[10.52763,45.82649],[10.5252,45.82697],[10.52283,45.82761],[10.52056,45.82842],[10.51842,45.82938],[10.51642,45.83048],[10.51459,45.83171],[10.51294,45.83307],[10.51149,45.83453],[10.51025,45.83609],[10.50924,45.83773],[10.50846,45.83942],[10.50807,45.84071],[10.50799,45.84091],[10.50801,45.84094],[10.50795,45.84101],[10.50789,45.84117],[10.50732,45.84242],[10.50677,45.8442],[10.50649,45.846],[10.50646,45.84781],[10.5067,45.84962],[10.50703,45.85083],[10.50709,45.85109],[10.50712,45.85112],[10.50682,45.85151],[10.50555,45.85316],[10.50446,45.85477],[10.50359,45.85644],[10.50297,45.85817],[10.50259,45.85994],[10.50247,45.86172],[10.50259,45.8635],[10.50261,45.86362],[10.50268,45.86396],[10.50267,45.86431],[10.5026,45.86688],[10.50271,45.86883],[10.50311,45.87076],[10.50381,45.87265],[10.50447,45.8741],[10.50419,45.87427],[10.50256,45.87544],[10.50094,45.87685],[10.49953,45.87838],[10.49835,45.87999],[10.4974,45.88168],[10.4967,45.88343],[10.49626,45.88522],[10.49608,45.88703],[10.49616,45.88884],[10.4965,45.89064],[10.49709,45.89241],[10.4973,45.89293],[10.49735,45.89296],[10.49733,45.89298],[10.49757,45.89356],[10.49772,45.89402],[10.49851,45.89565],[10.49952,45.89721],[10.50074,45.8987],[10.50216,45.90011],[10.50376,45.90141],[10.50553,45.9026],[10.5064,45.90313],[10.50648,45.90316],[10.50764,45.90679],[10.50762,45.90682],[10.50771,45.90766],[10.50772,45.90787],[10.50809,45.90976],[10.50875,45.91161],[10.50968,45.91341],[10.51095,45.9155],[10.5108,45.91591],[10.50763,45.92447],[10.50746,45.92491],[10.50698,45.9252],[10.50285,45.92774],[10.50249,45.92796],[10.50231,45.92804],[10.5004,45.92907],[10.4985,45.93033],[10.4968,45.93172],[10.49531,45.93322],[10.49404,45.93482],[10.49301,45.9365],[10.49222,45.93824],[10.4917,45.94003],[10.49147,45.9416],[10.49147,45.94179],[10.49142,45.9418],[10.49092,45.94227],[10.49046,45.94266],[10.48907,45.94412],[10.48789,45.94566],[10.48692,45.94727],[10.48619,45.94894],[10.48569,45.95066],[10.48543,45.95239],[10.48541,45.95414],[10.48563,45.95588],[10.4861,45.9576],[10.48669,45.95903],[10.48679,45.9592],[10.48838,45.97206],[10.48832,45.97203],[10.48731,45.97191],[10.48473,45.97169],[10.48214,45.97166],[10.47955,45.97181],[10.47699,45.97214],[10.4745,45.97264],[10.47449,45.97265],[10.47447,45.97268],[10.47441,45.97267],[10.4733,45.97294],[10.47088,45.97362],[10.46857,45.97447],[10.46639,45.97549],[10.46438,45.97665],[10.46254,45.97794],[10.4609,45.97936],[10.45947,45.98089],[10.45827,45.98251],[10.45731,45.98421],[10.4566,45.98597],[10.45615,45.98777],[10.45597,45.98959],[10.45605,45.99141],[10.45639,45.99322],[10.45699,45.995],[10.4572,45.99551],[10.45727,45.99559],[10.45803,45.99956],[10.45793,45.99999],[10.45782,46.00053],[10.45756,46.00218],[10.45752,46.00384],[10.45771,46.00549],[10.45811,46.00713],[10.45872,46.00873],[10.45954,46.01029],[10.46056,46.01178],[10.46178,46.01321],[10.46204,46.01348],[10.46354,46.01491],[10.46523,46.01623],[10.46711,46.01743],[10.46914,46.01849],[10.47131,46.01941],[10.4736,46.02017],[10.47598,46.02077],[10.47844,46.02121],[10.48095,46.02147],[10.48345,46.02165],[10.48457,46.02507],[10.48491,46.02601],[10.48632,46.02946],[10.48623,46.02992],[10.48543,46.03403],[10.48523,46.03561],[10.48522,46.0372],[10.48534,46.03819],[10.48535,46.0383],[10.48539,46.03845],[10.48533,46.0385],[10.48531,46.03856],[10.48477,46.0402],[10.48446,46.04187],[10.48436,46.04355],[10.48437,46.04408],[10.4844,46.04413],[10.48432,46.04456],[10.48381,46.04716],[10.48359,46.04904],[10.48365,46.05092],[10.48399,46.05279],[10.48461,46.05463],[10.4855,46.05641],[10.48666,46.05812],[10.48806,46.05973],[10.48823,46.0599],[10.4883,46.05994],[10.48833,46.06008],[10.48853,46.06052],[10.4894,46.06214],[10.49048,46.06369],[10.49177,46.06517],[10.49326,46.06655],[10.49494,46.06783],[10.49678,46.06899],[10.49823,46.06974],[10.49824,46.06974],[10.49824,46.06975],[10.49877,46.07002],[10.49897,46.07011],[10.49903,46.07014],[10.49917,46.07021],[10.49932,46.07027],[10.50091,46.07097],[10.50288,46.07168],[10.50471,46.07221],[10.50474,46.07222],[10.50482,46.07222],[10.50868,46.07406],[10.50968,46.07504],[10.51122,46.0764],[10.51294,46.07765],[10.51483,46.07878],[10.51613,46.07942],[10.51613,46.07943],[10.51665,46.07968],[10.51718,46.07992],[10.51719,46.08001],[10.51741,46.08059],[10.51821,46.08229],[10.51924,46.08392],[10.5205,46.08548],[10.52197,46.08694],[10.52365,46.0883],[10.52447,46.08884],[10.52492,46.08917],[10.52499,46.08919],[10.52518,46.08949],[10.52642,46.09101],[10.52797,46.09252],[10.52972,46.0939],[10.53743,46.09938],[10.54184,46.10708],[10.54282,46.10858],[10.54633,46.11338],[10.5504,46.12141],[10.55036,46.12186],[10.55001,46.12595],[10.55001,46.12805],[10.5508,46.1377],[10.55077,46.13772],[10.55075,46.13793],[10.55066,46.13978],[10.55085,46.14163],[10.55131,46.14345],[10.55203,46.14524],[10.55302,46.14696],[10.55422,46.14856],[10.55427,46.14858],[10.5546,46.15068],[10.55508,46.15265],[10.55586,46.15457],[10.55694,46.15642],[10.55718,46.15677],[10.55724,46.15682],[10.55724,46.1569],[10.55735,46.15718],[10.55816,46.15898],[10.55924,46.16071],[10.56058,46.16235],[10.56215,46.16388],[10.56549,46.16679],[10.56517,46.16718],[10.55482,46.17999],[10.55447,46.18042],[10.55429,46.18053],[10.55388,46.18089],[10.55343,46.18124],[10.55187,46.1827],[10.55053,46.18427],[10.54943,46.18592],[10.54857,46.18764],[10.54797,46.18941],[10.54763,46.19122],[10.54755,46.19304],[10.54774,46.19486],[10.54818,46.19665],[10.54838,46.19725],[10.54842,46.1973],[10.54938,46.201],[10.55001,46.20286],[10.55092,46.20466],[10.5521,46.20638],[10.55353,46.208],[10.55521,46.20952],[10.5571,46.21089],[10.55992,46.21274],[10.57046,46.2232],[10.57041,46.22336],[10.57037,46.22381],[10.57035,46.22566],[10.5706,46.2275],[10.57111,46.22932],[10.5719,46.23108],[10.57294,46.23278],[10.57423,46.2344],[10.57574,46.23592],[10.57748,46.23732],[10.57941,46.2386],[10.58046,46.23916],[10.58086,46.23939],[10.58104,46.23946],[10.58106,46.23955],[10.58121,46.2398],[10.58179,46.24089],[10.58295,46.24252],[10.58434,46.24407],[10.58484,46.24451],[10.58535,46.24502],[10.58541,46.24504],[10.58535,46.24548],[10.58486,46.24861],[10.58479,46.24906],[10.58465,46.2495],[10.58222,46.2575],[10.58207,46.25799],[10.58184,46.25847],[10.57808,46.26635],[10.57736,46.26815],[10.57692,46.26999],[10.57625,46.27411],[10.57617,46.27457],[10.57607,46.27463],[10.57557,46.27517],[10.57534,46.2754],[10.57404,46.27694],[10.57297,46.27857],[10.57214,46.28026],[10.57155,46.282],[10.57122,46.28377],[10.57114,46.28555],[10.57131,46.28733],[10.57173,46.2891],[10.57241,46.29082],[10.57333,46.29249],[10.57448,46.29408],[10.57585,46.29559],[10.57743,46.297],[10.57967,46.29881],[10.57944,46.29922],[10.5756,46.30596],[10.57536,46.30639],[10.5749,46.30671],[10.57489,46.30671],[10.57284,46.30815],[10.57117,46.30943],[10.56968,46.31082],[10.56839,46.31231],[10.56731,46.31387],[10.56646,46.31549],[10.56583,46.31717],[10.56543,46.31888],[10.56528,46.32061],[10.56536,46.32234],[10.56583,46.32632],[10.56527,46.32652],[10.55237,46.33112],[10.55015,46.33201],[10.54807,46.33305],[10.54614,46.33422],[10.54439,46.33552],[10.54284,46.33693],[10.54149,46.33845],[10.54037,46.34005],[10.53947,46.34171],[10.53882,46.34343],[10.53842,46.34519],[10.53826,46.34696],[10.53836,46.34874],[10.53871,46.3505],[10.53931,46.35223],[10.54016,46.35391],[10.54124,46.35552],[10.54254,46.35705],[10.54394,46.35853],[10.54392,46.35857],[10.54403,46.35906],[10.54415,46.35982],[10.54467,46.36156],[10.54545,46.36327],[10.54646,46.36491],[10.5477,46.36647],[10.54916,46.36794],[10.55082,46.3693],[10.55267,46.37054],[10.55466,46.37164],[10.5574,46.373],[10.55966,46.374],[10.56208,46.37484],[10.56461,46.3755],[10.56723,46.37598],[10.5699,46.37626],[10.5726,46.37635],[10.57531,46.37624],[10.5769,46.37606],[10.57724,46.37603],[10.57746,46.37599],[10.57756,46.37605],[10.57808,46.3762],[10.58026,46.37674],[10.58249,46.37715],[10.58477,46.37742],[10.58708,46.37755],[10.58938,46.37753],[10.59942,46.37715],[10.59944,46.37718],[10.59989,46.37734],[10.60082,46.37772],[10.60287,46.37839],[10.605,46.37894],[10.6072,46.37935],[10.60739,46.37938],[10.6076,46.37939],[10.60799,46.38021],[10.60896,46.38194],[10.61019,46.38359],[10.61165,46.38515],[10.61334,46.3866],[10.61523,46.38791],[10.61608,46.38844],[10.61617,46.38847],[10.6162,46.38862],[10.61645,46.38912],[10.61757,46.39101],[10.61899,46.39281],[10.6207,46.39448],[10.62131,46.39501],[10.62145,46.39511],[10.62148,46.39517],[10.62181,46.39545],[10.62239,46.39601],[10.62387,46.3972],[10.6255,46.39829],[10.62725,46.39929],[10.6273,46.39931],[10.6275,46.39943],[10.62948,46.40036],[10.63158,46.40116],[10.63258,46.40151],[10.63276,46.40153],[10.63271,46.40156],[10.63235,46.40219],[10.63233,46.40223],[10.63231,46.40228],[10.63227,46.40235],[10.63157,46.40375],[10.63101,46.40531],[10.63065,46.4069],[10.63061,46.4073],[10.63053,46.4078],[10.63055,46.40786],[10.63049,46.40786],[10.62998,46.4081],[10.62789,46.40917],[10.62597,46.41038],[10.62423,46.41171],[10.6227,46.41316],[10.62137,46.41471],[10.62028,46.41634],[10.61943,46.41804],[10.61883,46.41979],[10.61776,46.42374],[10.61741,46.42554],[10.61733,46.42736],[10.6175,46.42917],[10.61794,46.43096],[10.61864,46.43271],[10.61948,46.43421],[10.61964,46.43442],[10.61949,46.43486],[10.61933,46.43537],[10.61889,46.43707],[10.6187,46.43879],[10.61874,46.44052],[10.61902,46.44224],[10.61954,46.44393],[10.62029,46.44558],[10.62126,46.44717],[10.62159,46.44758],[10.62193,46.44807],[10.62201,46.44814],[10.62158,46.44845],[10.61246,46.45513],[10.61245,46.45514],[10.61239,46.45518],[10.60772,46.45863],[10.60606,46.45998],[10.6046,46.46144],[10.60335,46.46299],[10.60233,46.46462],[10.60154,46.46631],[10.60101,46.46805],[10.60099,46.4681],[10.60089,46.46854],[10.60028,46.46868],[10.59677,46.4695],[10.5945,46.47011],[10.59232,46.47086],[10.59026,46.47176],[10.58944,46.47215],[10.58929,46.47224],[10.5891,46.47223],[10.58674,46.47237],[10.5844,46.47266],[10.5821,46.4731],[10.57987,46.47369],[10.57772,46.47441],[10.57568,46.47527],[10.57376,46.47625],[10.56399,46.48174],[10.5637,46.48191],[10.56371,46.48191],[10.56276,46.48244],[10.56103,46.48359],[10.55946,46.48484],[10.55807,46.48619],[10.55686,46.48762],[10.55584,46.48913],[10.55562,46.48949],[10.55539,46.48989],[10.55482,46.49006],[10.54658,46.4926],[10.54603,46.49277],[10.54543,46.49271],[10.54392,46.49256],[10.54139,46.4924],[10.53884,46.49241],[10.53631,46.4926],[10.53381,46.49295],[10.53138,46.49347],[10.52903,46.49416],[10.5257,46.49526],[10.52519,46.49543],[10.52462,46.49547],[10.51004,46.49643],[10.5082,46.4966],[10.4946,46.49818],[10.494,46.49825],[10.4938,46.4982],[10.49286,46.4981],[10.49243,46.49804],[10.48983,46.49784],[10.48722,46.49784],[10.48462,46.49801],[10.48206,46.49836],[10.47957,46.49888],[10.47716,46.49958],[10.47486,46.50044],[10.4727,46.50145],[10.4707,46.50261],[10.46415,46.50681],[10.46224,46.50817],[10.46055,46.50966],[10.45909,46.51126],[10.45789,46.51296],[10.45695,46.51475],[10.45628,46.51658],[10.45471,46.52217],[10.45434,46.52397],[10.45423,46.52578],[10.45438,46.52759],[10.4548,46.52938],[10.45548,46.53113],[10.45641,46.53283],[10.45758,46.53445],[10.45898,46.53599],[10.4606,46.53742],[10.46242,46.53872],[10.46441,46.5399],[10.46657,46.54093],[10.46887,46.5418],[10.46941,46.54196],[10.47032,46.54227],[10.47039,46.54227],[10.47223,46.54353],[10.47221,46.54362],[10.47221,46.54364],[10.47221,46.54432],[10.47223,46.54472],[10.47241,46.54642],[10.47282,46.54809],[10.47346,46.54973],[10.47352,46.54985],[10.47386,46.55054],[10.47431,46.5514],[10.47441,46.5515],[10.47505,46.55298],[10.47547,46.55386],[10.4757,46.5543],[10.47673,46.55601],[10.47702,46.55643],[10.47751,46.5571],[10.47775,46.55737],[10.47766,46.55753],[10.47743,46.558],[10.47724,46.55845],[10.47658,46.56031],[10.47621,46.5622],[10.47614,46.56411],[10.47635,46.56602],[10.47686,46.56789],[10.47688,46.56794],[10.47762,46.56967],[10.47766,46.56975],[10.47868,46.57146],[10.47872,46.57152],[10.47932,46.57234],[10.47933,46.57235],[10.47935,46.57239],[10.4795,46.57258],[10.48045,46.57366],[10.48049,46.5737],[10.48052,46.57374],[10.48099,46.57427],[10.4816,46.57481],[10.48198,46.5752],[10.48246,46.57559],[10.48274,46.57584],[10.48292,46.57598],[10.48294,46.57599],[10.48295,46.57598],[10.48296,46.57599],[10.48296,46.576],[10.48356,46.5765],[10.48469,46.57743],[10.48467,46.57755],[10.48467,46.57785],[10.48467,46.57792],[10.48467,46.57948],[10.48467,46.57958],[10.48494,46.58148],[10.48497,46.5816],[10.48528,46.58276],[10.48529,46.58279],[10.48534,46.58293],[10.48555,46.5836],[10.48559,46.58363],[10.48558,46.58369],[10.48569,46.58408],[10.4858,46.58458],[10.48652,46.58683],[10.48669,46.58723],[10.48715,46.58823],[10.48782,46.58954],[10.48779,46.58956],[10.48768,46.58996],[10.48763,46.59012],[10.48718,46.59177],[10.48718,46.59179],[10.48694,46.59371],[10.487,46.59564],[10.48706,46.59611],[10.48716,46.59684],[10.48719,46.59685],[10.48733,46.59806],[10.48729,46.59842],[10.48719,46.59928],[10.48715,46.59961],[10.48708,46.6005],[10.48706,46.60094],[10.48711,46.60272],[10.48741,46.60448],[10.48796,46.60622],[10.48875,46.60791],[10.48979,46.60953],[10.48985,46.60962],[10.4906,46.61058],[10.49065,46.61064],[10.49073,46.61074],[10.49115,46.61123],[10.49127,46.61134],[10.49208,46.61317],[10.49208,46.61357],[10.4921,46.61382],[10.49217,46.61441],[10.49224,46.61494],[10.49224,46.61498],[10.49226,46.61509],[10.49229,46.61512],[10.49223,46.61511],[10.49113,46.61545],[10.49113,46.61546],[10.49027,46.61572],[10.48983,46.61586],[10.48737,46.61679],[10.48507,46.61789],[10.48296,46.61916],[10.4825,46.61947],[10.48175,46.61999],[10.48167,46.62007],[10.48126,46.62035],[10.48126,46.62036],[10.46289,46.6328],[10.46246,46.63309],[10.46198,46.63336],[10.45521,46.63716],[10.45467,46.63746],[10.45407,46.63773],[10.44667,46.64103],[10.44666,46.64104],[10.44613,46.64128],[10.44606,46.64123],[10.44573,46.64112],[10.44468,46.64078],[10.44409,46.6406],[10.44141,46.63991],[10.43863,46.63942],[10.4358,46.63915],[10.43524,46.63911],[10.43501,46.6391],[10.43476,46.63909],[10.43469,46.63908],[10.43452,46.63909],[10.43393,46.63902],[10.43035,46.6386],[10.42893,46.63844],[10.42789,46.63833],[10.42783,46.63833],[10.42737,46.63829],[10.42526,46.63816],[10.42482,46.63815],[10.42474,46.63815],[10.42368,46.63813],[10.42322,46.63813],[10.42271,46.63813],[10.42148,46.63814],[10.42088,46.63816],[10.41842,46.63831],[10.41599,46.63863],[10.41361,46.6391],[10.41131,46.63972],[10.4091,46.64049],[10.40701,46.64141],[10.40506,46.64245],[10.40325,46.64362],[10.40162,46.6449],[10.40017,46.64628],[10.39891,46.64775],[10.39786,46.64929],[10.39703,46.6509],[10.39686,46.65128],[10.39646,46.65234],[10.39642,46.65242],[10.39642,46.65247],[10.3963,46.6526],[10.39623,46.6527],[10.39584,46.65318],[10.39573,46.65332],[10.39464,46.65493],[10.39379,46.65659],[10.39317,46.65831],[10.39281,46.66006],[10.39275,46.66051],[10.39269,46.66108],[10.39268,46.66111],[10.3927,46.66114],[10.39259,46.66155],[10.39257,46.66163],[10.39255,46.66176],[10.39239,46.66257],[10.39216,46.66456],[10.39214,46.66496],[10.39215,46.66559],[10.39218,46.6658],[10.39213,46.66588],[10.39206,46.66671],[10.39196,46.66753],[10.39196,46.66764],[10.39199,46.66943],[10.39199,46.66945],[10.39217,46.67077],[10.3922,46.67091],[10.39226,46.67114],[10.39231,46.67146],[10.39236,46.67161],[10.39232,46.67162],[10.39217,46.67187],[10.39195,46.67218],[10.39178,46.67245],[10.3918,46.67246],[10.39105,46.67369]]]},"properties":{"geometry_id":"geom-territoire-it-ozav-1945-01-01","date_validite":"1945-01-01","statut":"provisoire_ohm","sources":[{"source_id":"src-openhistoricalmap","locator":"relation 2879989 — Operationszone Alpenvorland 1943-09-10 → 1945-05","usage":"tracé de la frontière"},{"source_id":"src-westpoint-italy-jun-dec1944","locator":"carte 51, tireté rouge « 31 Dec. »","usage":"front d’Italie au 31/12/1944"}],"method":"extraction_ohm_puis_decoupage_trait_de_cote","operations":["OHM r2879989 ∩ Italie du Nord"],"precision":"frontières terrestres : celles d’OHM ; côtes : Natural Earth 1:10m (~1 km)","zone_incertitude_km":null,"surface_km2":17174,"logiciel":"Python — Shapely/GEOS, SciPy","script":"outils/geo/deriver_snapshot0_lot04.py","date_creation":"2026-09-29","auteur":"Claude","licence":"CC0 (OpenHistoricalMap) ; Natural Earth : domaine public","licences_segments":[],"points_a_verifier":[]}}