{"type":"Feature","geometry":{"type":"MultiPolygon","coordinates":[[[[19.57215,48.28221],[19.57199,48.28394],[19.57208,48.28568],[19.57242,48.2874],[19.573,48.28908],[19.57383,48.29073],[19.57489,48.29231],[19.57618,48.29381],[19.57768,48.29523],[19.57933,48.29651],[19.6027,48.31288],[19.60229,48.31322],[19.60228,48.31322],[19.59229,48.3213],[19.59071,48.32272],[19.58933,48.32424],[19.58819,48.32584],[19.58729,48.3275],[19.58664,48.32921],[19.58625,48.33096],[19.58611,48.33273],[19.58624,48.33449],[19.58662,48.33624],[19.58726,48.33795],[19.58815,48.33961],[19.58929,48.34121],[19.59065,48.34272],[19.59223,48.34414],[19.59401,48.34544],[19.59597,48.34662],[19.5981,48.34767],[19.60038,48.34858],[19.60278,48.34932],[19.60528,48.34991],[19.60786,48.35034],[19.61048,48.35059],[19.61313,48.35067],[19.61578,48.35057],[19.61791,48.35036],[19.61806,48.35035],[19.61815,48.35032],[19.74013,48.37176],[19.74158,48.37196],[19.74419,48.37216],[19.74683,48.37218],[19.74945,48.37204],[19.75205,48.37172],[19.75458,48.37124],[19.75704,48.37059],[19.75939,48.36979],[19.76161,48.36884],[19.76368,48.36776],[19.76558,48.36654],[19.7673,48.36521],[19.76881,48.36377],[19.77011,48.36224],[19.77117,48.36063],[19.772,48.35897],[19.77258,48.35726],[19.77291,48.35552],[19.77298,48.35376],[19.77279,48.35202],[19.77235,48.35029],[19.77166,48.3486],[19.77072,48.34696],[19.76955,48.3454],[19.69788,48.26011],[19.69616,48.25832],[19.69414,48.25668],[19.68099,48.24723],[19.67898,48.24593],[19.67679,48.24478],[19.67443,48.24378],[19.67192,48.24296],[19.6693,48.24231],[19.66659,48.24185],[19.66382,48.24158],[19.66103,48.2415],[19.66046,48.2415],[19.66022,48.24153],[19.6595,48.24145],[19.65878,48.24141],[19.65689,48.24128],[19.65418,48.24127],[19.65149,48.24145],[19.64883,48.24181],[19.64624,48.24234],[19.64375,48.24305],[19.64137,48.24391],[19.63913,48.24493],[19.63705,48.2461],[19.63695,48.24617],[19.63694,48.24617],[19.63586,48.24683],[19.63513,48.24726],[19.63471,48.24752],[19.63369,48.24814],[19.6325,48.24887],[19.63122,48.24979],[19.63122,48.24981],[19.63083,48.25008],[19.63078,48.25006],[19.63056,48.24997],[19.63036,48.24992],[19.63014,48.24983],[19.63006,48.24978],[19.62997,48.24975],[19.62992,48.24972],[19.62981,48.24964],[19.62969,48.24958],[19.62961,48.24953],[19.62947,48.24944],[19.6294,48.24938],[19.62756,48.24822],[19.6252,48.24703],[19.62494,48.24691],[19.62475,48.24686],[19.62469,48.24683],[19.62458,48.24675],[19.62453,48.24675],[19.62439,48.24664],[19.62419,48.24647],[19.62406,48.24633],[19.62405,48.24632],[19.62262,48.24512],[19.62096,48.24395],[19.61914,48.24289],[19.61719,48.24194],[19.61547,48.24125],[19.61544,48.24125],[19.61519,48.24114],[19.61486,48.24103],[19.61477,48.24098],[19.61472,48.24096],[19.61442,48.24089],[19.61422,48.24081],[19.61411,48.24075],[19.61394,48.24069],[19.61388,48.24066],[19.61354,48.24054],[19.61136,48.23984],[19.60937,48.23934],[19.60903,48.23925],[19.60889,48.23922],[19.60883,48.23922],[19.60867,48.23917],[19.60864,48.23914],[19.60847,48.23911],[19.60844,48.23908],[19.60828,48.23903],[19.60822,48.239],[19.60808,48.23889],[19.60792,48.23878],[19.60775,48.23864],[19.60758,48.23853],[19.60736,48.23831],[19.60722,48.23811],[19.60711,48.23797],[19.60706,48.23789],[19.60692,48.23772],[19.60689,48.23767],[19.60686,48.23764],[19.6068,48.23755],[19.60678,48.23752],[19.60673,48.23745],[19.60657,48.23723],[19.60654,48.23718],[19.60521,48.23551],[19.60359,48.23393],[19.60173,48.23247],[19.59965,48.23115],[19.59737,48.22999],[19.59724,48.22993],[19.597,48.22983],[19.59682,48.22974],[19.59656,48.22963],[19.59644,48.22958],[19.59619,48.22947],[19.59601,48.22938],[19.59593,48.22934],[19.59584,48.2293],[19.59531,48.22908],[19.59508,48.22897],[19.59453,48.22872],[19.59422,48.22861],[19.594,48.2285],[19.59381,48.22842],[19.59358,48.22833],[19.59331,48.22819],[19.59308,48.22811],[19.59286,48.228],[19.59261,48.22783],[19.59247,48.22772],[19.59228,48.22753],[19.59208,48.22736],[19.592,48.22725],[19.59196,48.22718],[19.59038,48.22554],[19.58844,48.22395],[19.58839,48.22391],[19.58823,48.2238],[19.58808,48.22369],[19.58794,48.22361],[19.58775,48.22342],[19.58768,48.22335],[19.58572,48.22179],[19.58342,48.22035],[19.58262,48.2199],[19.58253,48.21986],[19.58244,48.21983],[19.58242,48.21979],[19.58203,48.21957],[19.57981,48.21846],[19.57744,48.21751],[19.57493,48.21672],[19.57231,48.21612],[19.56961,48.21569],[19.56849,48.21556],[19.56831,48.21556],[19.56794,48.21553],[19.56762,48.21547],[19.56563,48.2153],[19.56294,48.21525],[19.56024,48.21537],[19.55758,48.21568],[19.55498,48.21616],[19.55246,48.21682],[19.55006,48.21763],[19.54778,48.21861],[19.54566,48.21973],[19.54372,48.22098],[19.54198,48.22236],[19.54045,48.22385],[19.53916,48.22543],[19.5381,48.22709],[19.5373,48.22881],[19.53676,48.23058],[19.53649,48.23237],[19.53649,48.23417],[19.53676,48.23596],[19.53729,48.23773],[19.53809,48.23944],[19.53914,48.2411],[19.54044,48.24268],[19.54159,48.2438],[19.57386,48.272],[19.57379,48.27242],[19.57215,48.28221]]],[[[17.22212,48.0411],[17.22103,48.04269],[17.22017,48.04434],[17.21956,48.04604],[17.2192,48.04778],[17.21909,48.04952],[17.21923,48.05127],[17.21963,48.053],[17.22028,48.05469],[17.22116,48.05634],[17.22229,48.05791],[17.22363,48.05941],[17.22519,48.06081],[17.22695,48.0621],[17.22888,48.06327],[17.23097,48.06431],[17.23321,48.06521],[17.23557,48.06596],[17.23802,48.06655],[17.24055,48.06698],[17.24313,48.06724],[17.24574,48.06733],[17.24835,48.06726],[17.25093,48.06701],[17.25347,48.06659],[17.25594,48.06602],[17.25831,48.06528],[17.26028,48.0645],[17.30312,48.04573],[17.34398,48.09001],[17.34336,48.09016],[17.34335,48.09016],[17.32329,48.095],[17.32091,48.09566],[17.31864,48.09647],[17.31649,48.09742],[17.31449,48.09851],[17.31265,48.09971],[17.31099,48.10103],[17.30953,48.10245],[17.30827,48.10396],[17.30724,48.10554],[17.30644,48.10718],[17.30587,48.10886],[17.30555,48.11057],[17.30055,48.15348],[17.30048,48.15525],[17.30066,48.15701],[17.3011,48.15875],[17.3018,48.16045],[17.30274,48.1621],[17.30392,48.16368],[17.30532,48.16517],[17.30694,48.16656],[17.30875,48.16784],[17.31075,48.169],[17.3129,48.17001],[17.3152,48.17089],[17.31761,48.1716],[17.32011,48.17216],[17.32264,48.17254],[17.33608,48.1741],[17.34398,48.1979],[17.34379,48.19829],[17.33181,48.22224],[17.33111,48.2239],[17.33065,48.22561],[17.33044,48.22733],[17.33047,48.22906],[17.33076,48.23078],[17.33129,48.23247],[17.33206,48.23412],[17.33307,48.23571],[17.3343,48.23723],[17.33574,48.23866],[17.33739,48.24],[17.33921,48.24122],[17.34121,48.24232],[17.34336,48.24328],[17.34563,48.24411],[17.34802,48.24478],[17.35019,48.24523],[17.41704,48.25685],[17.41973,48.25722],[17.42255,48.2574],[17.42538,48.25738],[17.4282,48.25716],[17.4309,48.25676],[17.4958,48.24464],[17.49842,48.24405],[17.50097,48.24327],[17.50334,48.24233],[17.58602,48.20569],[17.63512,48.23313],[17.65848,48.25463],[17.66016,48.25602],[17.6621,48.25732],[17.66423,48.25849],[17.66653,48.2595],[17.66898,48.26035],[17.67154,48.26103],[17.6742,48.26153],[17.67692,48.26185],[17.67967,48.26197],[17.68243,48.26191],[17.6851,48.26167],[17.68546,48.26163],[17.68798,48.26122],[17.69049,48.26064],[17.6929,48.2599],[17.69519,48.259],[17.69734,48.25796],[17.69932,48.25678],[17.70112,48.25548],[17.70273,48.25407],[17.70411,48.25256],[17.70527,48.25096],[17.70619,48.2493],[17.70685,48.24758],[17.70726,48.24583],[17.70742,48.24407],[17.70731,48.2423],[17.70694,48.24055],[17.69807,48.20954],[17.69794,48.20912],[17.72953,48.20866],[17.75514,48.24759],[17.75625,48.24909],[17.75761,48.25054],[17.75917,48.2519],[17.76092,48.25316],[17.76283,48.25429],[17.76491,48.2553],[17.76712,48.25618],[17.76944,48.2569],[17.77186,48.25748],[17.77435,48.2579],[17.77688,48.25816],[17.77945,48.25826],[17.78202,48.25819],[17.78457,48.25797],[17.78707,48.25758],[17.78951,48.25703],[17.79182,48.25634],[17.79324,48.25586],[17.79547,48.25502],[17.7976,48.25402],[17.79958,48.25289],[17.80138,48.25164],[17.803,48.25028],[17.80441,48.24882],[17.80561,48.24728],[17.80657,48.24566],[17.80729,48.24403],[17.8236,48.19882],[17.83905,48.18097],[17.86378,48.19258],[17.86595,48.1935],[17.86833,48.19429],[17.87081,48.19492],[17.87337,48.19539],[17.876,48.19568],[17.87865,48.1958],[17.88131,48.19575],[17.88394,48.19552],[17.88654,48.19511],[17.88906,48.19454],[17.89148,48.19381],[17.89342,48.19305],[18.03045,48.13367],[18.07972,48.12233],[18.11851,48.14982],[18.12529,48.19014],[18.12571,48.19186],[18.12639,48.19357],[18.12732,48.19523],[18.1285,48.19682],[18.1299,48.19832],[18.13151,48.19973],[18.13333,48.20102],[18.13533,48.20218],[18.13749,48.20321],[18.13979,48.20408],[18.14212,48.20478],[18.17997,48.21461],[18.1796,48.21498],[18.15487,48.23993],[18.15351,48.24145],[18.15238,48.24306],[18.1515,48.24474],[18.15087,48.24646],[18.15049,48.24822],[18.15038,48.24999],[18.15053,48.25176],[18.15094,48.25352],[18.1516,48.25523],[18.15252,48.2569],[18.15368,48.25849],[18.15507,48.26],[18.15667,48.26141],[18.15813,48.26246],[18.24814,48.32089],[18.24955,48.32172],[18.25164,48.32273],[18.25388,48.32361],[18.25622,48.32433],[18.25867,48.3249],[18.26118,48.32532],[18.26374,48.32557],[18.26633,48.32565],[18.26892,48.32557],[18.27149,48.32533],[18.27401,48.32492],[18.27646,48.32435],[18.27881,48.32363],[18.28106,48.32276],[18.28317,48.32175],[18.28512,48.32061],[18.2869,48.31936],[18.2884,48.31807],[18.30906,48.2985],[18.40691,48.28845],[18.40683,48.28859],[18.40682,48.28861],[18.4064,48.29031],[18.40622,48.29203],[18.40629,48.29376],[18.40661,48.29547],[18.40718,48.29715],[18.40799,48.29879],[18.40902,48.30037],[18.41028,48.30188],[18.41176,48.3033],[18.41343,48.30461],[18.41528,48.30581],[18.41729,48.30689],[18.41946,48.30784],[18.42175,48.30864],[18.42414,48.30929],[18.42662,48.30979],[18.42916,48.31012],[18.43174,48.31029],[18.43409,48.31029],[18.4766,48.309],[18.49526,48.3163],[18.49741,48.31706],[18.49982,48.31771],[18.50231,48.3182],[18.50486,48.31854],[18.50745,48.3187],[18.51005,48.3187],[18.51264,48.31854],[18.5152,48.3182],[18.51769,48.31771],[18.52011,48.31706],[18.52242,48.31625],[18.5246,48.3153],[18.52663,48.31422],[18.5285,48.31301],[18.53019,48.31169],[18.53167,48.31026],[18.53295,48.30875],[18.534,48.30716],[18.53482,48.30551],[18.53539,48.30382],[18.53572,48.3021],[18.5358,48.30037],[18.53395,48.23289],[18.53394,48.23245],[18.62058,48.25499],[18.62295,48.25551],[18.6256,48.2559],[18.62829,48.25612],[18.631,48.25615],[18.63371,48.256],[18.63638,48.25567],[18.63899,48.25516],[18.64151,48.25448],[18.64391,48.25364],[18.64617,48.25263],[18.64813,48.25156],[18.70766,48.21552],[18.76586,48.2223],[18.76811,48.22249],[18.77078,48.22253],[18.77344,48.22239],[18.77606,48.22209],[18.77863,48.2216],[18.78112,48.22096],[18.7835,48.22015],[18.78575,48.21918],[18.78785,48.21808],[18.78977,48.21684],[18.7915,48.21548],[18.79302,48.21402],[18.79432,48.21246],[18.79538,48.21082],[18.79619,48.20912],[18.79674,48.20738],[18.79704,48.20561],[18.79707,48.20383],[18.79684,48.20206],[18.79635,48.20031],[18.7956,48.1986],[18.7946,48.19695],[18.79336,48.19538],[18.79189,48.1939],[18.79022,48.19252],[18.78834,48.19126],[18.78629,48.19012],[18.78407,48.18914],[18.7192,48.1631],[18.71919,48.1631],[18.71864,48.16288],[18.76568,48.14204],[18.85746,48.16025],[18.86013,48.16068],[18.8629,48.16093],[18.86566,48.16098],[18.93047,48.1599],[18.97171,48.18328],[18.97378,48.18434],[18.97606,48.18528],[18.97846,48.18606],[18.98098,48.18668],[18.98357,48.18713],[18.98622,48.1874],[18.98889,48.1875],[18.99157,48.18742],[18.99422,48.18716],[18.99682,48.18672],[18.99935,48.18612],[19.00177,48.18535],[19.00407,48.18442],[19.00622,48.18335],[19.0082,48.18214],[19.00999,48.1808],[19.01157,48.17935],[19.01293,48.17781],[19.01406,48.17618],[19.01493,48.17449],[19.01555,48.17274],[19.01591,48.17097],[19.016,48.16918],[19.01582,48.16739],[19.01538,48.16563],[19.01532,48.16543],[19.01527,48.1654],[19.01529,48.16497],[19.01594,48.14821],[19.01596,48.14776],[19.06883,48.1386],[19.17231,48.18305],[19.1743,48.18382],[19.17655,48.18451],[19.17889,48.18506],[19.1813,48.18547],[19.18375,48.18572],[19.18623,48.18582],[19.18864,48.18577],[19.23458,48.1834],[19.23738,48.18316],[19.24017,48.18271],[19.24288,48.18206],[19.24547,48.18122],[19.24784,48.18024],[19.28658,48.16212],[19.28845,48.16116],[19.29037,48.15995],[19.2921,48.15862],[19.29363,48.15718],[19.29494,48.15565],[19.29602,48.15405],[19.29686,48.15238],[19.29746,48.15066],[19.2978,48.14892],[19.29789,48.14716],[19.29771,48.14541],[19.29728,48.14367],[19.2966,48.14197],[19.29568,48.14033],[19.29452,48.13875],[19.29313,48.13726],[19.29153,48.13587],[19.28973,48.13459],[19.28776,48.13343],[19.28562,48.1324],[19.28335,48.13153],[19.28095,48.1308],[19.214,48.11308],[19.21399,48.11308],[19.21368,48.113],[19.21337,48.1129],[19.21185,48.11244],[19.21123,48.11225],[19.21063,48.11201],[19.2092,48.11145],[19.2089,48.11133],[19.20862,48.11121],[19.20861,48.11121],[19.17125,48.09472],[19.17099,48.0946],[19.17064,48.09443],[19.16989,48.09406],[19.16937,48.09381],[19.16888,48.09352],[19.16791,48.09294],[19.16743,48.09265],[19.16699,48.09233],[19.16611,48.09169],[19.16567,48.09137],[19.16528,48.09103],[19.1645,48.09034],[19.16411,48.08999],[19.16377,48.08962],[19.16309,48.08888],[19.16275,48.08851],[19.16246,48.08812],[19.16189,48.08734],[19.16161,48.08695],[19.16138,48.08654],[19.16096,48.08578],[19.15993,48.08417],[19.15867,48.08264],[19.1572,48.0812],[19.15552,48.07987],[19.15366,48.07865],[19.15163,48.07755],[19.14945,48.0766],[19.14714,48.07579],[19.14473,48.07513],[19.14223,48.07464],[19.13967,48.07431],[19.13707,48.07414],[19.13611,48.07415],[19.13557,48.07413],[19.1355,48.07414],[19.13519,48.07414],[19.135,48.07411],[19.13489,48.07408],[19.13221,48.07389],[19.12948,48.07388],[19.12944,48.07389],[19.12926,48.07389],[19.12917,48.07389],[19.129,48.07392],[19.12867,48.07392],[19.12825,48.07386],[19.12786,48.07378],[19.12764,48.07372],[19.12744,48.07364],[19.12728,48.07353],[19.12719,48.07345],[19.1271,48.0734],[19.12593,48.07262],[19.12393,48.07152],[19.12178,48.07055],[19.1195,48.06973],[19.11712,48.06906],[19.11464,48.06855],[19.11211,48.0682],[19.10953,48.06801],[19.10694,48.06799],[19.10436,48.06814],[19.10181,48.06846],[19.09932,48.06893],[19.0969,48.06957],[19.09459,48.07036],[19.0924,48.07129],[19.09199,48.07149],[19.09197,48.0715],[19.09164,48.07167],[19.09094,48.07197],[19.0909,48.07199],[19.09063,48.07211],[19.09042,48.07222],[19.08978,48.07247],[19.08903,48.07267],[19.08883,48.07269],[19.08864,48.07275],[19.08853,48.07278],[19.08844,48.07278],[19.08836,48.07281],[19.08814,48.07283],[19.08769,48.07292],[19.08742,48.07292],[19.08741,48.07292],[19.08733,48.07294],[19.087,48.07297],[19.08597,48.07297],[19.08569,48.07294],[19.08536,48.07292],[19.08522,48.07292],[19.08486,48.07286],[19.08472,48.07283],[19.08467,48.07283],[19.08453,48.07281],[19.08436,48.07278],[19.08428,48.07275],[19.08403,48.07269],[19.08375,48.07261],[19.0835,48.07253],[19.08331,48.07244],[19.08316,48.07239],[19.08302,48.07234],[19.08289,48.07229],[19.08278,48.07225],[19.08264,48.07219],[19.08247,48.07211],[19.08233,48.07206],[19.08217,48.07194],[19.08197,48.07183],[19.08181,48.07172],[19.08167,48.07164],[19.08158,48.07158],[19.08133,48.07139],[19.08119,48.07127],[19.08109,48.07119],[19.07947,48.07002],[19.07944,48.07],[19.07943,48.06999],[19.07919,48.06981],[19.07866,48.06947],[19.07865,48.06947],[19.07816,48.06913],[19.07607,48.06794],[19.07381,48.06691],[19.07141,48.06603],[19.06888,48.06533],[19.06626,48.0648],[19.06582,48.06473],[19.06579,48.06472],[19.06567,48.06472],[19.06553,48.06469],[19.06552,48.06469],[19.06319,48.06438],[19.06052,48.06422],[19.05784,48.06423],[19.05518,48.06442],[19.05255,48.06479],[19.05,48.06534],[19.04753,48.06605],[19.04667,48.06633],[19.04647,48.06642],[19.04622,48.06647],[19.04589,48.06647],[19.04582,48.06646],[19.04565,48.06647],[19.04395,48.06646],[19.04117,48.06663],[19.03843,48.067],[19.03577,48.06756],[19.0332,48.0683],[19.03076,48.06921],[19.02848,48.07029],[19.02637,48.07152],[19.02565,48.07198],[19.02558,48.07206],[19.02514,48.07231],[19.02508,48.07236],[19.02497,48.07242],[19.02482,48.07252],[19.02467,48.07264],[19.02456,48.07268],[19.02406,48.07299],[19.02342,48.07336],[19.0217,48.07454],[19.02014,48.07582],[19.01877,48.07719],[19.01823,48.07779],[19.01822,48.07781],[19.01819,48.07786],[19.01814,48.07792],[19.01786,48.078],[19.01774,48.07799],[19.01688,48.07804],[19.0153,48.07811],[19.01498,48.07814],[19.01486,48.07817],[19.01467,48.07814],[19.01453,48.07808],[19.01442,48.07803],[19.01442,48.07802],[19.01419,48.07794],[19.01261,48.07732],[19.01025,48.07658],[19.00923,48.07631],[19.00919,48.07631],[19.00908,48.07628],[19.00903,48.07628],[19.00889,48.07619],[19.00881,48.07606],[19.00862,48.07582],[19.00731,48.0744],[19.00582,48.07307],[19.00414,48.07183],[19.00231,48.07071],[19.00032,48.0697],[18.9982,48.06882],[18.99736,48.06854],[18.99696,48.0684],[18.99669,48.0683],[18.99658,48.06828],[18.99631,48.06817],[18.99631,48.06816],[18.99628,48.06815],[18.99602,48.06806],[18.99601,48.06805],[18.99597,48.06806],[18.99592,48.06803],[18.99578,48.06794],[18.99564,48.06781],[18.99547,48.06767],[18.99542,48.06762],[18.99504,48.0673],[18.993,48.06582],[18.9928,48.06568],[18.99275,48.06567],[18.99261,48.06558],[18.99228,48.06531],[18.99228,48.0653],[18.99221,48.06526],[18.99108,48.06431],[18.98919,48.06302],[18.98712,48.06187],[18.98488,48.06086],[18.98251,48.06001],[18.98001,48.05932],[18.97743,48.0588],[18.97478,48.05846],[18.97209,48.0583],[18.96939,48.05832],[18.96843,48.05836],[18.96836,48.05839],[18.96834,48.05837],[18.9679,48.05836],[18.96656,48.05827],[18.96418,48.05827],[18.96181,48.05841],[18.96061,48.05855],[18.96037,48.05857],[18.96014,48.05861],[18.95983,48.05856],[18.95914,48.05847],[18.95913,48.05847],[18.959,48.05846],[18.95742,48.05826],[18.95477,48.0581],[18.95253,48.05812],[18.95203,48.05817],[18.95118,48.05817],[18.95034,48.0582],[18.95035,48.05823],[18.94896,48.05828],[18.94596,48.05863],[18.9456,48.05868],[18.94536,48.05875],[18.94464,48.05883],[18.94392,48.05886],[18.94319,48.05881],[18.94305,48.05879],[18.94077,48.05867],[18.93923,48.05867],[18.93915,48.05866],[18.93908,48.05867],[18.93847,48.05867],[18.93775,48.05861],[18.93756,48.05857],[18.93666,48.05848],[18.93592,48.05837],[18.93592,48.05839],[18.93561,48.05833],[18.93463,48.05814],[18.93437,48.05809],[18.93378,48.05797],[18.93316,48.05784],[18.93038,48.05735],[18.92869,48.05717],[18.92809,48.05709],[18.92806,48.05711],[18.92792,48.05706],[18.92647,48.05644],[18.92603,48.05624],[18.92512,48.05583],[18.92481,48.05569],[18.9248,48.0557],[18.92331,48.05508],[18.92135,48.05441],[18.92133,48.05441],[18.92108,48.05433],[18.92084,48.05425],[18.92066,48.0542],[18.9181,48.05352],[18.91545,48.05301],[18.91273,48.05269],[18.90997,48.05256],[18.90721,48.05262],[18.90447,48.05287],[18.90182,48.05331],[18.90169,48.05333],[18.90055,48.05355],[18.89957,48.05374],[18.8985,48.05397],[18.89831,48.05401],[18.8983,48.05401],[18.89571,48.05464],[18.89323,48.05544],[18.89088,48.0564],[18.88892,48.0574],[18.88842,48.05767],[18.88706,48.05843],[18.88667,48.05869],[18.88667,48.05866],[18.88658,48.05856],[18.88513,48.05711],[18.88346,48.05575],[18.88161,48.05452],[18.87959,48.05341],[18.87741,48.05243],[18.8751,48.05161],[18.87268,48.05094],[18.87018,48.05043],[18.86761,48.05009],[18.865,48.04991],[18.86238,48.04991],[18.86074,48.05002],[18.86034,48.05003],[18.86025,48.05006],[18.86008,48.05006],[18.86006,48.05004],[18.85959,48.05006],[18.85788,48.05007],[18.85526,48.05026],[18.85268,48.05062],[18.85016,48.05115],[18.84774,48.05185],[18.84721,48.05202],[18.8463,48.05233],[18.84558,48.05258],[18.845,48.05237],[18.84475,48.05227],[18.84394,48.05197],[18.84033,48.05061],[18.84031,48.05058],[18.83929,48.05015],[18.83916,48.05009],[18.83688,48.04924],[18.83449,48.04854],[18.83332,48.04824],[18.83328,48.04825],[18.83325,48.0482],[18.83275,48.04782],[18.83096,48.04658],[18.82899,48.04545],[18.82687,48.04447],[18.82462,48.04362],[18.82346,48.04328],[18.82294,48.0431],[18.82289,48.04311],[18.822,48.04258],[18.82157,48.04195],[18.82148,48.04182],[18.82083,48.04089],[18.82,48.03967],[18.82003,48.03967],[18.82004,48.03966],[18.82028,48.03918],[18.82102,48.03745],[18.8215,48.03568],[18.82171,48.03388],[18.82165,48.03208],[18.82132,48.0303],[18.82073,48.02854],[18.81988,48.02684],[18.81878,48.0252],[18.81744,48.02364],[18.81644,48.02271],[18.81633,48.02259],[18.81617,48.02247],[18.81606,48.02233],[18.81589,48.02214],[18.81575,48.02194],[18.81569,48.02178],[18.81556,48.02142],[18.81553,48.02128],[18.8155,48.02103],[18.81553,48.02083],[18.81558,48.02067],[18.81567,48.02047],[18.81569,48.02031],[18.81575,48.02014],[18.81586,48.01994],[18.81596,48.01982],[18.81666,48.01789],[18.81703,48.01586],[18.81706,48.01382],[18.81702,48.01336],[18.817,48.01328],[18.81697,48.01308],[18.81697,48.01242],[18.81704,48.01196],[18.81704,48.01195],[18.81708,48.0116],[18.81708,48.01156],[18.81709,48.01153],[18.8171,48.01147],[18.81714,48.0113],[18.81714,48.01114],[18.81717,48.01106],[18.81724,48.01093],[18.8174,48.01054],[18.81796,48.00877],[18.81825,48.00697],[18.81827,48.00516],[18.81802,48.00336],[18.8175,48.00158],[18.8175,48.00156],[18.81747,48.00153],[18.81736,48.00128],[18.81737,48.00123],[18.81713,48.00057],[18.81702,48.00022],[18.81627,47.99857],[18.81528,47.99698],[18.81407,47.99546],[18.81265,47.99402],[18.81102,47.99268],[18.80922,47.99146],[18.80724,47.99035],[18.80512,47.98938],[18.80286,47.98855],[18.8005,47.98787],[18.79805,47.98734],[18.79553,47.98698],[18.79297,47.98677],[18.7904,47.98674],[18.78844,47.98684],[18.78826,47.98684],[18.78808,47.98686],[18.7875,47.98686],[18.78711,47.98683],[18.78683,47.98683],[18.786,47.98675],[18.78567,47.98669],[18.78536,47.98667],[18.78511,47.98661],[18.78456,47.98647],[18.78455,47.98649],[18.78434,47.98643],[18.78428,47.98642],[18.78423,47.9864],[18.78394,47.98632],[18.7838,47.98629],[18.7813,47.9858],[18.77874,47.98548],[18.77614,47.98532],[18.77353,47.98534],[18.77311,47.98535],[18.77308,47.98535],[18.77265,47.98537],[18.77256,47.98539],[18.77242,47.98539],[18.77219,47.98542],[18.77189,47.98542],[18.77153,47.98544],[18.77056,47.98544],[18.77019,47.98539],[18.76994,47.98536],[18.76958,47.98533],[18.76942,47.98531],[18.76914,47.98525],[18.76878,47.98519],[18.76847,47.98511],[18.76819,47.98503],[18.76819,47.98502],[18.76818,47.98502],[18.7679,47.98493],[18.76775,47.98489],[18.7675,47.98478],[18.76697,47.98456],[18.76686,47.9845],[18.76656,47.98433],[18.76639,47.98422],[18.766,47.984],[18.76575,47.98381],[18.76535,47.9834],[18.76365,47.98206],[18.76169,47.98079],[18.75954,47.97967],[18.75933,47.97956],[18.75931,47.97956],[18.75906,47.97944],[18.75878,47.97931],[18.75856,47.97917],[18.75831,47.97903],[18.75814,47.97892],[18.75792,47.97881],[18.75781,47.97871],[18.75743,47.97849],[18.75728,47.97839],[18.75711,47.97831],[18.75689,47.97811],[18.75661,47.97792],[18.7565,47.97783],[18.75622,47.97756],[18.75619,47.9775],[18.75612,47.97743],[18.75592,47.97721],[18.75589,47.97719],[18.75578,47.97711],[18.75572,47.97706],[18.75572,47.97703],[18.75564,47.97694],[18.75561,47.97689],[18.75556,47.97683],[18.7555,47.97675],[18.75547,47.9767],[18.75545,47.97667],[18.75544,47.97665],[18.75539,47.97658],[18.75536,47.97653],[18.75525,47.97633],[18.75517,47.97617],[18.75506,47.976],[18.755,47.97583],[18.75497,47.97581],[18.75489,47.97556],[18.75486,47.9755],[18.75481,47.97536],[18.75481,47.97528],[18.75478,47.97519],[18.75475,47.97503],[18.75475,47.97491],[18.75475,47.97488],[18.75472,47.97478],[18.75469,47.97458],[18.75469,47.9745],[18.75471,47.97441],[18.75471,47.9744],[18.75472,47.97426],[18.75472,47.97423],[18.75472,47.97419],[18.75473,47.97418],[18.75474,47.97409],[18.75474,47.97408],[18.75475,47.97403],[18.75475,47.974],[18.75478,47.97381],[18.75478,47.97375],[18.75481,47.97364],[18.75483,47.97356],[18.75483,47.9735],[18.75486,47.97342],[18.75491,47.97331],[18.75492,47.97328],[18.75494,47.97322],[18.75494,47.97317],[18.75497,47.97308],[18.75503,47.973],[18.75506,47.97292],[18.75508,47.97289],[18.75513,47.9728],[18.75514,47.97278],[18.75514,47.97277],[18.75517,47.97269],[18.75522,47.97261],[18.75525,47.97253],[18.75533,47.97236],[18.75539,47.97231],[18.75544,47.97222],[18.75547,47.97217],[18.75553,47.97211],[18.75558,47.97203],[18.75564,47.97197],[18.75572,47.97186],[18.75581,47.97178],[18.75586,47.97167],[18.75592,47.97164],[18.756,47.97153],[18.75603,47.9715],[18.75608,47.97147],[18.75617,47.97136],[18.75642,47.97111],[18.75654,47.97102],[18.7566,47.97096],[18.75683,47.97078],[18.75703,47.97061],[18.75702,47.97061],[18.75812,47.96967],[18.75953,47.96818],[18.76073,47.9666],[18.76168,47.96495],[18.7624,47.96325],[18.76285,47.9615],[18.76305,47.95974],[18.763,47.95797],[18.76268,47.95622],[18.76211,47.9545],[18.76129,47.95282],[18.76023,47.9512],[18.75893,47.94967],[18.75742,47.94822],[18.7557,47.94689],[18.7538,47.94567],[18.75172,47.94459],[18.7495,47.94364],[18.74715,47.94285],[18.74469,47.94222],[18.74215,47.94176],[18.73956,47.94146],[18.73693,47.94133],[18.7343,47.94138],[18.73419,47.94139],[18.73355,47.94144],[18.73291,47.94146],[18.73163,47.94148],[18.73099,47.94149],[18.73035,47.94146],[18.72907,47.94141],[18.72843,47.94138],[18.72837,47.94137],[18.72807,47.94133],[18.72804,47.94132],[18.35568,47.88724],[18.35565,47.88723],[18.35535,47.88719],[18.35289,47.88674],[18.35259,47.88667],[18.35258,47.88667],[18.246,47.86325],[18.24599,47.86325],[18.24571,47.86319],[18.24524,47.86307],[18.24404,47.86276],[18.24346,47.86261],[18.2429,47.86243],[18.24179,47.86206],[18.24124,47.86188],[18.24071,47.86166],[18.23943,47.86114],[18.23917,47.86103],[18.23892,47.86091],[18.23891,47.86091],[18.17651,47.83245],[18.17627,47.83234],[18.17603,47.83222],[18.17489,47.83165],[18.17441,47.83141],[18.17397,47.83114],[18.17308,47.8306],[18.17263,47.83033],[18.17222,47.83004],[18.17141,47.82945],[18.171,47.82915],[18.17063,47.82883],[18.1699,47.8282],[18.16953,47.82788],[18.16921,47.82754],[18.16842,47.82671],[18.16826,47.82654],[18.16811,47.82637],[18.16811,47.82636],[18.151,47.80643],[18.15083,47.80623],[18.15067,47.80603],[18.14991,47.80502],[18.14959,47.80461],[18.14935,47.80418],[18.14885,47.80332],[18.1486,47.80289],[18.14842,47.80244],[18.14806,47.80155],[18.14788,47.80111],[18.14777,47.80065],[18.14749,47.79952],[18.14744,47.79929],[18.1474,47.79906],[18.14474,47.78314],[18.1447,47.78291],[18.14468,47.78267],[18.14457,47.7815],[18.14453,47.78102],[18.14466,47.77913],[18.14508,47.77725],[18.1458,47.77542],[18.14605,47.77497],[18.14613,47.77481],[18.14681,47.77309],[18.14723,47.77132],[18.14739,47.76954],[18.14729,47.76775],[18.14693,47.76598],[18.14631,47.76424],[18.14543,47.76256],[18.14431,47.76094],[18.14296,47.75941],[18.14138,47.75797],[18.13961,47.75665],[18.13764,47.75545],[18.13551,47.75439],[18.13324,47.75348],[18.13083,47.75272],[18.12833,47.75213],[18.12576,47.75171],[18.12313,47.75147],[18.12048,47.7514],[18.11783,47.75151],[18.11348,47.75184],[18.11213,47.75196],[18.11035,47.75216],[18.10921,47.7523],[18.10735,47.75256],[18.10626,47.75273],[18.10504,47.75294],[18.1044,47.75305],[18.10333,47.75325],[18.10168,47.75358],[18.10022,47.7539],[18.0986,47.75429],[18.09757,47.75456],[18.09621,47.75493],[18.09525,47.75519],[18.09413,47.75549],[18.09401,47.75552],[18.09344,47.75567],[18.09287,47.75578],[18.09266,47.75582],[18.09158,47.75603],[18.09072,47.75615],[18.09035,47.75621],[18.08967,47.75631],[18.08897,47.75636],[18.08886,47.75636],[18.08775,47.75644],[18.08581,47.75653],[18.08541,47.75653],[18.0854,47.75653],[18.04275,47.75661],[18.04186,47.75662],[18.04179,47.75662],[18.04003,47.75667],[18.0392,47.75666],[18.03832,47.75665],[18.03772,47.75664],[18.03712,47.7566],[18.03626,47.75653],[18.03544,47.75647],[18.03444,47.75636],[18.03366,47.75628],[18.03317,47.75622],[18.03268,47.75614],[18.03155,47.75596],[18.03094,47.75586],[18.03036,47.75573],[18.02923,47.75547],[18.02878,47.75536],[18.02844,47.75527],[18.02703,47.75489],[18.02664,47.75478],[18.02626,47.75465],[18.02507,47.75427],[18.02458,47.75411],[18.02412,47.75393],[18.02351,47.75369],[18.02261,47.75333],[18.02252,47.75329],[18.01683,47.75097],[18.0145,47.75011],[18.01205,47.74942],[18.00952,47.7489],[18.00691,47.74855],[18.00427,47.74838],[18.00162,47.74838],[17.99897,47.74856],[17.99637,47.74892],[17.99383,47.74945],[17.99138,47.75015],[17.98905,47.75101],[17.98685,47.75202],[17.9827,47.75413],[17.98225,47.75437],[17.98122,47.75492],[17.97989,47.7555],[17.97847,47.75597],[17.97697,47.75636],[17.97544,47.75667],[17.97386,47.75683],[17.97228,47.75692],[17.97067,47.75686],[17.96908,47.75672],[17.96756,47.75647],[17.96603,47.75611],[17.96467,47.75567],[17.96423,47.75546],[17.96283,47.7548],[17.96256,47.75467],[17.96229,47.75453],[17.96107,47.75389],[17.9605,47.75358],[17.95968,47.75312],[17.95875,47.75259],[17.95853,47.75247],[17.95832,47.75234],[17.9571,47.75159],[17.95658,47.75128],[17.95612,47.75093],[17.95473,47.74987],[17.95294,47.74864],[17.95097,47.74753],[17.94886,47.74655],[17.94662,47.74571],[17.94427,47.74503],[17.94183,47.7445],[17.93933,47.74412],[17.93678,47.74392],[17.93421,47.74388],[17.91852,47.74413],[17.91851,47.74413],[17.91794,47.74414],[17.91628,47.74397],[17.91464,47.74372],[17.91306,47.74336],[17.9115,47.74294],[17.91075,47.74266],[17.90912,47.74205],[17.90678,47.74127],[17.90433,47.74065],[17.90181,47.7402],[17.89923,47.73991],[17.89662,47.7398],[17.894,47.73986],[17.89141,47.74009],[17.88886,47.74049],[17.88638,47.74106],[17.87247,47.74476],[17.87246,47.74476],[17.87239,47.74478],[17.87111,47.74511],[17.86981,47.74539],[17.86847,47.74558],[17.86711,47.74572],[17.86608,47.74575],[17.86422,47.74569],[17.86236,47.74556],[17.8605,47.74531],[17.85869,47.74497],[17.85805,47.74482],[17.85769,47.74473],[17.85618,47.74441],[17.84301,47.74185],[17.84193,47.74166],[17.84161,47.74161],[17.84027,47.74141],[17.84016,47.7414],[17.83696,47.74113],[17.83682,47.74112],[17.83597,47.74108],[17.8345,47.74097],[17.83377,47.74086],[17.83373,47.74086],[17.83129,47.74065],[17.82883,47.7406],[17.82637,47.74071],[17.82394,47.74097],[17.82155,47.74137],[17.81922,47.74193],[17.81712,47.74258],[17.81675,47.74272],[17.81586,47.743],[17.81494,47.74325],[17.8142,47.74339],[17.81178,47.74384],[17.8115,47.74389],[17.81006,47.74411],[17.80858,47.74428],[17.80711,47.74436],[17.80564,47.74436],[17.80449,47.74432],[17.80384,47.7443],[17.80286,47.74428],[17.80158,47.74414],[17.80033,47.74392],[17.79911,47.74358],[17.79861,47.74341],[17.79838,47.74334],[17.79591,47.74268],[17.79335,47.74219],[17.79074,47.74188],[17.78809,47.74174],[17.78543,47.74178],[17.78279,47.742],[17.78019,47.74239],[17.77767,47.74296],[17.77524,47.74369],[17.77293,47.74458],[17.77076,47.74563],[17.76886,47.74675],[17.76869,47.74686],[17.76837,47.74706],[17.76768,47.74748],[17.76706,47.74786],[17.76564,47.74853],[17.76433,47.74897],[17.76294,47.74936],[17.76156,47.74967],[17.76008,47.74986],[17.75864,47.74997],[17.75714,47.75],[17.75129,47.75008],[17.75069,47.75009],[17.74815,47.75021],[17.74562,47.75049],[17.74315,47.75094],[17.74076,47.75154],[17.74065,47.75157],[17.74003,47.75175],[17.73833,47.75214],[17.73466,47.75296],[17.73455,47.75299],[17.73343,47.75324],[17.73335,47.75326],[17.73278,47.75339],[17.73219,47.75348],[17.73209,47.7535],[17.73089,47.75369],[17.729,47.75392],[17.72827,47.75397],[17.72805,47.75399],[17.72708,47.75406],[17.72611,47.75403],[17.72554,47.75402],[17.72302,47.75403],[17.72051,47.75421],[17.71804,47.75454],[17.71563,47.75503],[17.71329,47.75567],[17.71105,47.75645],[17.70894,47.75738],[17.70696,47.75843],[17.70513,47.75961],[17.70348,47.76089],[17.70201,47.76227],[17.70075,47.76374],[17.69766,47.76776],[17.69747,47.768],[17.69727,47.76823],[17.69717,47.76835],[17.69661,47.76897],[17.69626,47.76932],[17.69601,47.76958],[17.69569,47.76989],[17.69535,47.77018],[17.69451,47.77088],[17.69431,47.77106],[17.69408,47.77122],[17.69309,47.77198],[17.69281,47.77219],[17.6925,47.7724],[17.69147,47.77308],[17.69122,47.77325],[17.69096,47.77341],[17.68982,47.77409],[17.68956,47.77425],[17.68928,47.7744],[17.68819,47.77499],[17.68781,47.77519],[17.6874,47.77538],[17.68627,47.7759],[17.68594,47.77606],[17.6856,47.77619],[17.68455,47.77662],[17.68403,47.77683],[17.68348,47.77701],[17.68284,47.77722],[17.68091,47.77792],[17.67907,47.77872],[17.67733,47.77962],[17.66725,47.7853],[17.66644,47.78577],[17.66374,47.78741],[17.66356,47.78753],[17.66336,47.78764],[17.66032,47.78936],[17.66017,47.78944],[17.66001,47.78953],[17.65686,47.7912],[17.65667,47.79131],[17.65647,47.7914],[17.65327,47.79298],[17.65311,47.79306],[17.65295,47.79313],[17.6498,47.79459],[17.64944,47.79475],[17.64907,47.7949],[17.64213,47.79768],[17.64084,47.79823],[17.63917,47.79899],[17.63829,47.79941],[17.63646,47.80031],[17.63561,47.80075],[17.63386,47.80169],[17.63304,47.80215],[17.63286,47.80226],[17.63101,47.80345],[17.62933,47.80475],[17.62038,47.81241],[17.62031,47.81247],[17.61408,47.81769],[17.61331,47.81833],[17.6125,47.81894],[17.61237,47.81904],[17.60885,47.82156],[17.60839,47.82189],[17.60792,47.82203],[17.60719,47.82219],[17.6065,47.82233],[17.60578,47.82244],[17.60503,47.82253],[17.60383,47.82258],[17.60322,47.82258],[17.60261,47.82256],[17.60203,47.8225],[17.60142,47.82242],[17.60083,47.82233],[17.60025,47.82222],[17.5998,47.82211],[17.59765,47.8217],[17.59541,47.82142],[17.59322,47.82127],[17.59308,47.82128],[17.59275,47.82128],[17.59206,47.82122],[17.591,47.82112],[17.58967,47.821],[17.58911,47.82094],[17.58803,47.82078],[17.58747,47.82064],[17.5873,47.82059],[17.58676,47.82048],[17.58511,47.82011],[17.58247,47.81971],[17.57979,47.81949],[17.57709,47.81946],[17.57439,47.81961],[17.57173,47.81994],[17.56914,47.82045],[17.56663,47.82114],[17.56424,47.82199],[17.56198,47.823],[17.55989,47.82416],[17.55799,47.82545],[17.5576,47.82574],[17.55753,47.82581],[17.55717,47.82611],[17.55675,47.82639],[17.55644,47.82661],[17.55536,47.82738],[17.55376,47.82862],[17.55234,47.82996],[17.55111,47.83137],[17.55007,47.83286],[17.54924,47.8344],[17.54862,47.83598],[17.54844,47.83653],[17.54826,47.83692],[17.54743,47.83871],[17.54739,47.83881],[17.54719,47.83919],[17.54694,47.83958],[17.5469,47.83964],[17.54568,47.84127],[17.54471,47.84299],[17.544,47.84476],[17.54357,47.84657],[17.54341,47.8484],[17.54347,47.84933],[17.54347,47.84981],[17.5435,47.84997],[17.54353,47.85025],[17.5435,47.85056],[17.54339,47.85153],[17.54333,47.85181],[17.54322,47.85208],[17.54308,47.85236],[17.54289,47.85261],[17.54259,47.85293],[17.54223,47.85331],[17.542,47.85356],[17.54164,47.85389],[17.54125,47.85417],[17.54083,47.85444],[17.54039,47.85469],[17.53944,47.85514],[17.53927,47.85519],[17.53922,47.85521],[17.53713,47.85621],[17.53519,47.85734],[17.53341,47.85858],[17.53182,47.85994],[17.53043,47.86138],[17.53042,47.86139],[17.53019,47.86167],[17.52985,47.86208],[17.52944,47.86259],[17.529,47.86317],[17.52843,47.86386],[17.52833,47.86398],[17.52831,47.864],[17.528,47.86439],[17.52761,47.86478],[17.52719,47.86517],[17.52675,47.8655],[17.52625,47.86583],[17.52572,47.86617],[17.52517,47.86644],[17.52458,47.86672],[17.524,47.86694],[17.52336,47.86717],[17.52278,47.86731],[17.52217,47.86744],[17.52153,47.86753],[17.52089,47.86758],[17.52025,47.86758],[17.51961,47.86756],[17.519,47.8675],[17.51836,47.86742],[17.51775,47.86731],[17.51771,47.86729],[17.51611,47.86698],[17.51334,47.86666],[17.51054,47.86652],[17.50967,47.86651],[17.50704,47.86657],[17.50443,47.8668],[17.50186,47.8672],[17.49936,47.86778],[17.49696,47.86851],[17.49468,47.8694],[17.49253,47.87043],[17.49055,47.8716],[17.49047,47.87165],[17.49011,47.87189],[17.48972,47.87211],[17.48444,47.87506],[17.48436,47.87511],[17.48325,47.87571],[17.48159,47.87661],[17.48139,47.87672],[17.48039,47.87722],[17.47939,47.87769],[17.47833,47.87817],[17.47758,47.87844],[17.47681,47.87872],[17.47519,47.87917],[17.47436,47.87933],[17.4735,47.87947],[17.47264,47.87958],[17.47202,47.87962],[17.47187,47.87964],[17.46938,47.87996],[17.46695,47.88044],[17.4646,47.88107],[17.46234,47.88185],[17.4602,47.88277],[17.4582,47.88382],[17.45636,47.88499],[17.45469,47.88628],[17.45321,47.88766],[17.45193,47.88913],[17.45086,47.89068],[17.45007,47.89218],[17.45003,47.89228],[17.44981,47.89272],[17.44958,47.89314],[17.44931,47.89356],[17.44883,47.89424],[17.44852,47.8947],[17.44815,47.89528],[17.44797,47.89556],[17.44715,47.89688],[17.44689,47.89731],[17.44667,47.89769],[17.44639,47.89806],[17.44578,47.89872],[17.44542,47.89906],[17.44484,47.89951],[17.44291,47.90122],[17.4413,47.90307],[17.44056,47.90406],[17.44018,47.90452],[17.44001,47.90474],[17.43951,47.90538],[17.43918,47.90584],[17.43883,47.90633],[17.43853,47.90678],[17.43753,47.90849],[17.43679,47.91025],[17.43632,47.91205],[17.43614,47.91381],[17.43611,47.91428],[17.43603,47.91472],[17.43589,47.91519],[17.43572,47.91564],[17.43553,47.91608],[17.43528,47.9165],[17.43524,47.91656],[17.43306,47.92004],[17.433,47.92014],[17.43278,47.92047],[17.43256,47.92078],[17.43228,47.92108],[17.43167,47.92169],[17.43133,47.92197],[17.43083,47.92236],[17.43031,47.92275],[17.42978,47.92311],[17.42922,47.92347],[17.42924,47.92348],[17.42764,47.92458],[17.42579,47.92615],[17.42422,47.92785],[17.4242,47.92787],[17.42389,47.92831],[17.42356,47.92867],[17.42319,47.92903],[17.42281,47.92936],[17.42239,47.92969],[17.42194,47.93],[17.42142,47.93033],[17.42089,47.93064],[17.42031,47.93092],[17.41969,47.93114],[17.41958,47.93118],[17.4172,47.93211],[17.41497,47.93321],[17.41293,47.93445],[17.41108,47.93583],[17.40945,47.93732],[17.40806,47.93892],[17.40692,47.94061],[17.40605,47.94236],[17.40546,47.94413],[17.40544,47.94419],[17.40533,47.94458],[17.40517,47.94503],[17.40497,47.94547],[17.40472,47.94589],[17.40444,47.94628],[17.404,47.94683],[17.40353,47.94733],[17.403,47.94786],[17.40244,47.94833],[17.40133,47.94925],[17.40089,47.94958],[17.40042,47.94992],[17.39992,47.95019],[17.39886,47.95075],[17.39828,47.95097],[17.39769,47.95117],[17.39708,47.95136],[17.39644,47.95153],[17.39581,47.95164],[17.39557,47.95168],[17.39553,47.95169],[17.39544,47.95171],[17.39529,47.95174],[17.39432,47.95194],[17.3943,47.95195],[17.39222,47.95247],[17.39197,47.95255],[17.3917,47.95262],[17.39133,47.95273],[17.39045,47.953],[17.39031,47.95305],[17.38958,47.95329],[17.38355,47.9554],[17.3814,47.95624],[17.37936,47.95721],[17.37747,47.9583],[17.37574,47.95951],[17.37419,47.96082],[17.37282,47.96222],[17.37203,47.96311],[17.37199,47.96315],[17.36768,47.96793],[17.36736,47.96828],[17.36675,47.96883],[17.3666,47.96896],[17.36425,47.97094],[17.36408,47.97108],[17.36333,47.97167],[17.36256,47.97222],[17.36175,47.97275],[17.36092,47.97328],[17.36046,47.97352],[17.35985,47.97385],[17.35914,47.97422],[17.35822,47.97469],[17.35777,47.97491],[17.35624,47.9757],[17.3562,47.97572],[17.356,47.97583],[17.35579,47.97595],[17.35442,47.97675],[17.35435,47.97679],[17.35404,47.97699],[17.35381,47.97713],[17.35287,47.97774],[17.35209,47.97827],[17.35205,47.9783],[17.35125,47.97888],[17.35002,47.97982],[17.34949,47.98024],[17.34902,47.98062],[17.34871,47.98088],[17.34822,47.98129],[17.34685,47.98255],[17.34565,47.98389],[17.34507,47.98461],[17.34475,47.985],[17.34419,47.98564],[17.34361,47.98625],[17.343,47.98683],[17.34236,47.98742],[17.34219,47.98756],[17.34218,47.98757],[17.34097,47.98858],[17.33956,47.98972],[17.33811,47.99083],[17.3377,47.99114],[17.33666,47.99192],[17.33619,47.99228],[17.33569,47.99258],[17.33519,47.99286],[17.33464,47.99314],[17.33353,47.99358],[17.33231,47.99397],[17.33131,47.99422],[17.33031,47.99444],[17.32875,47.99469],[17.32717,47.99494],[17.32644,47.99506],[17.32601,47.99513],[17.32589,47.99514],[17.32544,47.99522],[17.32478,47.99531],[17.32414,47.99536],[17.32281,47.99536],[17.32214,47.99533],[17.32187,47.99531],[17.32162,47.9953],[17.31875,47.9952],[17.31588,47.99531],[17.31309,47.99563],[17.31303,47.99564],[17.3115,47.99586],[17.31072,47.99592],[17.31039,47.99593],[17.3099,47.99595],[17.30778,47.99603],[17.30631,47.99606],[17.30336,47.99606],[17.30186,47.99603],[17.29984,47.99595],[17.29955,47.99594],[17.29881,47.99592],[17.29794,47.99586],[17.29706,47.99578],[17.29619,47.99567],[17.29533,47.99553],[17.29447,47.99536],[17.29364,47.99519],[17.29295,47.99503],[17.28986,47.99445],[17.28668,47.99412],[17.28645,47.9941],[17.28582,47.99407],[17.2853,47.99404],[17.28281,47.994],[17.28033,47.99412],[17.27787,47.99438],[17.27546,47.9948],[17.27488,47.99492],[17.27422,47.99508],[17.27359,47.99519],[17.27297,47.99532],[17.27297,47.99533],[17.2711,47.99572],[17.27105,47.99574],[17.27051,47.99588],[17.27016,47.99597],[17.26973,47.99609],[17.26943,47.99617],[17.26907,47.99628],[17.26792,47.99661],[17.26722,47.99675],[17.26697,47.99681],[17.26682,47.99684],[17.26669,47.99687],[17.26578,47.99708],[17.26572,47.99709],[17.2633,47.99772],[17.26096,47.99851],[17.25873,47.99945],[17.25666,48.00053],[17.25475,48.00174],[17.25302,48.00307],[17.2515,48.0045],[17.25019,48.00603],[17.24912,48.00764],[17.24828,48.0093],[17.24768,48.01102],[17.24734,48.01277],[17.24734,48.01278],[17.24733,48.01286],[17.24719,48.01389],[17.24717,48.01404],[17.24709,48.01445],[17.24683,48.01583],[17.24669,48.01652],[17.24668,48.0166],[17.24661,48.01692],[17.24644,48.01744],[17.24628,48.01794],[17.24608,48.01842],[17.24586,48.01889],[17.24558,48.01933],[17.24528,48.01978],[17.24492,48.02019],[17.24453,48.02058],[17.24408,48.02097],[17.24361,48.02133],[17.24308,48.02169],[17.2431,48.0217],[17.24192,48.0225],[17.24019,48.02395],[17.22444,48.03862],[17.22433,48.03873],[17.22435,48.03873],[17.22343,48.03958],[17.22212,48.0411]]]]},"properties":{"geometry_id":"geom-territoire-cs-sud-annexe-hongrie-1945-01-01","date_validite":"1945-01-01","statut":"provisoire_ohm","sources":[{"source_id":"src-openhistoricalmap","locator":"relation 2747873 — Kingdom of Hungary 1938-11-02 → 1939-03-14","usage":"tracé de la frontière"},{"source_id":"src-openhistoricalmap","locator":"relation 2695633 — Hungary 1921-1938","usage":"tracé de la frontière"},{"source_id":"src-westpoint-russian-balkan-baltic-1944","locator":"carte 31, trait rouge plein « 31 Dec. » et anneau de Budapest","usage":"front de l’Est au 31/12/1944"}],"method":"extraction_ohm_puis_decoupage_trait_de_cote","operations":["(Hongrie de novembre 1938 − Hongrie du Trianon) ∩ Tchécoslovaquie","− Ruthénie − zone soviétique du 31/12"],"precision":"frontières terrestres : celles d’OHM ; côtes : Natural Earth 1:10m (~1 km)","zone_incertitude_km":null,"surface_km2":5332,"logiciel":"Python — Shapely/GEOS, SciPy","script":"outils/geo/deriver_snapshot0_lot04.py","date_creation":"2026-09-29","auteur":"Claude","licence":"CC0 (OpenHistoricalMap) + segments sous licence d’origine listés dans licences_segments : à créditer","licences_segments":[{"relation":2695633,"licence":"CC-BY 4.0","source":"https://ipi.eprostor.gov.si/jgp/data","segments":5},{"relation":2747873,"licence":"CC-BY 4.0","source":"https://ipi.eprostor.gov.si/jgp/data","segments":5}],"points_a_verifier":["Sud de la Slovaquie annexé par la Hongrie (1er arbitrage de Vienne, 02/11/1938), partie encore à l'ouest du front."]}}